{
"type": "FeatureCollection",
"name": "pl_field_points_sample_v3",
"crs": { "type": "name", "properties": { "name": "urn:ogc:def:crs:OGC:1.3:CRS84" } },
"features": [
{ "type": "Feature", "properties": { "lulc": "settlements", "class_id": 5 }, "geometry": { "type": "Point", "coordinates": [ 134.551182976285759, 7.367374336740018 ] } },
{ "type": "Feature", "properties": { "lulc": "settlements", "class_id": 5 }, "geometry": { "type": "Point", "coordinates": [ 134.549207677587958, 7.368290647050869 ] } },
{ "type": "Feature", "properties": { "lulc": "settlements", "class_id": 5 }, "geometry": { "type": "Point", "coordinates": [ 134.547495540674959, 7.367301412390019 ] } },
{ "type": "Feature", "properties": { "lulc": "settlements", "class_id": 5 }, "geometry": { "type": "Point", "coordinates": [ 134.535263273618654, 7.368853432795422 ] } },
{ "type": "Feature", "properties": { "lulc": "settlements", "class_id": 5 }, "geometry": { "type": "Point", "coordinates": [ 134.540230848634337, 7.369945712733443 ] } },
{ "type": "Feature", "properties": { "lulc": "settlements", "class_id": 5 }, "geometry": { "type": "Point", "coordinates": [ 134.541448368216919, 7.369115009268243 ] } },
{ "type": "Feature", "properties": { "lulc": "settlements", "class_id": 5 }, "geometry": { "type": "Point", "coordinates": [ 134.540570105393016, 7.368705998783468 ] } },
{ "type": "Feature", "properties": { "lulc": "settlements", "class_id": 5 }, "geometry": { "type": "Point", "coordinates": [ 134.488165240703296, 7.348146880675725 ] } },
{ "type": "Feature", "properties": { "lulc": "settlements", "class_id": 5 }, "geometry": { "type": "Point", "coordinates": [ 134.485608925173466, 7.347552388692042 ] } },
{ "type": "Feature", "properties": { "lulc": "settlements", "class_id": 5 }, "geometry": { "type": "Point", "coordinates": [ 134.479411940735503, 7.350667526686545 ] } },
{ "type": "Feature", "properties": { "lulc": "settlements", "class_id": 5 }, "geometry": { "type": "Point", "coordinates": [ 134.466937120949922, 7.343100832718219 ] } },
{ "type": "Feature", "properties": { "lulc": "settlements", "class_id": 5 }, "geometry": { "type": "Point", "coordinates": [ 134.45512575421813, 7.336009732336838 ] } },
{ "type": "Feature", "properties": { "lulc": "settlements", "class_id": 5 }, "geometry": { "type": "Point", "coordinates": [ 134.54514135241962, 7.329986339558154 ] } },
{ "type": "Feature", "properties": { "lulc": "settlements", "class_id": 5 }, "geometry": { "type": "Point", "coordinates": [ 134.478039853237277, 7.342370796562261 ] } },
{ "type": "Feature", "properties": { "lulc": "settlements", "class_id": 5 }, "geometry": { "type": "Point", "coordinates": [ 134.466846758168487, 7.338763419205268 ] } },
{ "type": "Feature", "properties": { "lulc": "settlements", "class_id": 5 }, "geometry": { "type": "Point", "coordinates": [ 134.467073854106246, 7.338284258666419 ] } },
{ "type": "Feature", "properties": { "lulc": "settlements", "class_id": 5 }, "geometry": { "type": "Point", "coordinates": [ 134.466207084794036, 7.33856366989875 ] } },
{ "type": "Feature", "properties": { "lulc": "settlements", "class_id": 5 }, "geometry": { "type": "Point", "coordinates": [ 134.467425793360576, 7.338896585409613 ] } },
{ "type": "Feature", "properties": { "lulc": "mangroves", "class_id": 8 }, "geometry": { "type": "Point", "coordinates": [ 134.467605329939659, 7.341713288428308 ] } },
{ "type": "Feature", "properties": { "lulc": "mangroves", "class_id": 8 }, "geometry": { "type": "Point", "coordinates": [ 134.467962025129879, 7.341427932276139 ] } },
{ "type": "Feature", "properties": { "lulc": "mangroves", "class_id": 8 }, "geometry": { "type": "Point", "coordinates": [ 134.471096186867896, 7.337138078121874 ] } },
{ "type": "Feature", "properties": { "lulc": "mangroves", "class_id": 8 }, "geometry": { "type": "Point", "coordinates": [ 134.472327974258093, 7.336258229986021 ] } },
{ "type": "Feature", "properties": { "lulc": "mangroves", "class_id": 8 }, "geometry": { "type": "Point", "coordinates": [ 134.475661885302571, 7.33055110694265 ] } },
{ "type": "Feature", "properties": { "lulc": "mangroves", "class_id": 8 }, "geometry": { "type": "Point", "coordinates": [ 134.475509695354731, 7.331354860104591 ] } },
{ "type": "Feature", "properties": { "lulc": "mangroves", "class_id": 8 }, "geometry": { "type": "Point", "coordinates": [ 134.474786793102595, 7.332225196368705 ] } },
{ "type": "Feature", "properties": { "lulc": "mangroves", "class_id": 8 }, "geometry": { "type": "Point", "coordinates": [ 134.473897433095004, 7.334051475742583 ] } },
{ "type": "Feature", "properties": { "lulc": "mangroves", "class_id": 8 }, "geometry": { "type": "Point", "coordinates": [ 134.478372768748159, 7.332053982677404 ] } },
{ "type": "Feature", "properties": { "lulc": "mangroves", "class_id": 8 }, "geometry": { "type": "Point", "coordinates": [ 134.478677148643811, 7.333071752953471 ] } },
{ "type": "Feature", "properties": { "lulc": "mangroves", "class_id": 8 }, "geometry": { "type": "Point", "coordinates": [ 134.478134971954688, 7.333471251566507 ] } },
{ "type": "Feature", "properties": { "lulc": "mangroves", "class_id": 8 }, "geometry": { "type": "Point", "coordinates": [ 134.478087412596011, 7.330898290261122 ] } },
{ "type": "Feature", "properties": { "lulc": "mangroves", "class_id": 8 }, "geometry": { "type": "Point", "coordinates": [ 134.477481030772651, 7.329300295808978 ] } },
{ "type": "Feature", "properties": { "lulc": "mangroves", "class_id": 8 }, "geometry": { "type": "Point", "coordinates": [ 134.478406060299278, 7.329728330037231 ] } },
{ "type": "Feature", "properties": { "lulc": "mangroves", "class_id": 8 }, "geometry": { "type": "Point", "coordinates": [ 134.479114694743828, 7.33117889047742 ] } },
{ "type": "Feature", "properties": { "lulc": "mangroves", "class_id": 8 }, "geometry": { "type": "Point", "coordinates": [ 134.475963887230307, 7.330146852393745 ] } },
{ "type": "Feature", "properties": { "lulc": "mangroves", "class_id": 8 }, "geometry": { "type": "Point", "coordinates": [ 134.466870537847882, 7.346024544293985 ] } },
{ "type": "Feature", "properties": { "lulc": "mangroves", "class_id": 8 }, "geometry": { "type": "Point", "coordinates": [ 134.469595689101084, 7.34489738749292 ] } },
{ "type": "Feature", "properties": { "lulc": "mangroves", "class_id": 8 }, "geometry": { "type": "Point", "coordinates": [ 134.4726014405706, 7.344735685673358 ] } },
{ "type": "Feature", "properties": { "lulc": "mangroves", "class_id": 8 }, "geometry": { "type": "Point", "coordinates": [ 134.474204190958602, 7.344740441609227 ] } },
{ "type": "Feature", "properties": { "lulc": "mangroves", "class_id": 8 }, "geometry": { "type": "Point", "coordinates": [ 134.502673223073259, 7.536119300996853 ] } },
{ "type": "Feature", "properties": { "lulc": "bareland", "class_id": 6 }, "geometry": { "type": "Point", "coordinates": [ 134.517117000308815, 7.53009353025023 ] } },
{ "type": "Feature", "properties": { "lulc": "bareland", "class_id": 6 }, "geometry": { "type": "Point", "coordinates": [ 134.517326261487057, 7.529175634627422 ] } },
{ "type": "Feature", "properties": { "lulc": "bareland", "class_id": 6 }, "geometry": { "type": "Point", "coordinates": [ 134.515923260405572, 7.531434704165422 ] } },
{ "type": "Feature", "properties": { "lulc": "bareland", "class_id": 6 }, "geometry": { "type": "Point", "coordinates": [ 134.516707989824027, 7.530155357416533 ] } },
{ "type": "Feature", "properties": { "lulc": "bareland", "class_id": 6 }, "geometry": { "type": "Point", "coordinates": [ 134.512881839417076, 7.524234217259038 ] } },
{ "type": "Feature", "properties": { "lulc": "bareland", "class_id": 6 }, "geometry": { "type": "Point", "coordinates": [ 134.513630899316524, 7.523789537255242 ] } },
{ "type": "Feature", "properties": { "lulc": "bareland", "class_id": 6 }, "geometry": { "type": "Point", "coordinates": [ 134.510824897153526, 7.523927459395456 ] } },
{ "type": "Feature", "properties": { "lulc": "bareland", "class_id": 6 }, "geometry": { "type": "Point", "coordinates": [ 134.512158937164941, 7.420281348992008 ] } },
{ "type": "Feature", "properties": { "lulc": "bareland", "class_id": 6 }, "geometry": { "type": "Point", "coordinates": [ 134.511326648387779, 7.419834291020278 ] } },
{ "type": "Feature", "properties": { "lulc": "bareland", "class_id": 6 }, "geometry": { "type": "Point", "coordinates": [ 134.512715381661678, 7.418436045874652 ] } },
{ "type": "Feature", "properties": { "lulc": "bareland", "class_id": 6 }, "geometry": { "type": "Point", "coordinates": [ 134.515197980185548, 7.41628160692578 ] } },
{ "type": "Feature", "properties": { "lulc": "bareland", "class_id": 6 }, "geometry": { "type": "Point", "coordinates": [ 134.520391462155061, 7.416331544252412 ] } },
{ "type": "Feature", "properties": { "lulc": "bareland", "class_id": 6 }, "geometry": { "type": "Point", "coordinates": [ 134.515685463612243, 7.416293496765456 ] } },
{ "type": "Feature", "properties": { "lulc": "bareland", "class_id": 6 }, "geometry": { "type": "Point", "coordinates": [ 134.513119636210689, 7.417522906187715 ] } },
{ "type": "Feature", "properties": { "lulc": "bareland", "class_id": 6 }, "geometry": { "type": "Point", "coordinates": [ 134.511577524004991, 7.416072345747523 ] } },
{ "type": "Feature", "properties": { "lulc": "mining", "class_id": -1 }, "geometry": { "type": "Point", "coordinates": [ 134.582182958939228, 7.364804546058561 ] } },
{ "type": "Feature", "properties": { "lulc": "mining", "class_id": -1 }, "geometry": { "type": "Point", "coordinates": [ 134.582549166001201, 7.364357488086831 ] } },
{ "type": "Feature", "properties": { "lulc": "mining", "class_id": -1 }, "geometry": { "type": "Point", "coordinates": [ 134.580794225665329, 7.365489400823767 ] } },
{ "type": "Feature", "properties": { "lulc": "mining", "class_id": -1 }, "geometry": { "type": "Point", "coordinates": [ 134.580837029088144, 7.365473944032192 ] } },
{ "type": "Feature", "properties": { "lulc": "mining", "class_id": -1 }, "geometry": { "type": "Point", "coordinates": [ 134.580793036681371, 7.365522692374854 ] } },
{ "type": "Feature", "properties": { "lulc": "mining", "class_id": -1 }, "geometry": { "type": "Point", "coordinates": [ 134.581041534330524, 7.365502479647408 ] } },
{ "type": "Feature", "properties": { "lulc": "mining", "class_id": -1 }, "geometry": { "type": "Point", "coordinates": [ 134.581052235186235, 7.365459676224583 ] } },
{ "type": "Feature", "properties": { "lulc": "mining", "class_id": -1 }, "geometry": { "type": "Point", "coordinates": [ 134.580728831547134, 7.36562851194795 ] } },
{ "type": "Feature", "properties": { "lulc": "mining", "class_id": -1 }, "geometry": { "type": "Point", "coordinates": [ 134.582086651237859, 7.365107736970242 ] } },
{ "type": "Feature", "properties": { "lulc": "mining", "class_id": -1 }, "geometry": { "type": "Point", "coordinates": [ 134.582138966532426, 7.365119626809916 ] } },
{ "type": "Feature", "properties": { "lulc": "mining", "class_id": -1 }, "geometry": { "type": "Point", "coordinates": [ 134.581909492626721, 7.365135083601491 ] } },
{ "type": "Feature", "properties": { "lulc": "mining", "class_id": -1 }, "geometry": { "type": "Point", "coordinates": [ 134.582048603750934, 7.364460929691994 ] } },
{ "type": "Feature", "properties": { "lulc": "mining", "class_id": -1 }, "geometry": { "type": "Point", "coordinates": [ 134.582308396747834, 7.36403943487556 ] } },
{ "type": "Feature", "properties": { "lulc": "mining", "class_id": -1 }, "geometry": { "type": "Point", "coordinates": [ 134.581512966473639, 7.366586833025655 ] } },
{ "type": "Feature", "properties": { "lulc": "mining", "class_id": -1 }, "geometry": { "type": "Point", "coordinates": [ 134.58147789144661, 7.366576726661932 ] } },
{ "type": "Feature", "properties": { "lulc": "mining", "class_id": -1 }, "geometry": { "type": "Point", "coordinates": [ 134.581502860109907, 7.366614179656904 ] } },
{ "type": "Feature", "properties": { "lulc": "mining", "class_id": -1 }, "geometry": { "type": "Point", "coordinates": [ 134.581486214334404, 7.367304979341949 ] } },
{ "type": "Feature", "properties": { "lulc": "mining", "class_id": -1 }, "geometry": { "type": "Point", "coordinates": [ 134.582360117550365, 7.364887180444303 ] } },
{ "type": "Feature", "properties": { "lulc": "mining", "class_id": -1 }, "geometry": { "type": "Point", "coordinates": [ 134.582248353057452, 7.365121410285875 ] } },
{ "type": "Feature", "properties": { "lulc": "forest", "class_id": 1 }, "geometry": { "type": "Point", "coordinates": [ 134.541771771856276, 7.382840838351588 ] } },
{ "type": "Feature", "properties": { "lulc": "forest", "class_id": 1 }, "geometry": { "type": "Point", "coordinates": [ 134.545681151140997, 7.393218290418794 ] } },
{ "type": "Feature", "properties": { "lulc": "forest", "class_id": 1 }, "geometry": { "type": "Point", "coordinates": [ 134.548724950097466, 7.399305888331728 ] } },
{ "type": "Feature", "properties": { "lulc": "forest", "class_id": 1 }, "geometry": { "type": "Point", "coordinates": [ 134.540126218045458, 7.404480346557722 ] } },
{ "type": "Feature", "properties": { "lulc": "forest", "class_id": 1 }, "geometry": { "type": "Point", "coordinates": [ 134.530233871436963, 7.408817760070688 ] } },
{ "type": "Feature", "properties": { "lulc": "forest", "class_id": 1 }, "geometry": { "type": "Point", "coordinates": [ 134.544920201401908, 7.413231268557565 ] } },
{ "type": "Feature", "properties": { "lulc": "forest", "class_id": 1 }, "geometry": { "type": "Point", "coordinates": [ 134.57604304573178, 7.415590212748827 ] } },
{ "type": "Feature", "properties": { "lulc": "forest", "class_id": 1 }, "geometry": { "type": "Point", "coordinates": [ 134.529777301593469, 7.420916860922644 ] } },
{ "type": "Feature", "properties": { "lulc": "forest", "class_id": 1 }, "geometry": { "type": "Point", "coordinates": [ 134.495857966972324, 7.348550540732642 ] } },
{ "type": "Feature", "properties": { "lulc": "forest", "class_id": 1 }, "geometry": { "type": "Point", "coordinates": [ 134.49176786212459, 7.341359565697989 ] } },
{ "type": "Feature", "properties": { "lulc": "forest", "class_id": 1 }, "geometry": { "type": "Point", "coordinates": [ 134.449763436525302, 7.355855658228163 ] } },
{ "type": "Feature", "properties": { "lulc": "forest", "class_id": 1 }, "geometry": { "type": "Point", "coordinates": [ 134.44129787067763, 7.359888691845482 ] } },
{ "type": "Feature", "properties": { "lulc": "forest", "class_id": 1 }, "geometry": { "type": "Point", "coordinates": [ 134.44342852994717, 7.359413098258534 ] } },
{ "type": "Feature", "properties": { "lulc": "forest", "class_id": 1 }, "geometry": { "type": "Point", "coordinates": [ 134.448393726994908, 7.350357796363045 ] } },
{ "type": "Feature", "properties": { "lulc": "forest", "class_id": 1 }, "geometry": { "type": "Point", "coordinates": [ 134.608592670822418, 7.589790631776133 ] } },
{ "type": "Feature", "properties": { "lulc": "forest", "class_id": 1 }, "geometry": { "type": "Point", "coordinates": [ 134.595884810179172, 7.585719550671858 ] } },
{ "type": "Feature", "properties": { "lulc": "forest", "class_id": 1 }, "geometry": { "type": "Point", "coordinates": [ 134.580133150579428, 7.590437439054383 ] } },
{ "type": "Feature", "properties": { "lulc": "forest", "class_id": 1 }, "geometry": { "type": "Point", "coordinates": [ 134.586525128388018, 7.611629889288784 ] } },
{ "type": "Feature", "properties": { "lulc": "forest", "class_id": 1 }, "geometry": { "type": "Point", "coordinates": [ 134.602010455579034, 7.573696544793814 ] } },
{ "type": "Feature", "properties": { "lulc": "forest", "class_id": 1 }, "geometry": { "type": "Point", "coordinates": [ 134.593830245883538, 7.575066254324224 ] } },
{ "type": "Feature", "properties": { "lulc": "forest", "class_id": 1 }, "geometry": { "type": "Point", "coordinates": [ 134.576899114188194, 7.600938545454193 ] } },
{ "type": "Feature", "properties": { "lulc": "forest", "class_id": 1 }, "geometry": { "type": "Point", "coordinates": [ 134.57511088230126, 7.601014640428105 ] } },
{ "type": "Feature", "properties": { "lulc": "forest", "class_id": 1 }, "geometry": { "type": "Point", "coordinates": [ 134.616164120726609, 7.573696544793814 ] } },
{ "type": "Feature", "properties": { "lulc": "forest", "class_id": 1 }, "geometry": { "type": "Point", "coordinates": [ 134.626436942204691, 7.578490528150249 ] } },
{ "type": "Feature", "properties": { "lulc": "forest", "class_id": 1 }, "geometry": { "type": "Point", "coordinates": [ 134.624382377909086, 7.586023930567505 ] } },
{ "type": "Feature", "properties": { "lulc": "forest", "class_id": 1 }, "geometry": { "type": "Point", "coordinates": [ 134.622936573404758, 7.592796383245644 ] } },
{ "type": "Feature", "properties": { "lulc": "forest", "class_id": 1 }, "geometry": { "type": "Point", "coordinates": [ 134.626474989691644, 7.598541553775976 ] } },
{ "type": "Feature", "properties": { "lulc": "forest", "class_id": 1 }, "geometry": { "type": "Point", "coordinates": [ 134.606994676370249, 7.60919485012361 ] } },
{ "type": "Feature", "properties": { "lulc": "forest", "class_id": 1 }, "geometry": { "type": "Point", "coordinates": [ 134.602847500292086, 7.588192637323988 ] } },
{ "type": "Feature", "properties": { "lulc": "bareland", "class_id": 6 }, "geometry": { "type": "Point", "coordinates": [ 134.578554179870792, 7.593405143036936 ] } },
{ "type": "Feature", "properties": { "lulc": "bareland", "class_id": 6 }, "geometry": { "type": "Point", "coordinates": [ 134.582734647500075, 7.593300512447808 ] } },
{ "type": "Feature", "properties": { "lulc": "grassland", "class_id": 3 }, "geometry": { "type": "Point", "coordinates": [ 134.584423004733736, 7.587923926947361 ] } },
{ "type": "Feature", "properties": { "lulc": "grassland", "class_id": 3 }, "geometry": { "type": "Point", "coordinates": [ 134.58898870316844, 7.587909659139752 ] } },
{ "type": "Feature", "properties": { "lulc": "grassland", "class_id": 3 }, "geometry": { "type": "Point", "coordinates": [ 134.586327757049474, 7.588518418931046 ] } },
{ "type": "Feature", "properties": { "lulc": "grassland", "class_id": 3 }, "geometry": { "type": "Point", "coordinates": [ 134.584342153823968, 7.588076116895184 ] } },
{ "type": "Feature", "properties": { "lulc": "grassland", "class_id": 3 }, "geometry": { "type": "Point", "coordinates": [ 134.586667806464135, 7.589540945142984 ] } },
{ "type": "Feature", "properties": { "lulc": null, "class_id": -1 }, "geometry": { "type": "Point", "coordinates": [ 134.586674940367942, 7.588511285027241 ] } },
{ "type": "Feature", "properties": { "lulc": "shrubland", "class_id": 4 }, "geometry": { "type": "Point", "coordinates": [ 134.586387206247849, 7.588007155825077 ] } },
{ "type": "Feature", "properties": { "lulc": "grassland", "class_id": 3 }, "geometry": { "type": "Point", "coordinates": [ 134.589490454402664, 7.587643326731062 ] } },
{ "type": "Feature", "properties": { "lulc": "grassland", "class_id": 3 }, "geometry": { "type": "Point", "coordinates": [ 134.590422617833099, 7.587424553681065 ] } },
{ "type": "Feature", "properties": { "lulc": "grassland", "class_id": 3 }, "geometry": { "type": "Point", "coordinates": [ 134.58928832712823, 7.587231938278351 ] } },
{ "type": "Feature", "properties": { "lulc": "grassland", "class_id": 3 }, "geometry": { "type": "Point", "coordinates": [ 134.588056539738034, 7.587510160526716 ] } },
{ "type": "Feature", "properties": { "lulc": "grassland", "class_id": 3 }, "geometry": { "type": "Point", "coordinates": [ 134.58660835726576, 7.587693264057691 ] } },
{ "type": "Feature", "properties": { "lulc": "shrubland", "class_id": 4 }, "geometry": { "type": "Point", "coordinates": [ 134.586249284107623, 7.588406654438113 ] } },
{ "type": "Feature", "properties": { "lulc": "shrubland", "class_id": 4 }, "geometry": { "type": "Point", "coordinates": [ 134.586199346781001, 7.588803775083214 ] } },
{ "type": "Feature", "properties": { "lulc": "shrubland", "class_id": 4 }, "geometry": { "type": "Point", "coordinates": [ 134.58748107149782, 7.589238943215272 ] } },
{ "type": "Feature", "properties": { "lulc": "grassland", "class_id": 3 }, "geometry": { "type": "Point", "coordinates": [ 134.586639270848906, 7.588970232838646 ] } },
{ "type": "Feature", "properties": { "lulc": "grassland", "class_id": 3 }, "geometry": { "type": "Point", "coordinates": [ 134.586896091385881, 7.589165226209295 ] } },
{ "type": "Feature", "properties": { "lulc": "grassland", "class_id": 3 }, "geometry": { "type": "Point", "coordinates": [ 134.587274188287495, 7.589441070489725 ] } },
{ "type": "Feature", "properties": { "lulc": "shrubland", "class_id": 4 }, "geometry": { "type": "Point", "coordinates": [ 134.590386948314091, 7.58279227214419 ] } },
{ "type": "Feature", "properties": { "lulc": "shrubland", "class_id": 4 }, "geometry": { "type": "Point", "coordinates": [ 134.590824494414079, 7.583148967334401 ] } },
{ "type": "Feature", "properties": { "lulc": "shrubland", "class_id": 4 }, "geometry": { "type": "Point", "coordinates": [ 134.591250150674398, 7.583417677711027 ] } },
{ "type": "Feature", "properties": { "lulc": "shrubland", "class_id": 4 }, "geometry": { "type": "Point", "coordinates": [ 134.591649649287433, 7.583420055678961 ] } },
{ "type": "Feature", "properties": { "lulc": "shrubland", "class_id": 4 }, "geometry": { "type": "Point", "coordinates": [ 134.59221798362384, 7.583427189582766 ] } },
{ "type": "Feature", "properties": { "lulc": "shrubland", "class_id": 4 }, "geometry": { "type": "Point", "coordinates": [ 134.592182314104804, 7.583543710011567 ] } },
{ "type": "Feature", "properties": { "lulc": "shrubland", "class_id": 4 }, "geometry": { "type": "Point", "coordinates": [ 134.592122864906457, 7.583153723270271 ] } },
{ "type": "Feature", "properties": { "lulc": "shrubland", "class_id": 4 }, "geometry": { "type": "Point", "coordinates": [ 134.592137132714043, 7.581836329034425 ] } },
{ "type": "Feature", "properties": { "lulc": "shrubland", "class_id": 4 }, "geometry": { "type": "Point", "coordinates": [ 134.591932627471664, 7.581862486681707 ] } },
{ "type": "Feature", "properties": { "lulc": "shrubland", "class_id": 4 }, "geometry": { "type": "Point", "coordinates": [ 134.59156642040972, 7.582264363262678 ] } },
{ "type": "Feature", "properties": { "lulc": "shrubland", "class_id": 4 }, "geometry": { "type": "Point", "coordinates": [ 134.590907723291792, 7.582311922621373 ] } },
{ "type": "Feature", "properties": { "lulc": "shrubland", "class_id": 4 }, "geometry": { "type": "Point", "coordinates": [ 134.590681816337991, 7.58206461395616 ] } },
{ "type": "Feature", "properties": { "lulc": "shrubland", "class_id": 4 }, "geometry": { "type": "Point", "coordinates": [ 134.590743643504283, 7.58200992069366 ] } },
{ "type": "Feature", "properties": { "lulc": "shrubland", "class_id": 4 }, "geometry": { "type": "Point", "coordinates": [ 134.590883943612454, 7.582250095455069 ] } },
{ "type": "Feature", "properties": { "lulc": "shrubland", "class_id": 4 }, "geometry": { "type": "Point", "coordinates": [ 134.590448775480382, 7.582961107867557 ] } },
{ "type": "Feature", "properties": { "lulc": "shrubland", "class_id": 4 }, "geometry": { "type": "Point", "coordinates": [ 134.589740141035833, 7.583058604552881 ] } },
{ "type": "Feature", "properties": { "lulc": "shrubland", "class_id": 4 }, "geometry": { "type": "Point", "coordinates": [ 134.589233633865746, 7.583301157282224 ] } },
{ "type": "Feature", "properties": { "lulc": "shrubland", "class_id": 4 }, "geometry": { "type": "Point", "coordinates": [ 134.589438139108125, 7.583277377602877 ] } },
{ "type": "Feature", "properties": { "lulc": "grassland", "class_id": 3 }, "geometry": { "type": "Point", "coordinates": [ 134.588769930118474, 7.583265487763203 ] } },
{ "type": "Feature", "properties": { "lulc": "grassland", "class_id": 3 }, "geometry": { "type": "Point", "coordinates": [ 134.587576190215231, 7.582711421234409 ] } },
{ "type": "Feature", "properties": { "lulc": "grassland", "class_id": 3 }, "geometry": { "type": "Point", "coordinates": [ 134.587771183585858, 7.583137077494727 ] } },
{ "type": "Feature", "properties": { "lulc": "grassland", "class_id": 3 }, "geometry": { "type": "Point", "coordinates": [ 134.587143400051104, 7.583408165839288 ] } },
{ "type": "Feature", "properties": { "lulc": "grassland", "class_id": 3 }, "geometry": { "type": "Point", "coordinates": [ 134.587597591926624, 7.582207292032244 ] } },
{ "type": "Feature", "properties": { "lulc": "grassland", "class_id": 3 }, "geometry": { "type": "Point", "coordinates": [ 134.588135012679885, 7.582392773531153 ] } },
{ "type": "Feature", "properties": { "lulc": "grassland", "class_id": 3 }, "geometry": { "type": "Point", "coordinates": [ 134.588028004122833, 7.582587766901803 ] } },
{ "type": "Feature", "properties": { "lulc": "grassland", "class_id": 3 }, "geometry": { "type": "Point", "coordinates": [ 134.587597591926624, 7.582525939735499 ] } },
{ "type": "Feature", "properties": { "lulc": "grassland", "class_id": 3 }, "geometry": { "type": "Point", "coordinates": [ 134.587388330748382, 7.583346338672984 ] } },
{ "type": "Feature", "properties": { "lulc": "grassland", "class_id": 3 }, "geometry": { "type": "Point", "coordinates": [ 134.586986454167402, 7.583267865731138 ] } },
{ "type": "Feature", "properties": { "lulc": "grassland", "class_id": 3 }, "geometry": { "type": "Point", "coordinates": [ 134.547012813184409, 7.364742124400284 ] } },
{ "type": "Feature", "properties": { "lulc": "grassland", "class_id": 3 }, "geometry": { "type": "Point", "coordinates": [ 134.546753614679517, 7.365391309646467 ] } },
{ "type": "Feature", "properties": { "lulc": "grassland", "class_id": 3 }, "geometry": { "type": "Point", "coordinates": [ 134.549259992882725, 7.365053638199734 ] } },
{ "type": "Feature", "properties": { "lulc": "grassland", "class_id": 3 }, "geometry": { "type": "Point", "coordinates": [ 134.547497918643103, 7.365736114997005 ] } },
{ "type": "Feature", "properties": { "lulc": "shrubland", "class_id": 4 }, "geometry": { "type": "Point", "coordinates": [ 134.549490655772416, 7.365003700873105 ] } },
{ "type": "Feature", "properties": { "lulc": "shrubland", "class_id": 4 }, "geometry": { "type": "Point", "coordinates": [ 134.546600235747746, 7.366110644946725 ] } },
{ "type": "Feature", "properties": { "lulc": "shrubland", "class_id": 4 }, "geometry": { "type": "Point", "coordinates": [ 134.546727457032262, 7.366073786443737 ] } },
{ "type": "Feature", "properties": { "lulc": "shrubland", "class_id": 4 }, "geometry": { "type": "Point", "coordinates": [ 134.546517006870033, 7.366214086551886 ] } },
{ "type": "Feature", "properties": { "lulc": "cropland", "class_id": 2 }, "geometry": { "type": "Point", "coordinates": [ 134.541611259020669, 7.36451265049458 ] } },
{ "type": "Feature", "properties": { "lulc": "cropland", "class_id": 2 }, "geometry": { "type": "Point", "coordinates": [ 134.541786039663862, 7.364600635308165 ] } },
{ "type": "Feature", "properties": { "lulc": "cropland", "class_id": 2 }, "geometry": { "type": "Point", "coordinates": [ 134.54078372617937, 7.36416903412801 ] } },
{ "type": "Feature", "properties": { "lulc": "cropland", "class_id": 2 }, "geometry": { "type": "Point", "coordinates": [ 134.54068147355818, 7.36412860867312 ] } },
{ "type": "Feature", "properties": { "lulc": "cropland", "class_id": 2 }, "geometry": { "type": "Point", "coordinates": [ 134.540475779331814, 7.36410601797774 ] } },
{ "type": "Feature", "properties": { "lulc": "cropland", "class_id": 2 }, "geometry": { "type": "Point", "coordinates": [ 134.541325902868493, 7.36444487840844 ] } },
{ "type": "Feature", "properties": { "lulc": "cropland", "class_id": 2 }, "geometry": { "type": "Point", "coordinates": [ 134.541520896239149, 7.364417531777191 ] } },
{ "type": "Feature", "properties": { "lulc": "cropland", "class_id": 2 }, "geometry": { "type": "Point", "coordinates": [ 134.541463825008691, 7.364756392207891 ] } },
{ "type": "Feature", "properties": { "lulc": "cropland", "class_id": 2 }, "geometry": { "type": "Point", "coordinates": [ 134.540960884790508, 7.364235617230183 ] } },
{ "type": "Feature", "properties": { "lulc": "cropland", "class_id": 2 }, "geometry": { "type": "Point", "coordinates": [ 134.54110118489865, 7.364226105358444 ] } },
{ "type": "Feature", "properties": { "lulc": "cropland", "class_id": 2 }, "geometry": { "type": "Point", "coordinates": [ 134.540946616982893, 7.364152388352467 ] } },
{ "type": "Feature", "properties": { "lulc": "cropland", "class_id": 2 }, "geometry": { "type": "Point", "coordinates": [ 134.540493614091332, 7.364220160438607 ] } },
{ "type": "Feature", "properties": { "lulc": "cropland", "class_id": 2 }, "geometry": { "type": "Point", "coordinates": [ 134.540517393770671, 7.364107206961707 ] } },
{ "type": "Feature", "properties": { "lulc": "cropland", "class_id": 2 }, "geometry": { "type": "Point", "coordinates": [ 134.540482913235621, 7.364321224075834 ] } },
{ "type": "Feature", "properties": { "lulc": "cropland", "class_id": 2 }, "geometry": { "type": "Point", "coordinates": [ 134.539851562748993, 7.364377700814283 ] } },
{ "type": "Feature", "properties": { "lulc": "cropland", "class_id": 2 }, "geometry": { "type": "Point", "coordinates": [ 134.548848009938069, 7.362696477484421 ] } },
{ "type": "Feature", "properties": { "lulc": "cropland", "class_id": 2 }, "geometry": { "type": "Point", "coordinates": [ 134.548669067850938, 7.362813592405208 ] } },
{ "type": "Feature", "properties": { "lulc": "cropland", "class_id": 2 }, "geometry": { "type": "Point", "coordinates": [ 134.561930697777029, 7.359935062220207 ] } },
{ "type": "Feature", "properties": { "lulc": "cropland", "class_id": 2 }, "geometry": { "type": "Point", "coordinates": [ 134.56207486208308, 7.359928820054378 ] } },
{ "type": "Feature", "properties": { "lulc": "cropland", "class_id": 2 }, "geometry": { "type": "Point", "coordinates": [ 134.500731612254356, 7.343901613420183 ] } },
{ "type": "Feature", "properties": { "lulc": "cropland", "class_id": 2 }, "geometry": { "type": "Point", "coordinates": [ 134.501219095680966, 7.343510437694918 ] } },
{ "type": "Feature", "properties": { "lulc": "cropland", "class_id": 2 }, "geometry": { "type": "Point", "coordinates": [ 134.501115654075818, 7.343437909672907 ] } },
{ "type": "Feature", "properties": { "lulc": "cropland", "class_id": 2 }, "geometry": { "type": "Point", "coordinates": [ 134.501436679747002, 7.343379649458506 ] } },
{ "type": "Feature", "properties": { "lulc": "cropland", "class_id": 2 }, "geometry": { "type": "Point", "coordinates": [ 134.501043126053787, 7.343619824219916 ] } },
{ "type": "Feature", "properties": { "lulc": "bareland", "class_id": 6 }, "geometry": { "type": "Point", "coordinates": [ 134.58860347236299, 7.372283849705337 ] } },
{ "type": "Feature", "properties": { "lulc": "bareland", "class_id": 6 }, "geometry": { "type": "Point", "coordinates": [ 134.588560668940175, 7.372521646498812 ] } },
{ "type": "Feature", "properties": { "lulc": "bareland", "class_id": 6 }, "geometry": { "type": "Point", "coordinates": [ 134.588446526479288, 7.372357566711314 ] } },
{ "type": "Feature", "properties": { "lulc": "bareland", "class_id": 6 }, "geometry": { "type": "Point", "coordinates": [ 134.588534511292892, 7.372222022539034 ] } },
{ "type": "Feature", "properties": { "lulc": "bareland", "class_id": 6 }, "geometry": { "type": "Point", "coordinates": [ 134.588189705942341, 7.372752309388482 ] } },
{ "type": "Feature", "properties": { "lulc": "bareland", "class_id": 6 }, "geometry": { "type": "Point", "coordinates": [ 134.588681945304842, 7.372937790887392 ] } },
{ "type": "Feature", "properties": { "lulc": "bareland", "class_id": 6 }, "geometry": { "type": "Point", "coordinates": [ 134.589064798142317, 7.372003249489037 ] } },
{ "type": "Feature", "properties": { "lulc": "bareland", "class_id": 6 }, "geometry": { "type": "Point", "coordinates": [ 134.589236011833634, 7.371594239004261 ] } },
{ "type": "Feature", "properties": { "lulc": "forest", "class_id": 1 }, "geometry": { "type": "Point", "coordinates": [ 134.57668747504195, 7.38233314219757 ] } },
{ "type": "Feature", "properties": { "lulc": "forest", "class_id": 1 }, "geometry": { "type": "Point", "coordinates": [ 134.582756049211412, 7.383874065419285 ] } },
{ "type": "Feature", "properties": { "lulc": "forest", "class_id": 1 }, "geometry": { "type": "Point", "coordinates": [ 134.571855444198661, 7.399169155175568 ] } },
{ "type": "Feature", "properties": { "lulc": "forest", "class_id": 1 }, "geometry": { "type": "Point", "coordinates": [ 134.573605628598642, 7.405028468166782 ] } },
{ "type": "Feature", "properties": { "lulc": "forest", "class_id": 1 }, "geometry": { "type": "Point", "coordinates": [ 134.5381453707557, 7.334107952480925 ] } },
{ "type": "Feature", "properties": { "lulc": "forest", "class_id": 1 }, "geometry": { "type": "Point", "coordinates": [ 134.54293935411215, 7.333118717820071 ] } },
{ "type": "Feature", "properties": { "lulc": "forest", "class_id": 1 }, "geometry": { "type": "Point", "coordinates": [ 134.509457565590935, 7.331672913315745 ] } },
{ "type": "Feature", "properties": { "lulc": "forest", "class_id": 1 }, "geometry": { "type": "Point", "coordinates": [ 134.506489861608372, 7.33677127656784 ] } },
{ "type": "Feature", "properties": { "lulc": "forest", "class_id": 1 }, "geometry": { "type": "Point", "coordinates": [ 134.55557111978149, 7.474122704478751 ] } },
{ "type": "Feature", "properties": { "lulc": "forest", "class_id": 1 }, "geometry": { "type": "Point", "coordinates": [ 134.603510953345989, 7.56269725411216 ] } },
{ "type": "Feature", "properties": { "lulc": "forest", "class_id": 1 }, "geometry": { "type": "Point", "coordinates": [ 134.559832438320569, 7.504865073939143 ] } },
{ "type": "Feature", "properties": { "lulc": "forest", "class_id": 1 }, "geometry": { "type": "Point", "coordinates": [ 134.542482784268657, 7.468035106565802 ] } },
{ "type": "Feature", "properties": { "lulc": "forest", "class_id": 1 }, "geometry": { "type": "Point", "coordinates": [ 134.569724784929122, 7.540020951886424 ] } },
{ "type": "Feature", "properties": { "lulc": "forest", "class_id": 1 }, "geometry": { "type": "Point", "coordinates": [ 134.575355812998595, 7.511409241695564 ] } },
{ "type": "Feature", "properties": { "lulc": "forest", "class_id": 1 }, "geometry": { "type": "Point", "coordinates": [ 134.564550326703113, 7.498473096130547 ] } },
{ "type": "Feature", "properties": { "lulc": "forest", "class_id": 1 }, "geometry": { "type": "Point", "coordinates": [ 134.556484259468448, 7.483406291295998 ] } },
{ "type": "Feature", "properties": { "lulc": "forest", "class_id": 1 }, "geometry": { "type": "Point", "coordinates": [ 134.546896292755548, 7.434096748201111 ] } },
{ "type": "Feature", "properties": { "lulc": "mangroves", "class_id": 8 }, "geometry": { "type": "Point", "coordinates": [ 134.544147361822979, 7.350645926811064 ] } },
{ "type": "Feature", "properties": { "lulc": "shrubland", "class_id": 4 }, "geometry": { "type": "Point", "coordinates": [ 134.546502342734328, 7.370087399989586 ] } },
{ "type": "Feature", "properties": { "lulc": "sand", "class_id": 10 }, "geometry": { "type": "Point", "coordinates": [ 134.581047082922396, 7.351764364396372 ] } },
{ "type": "Feature", "properties": { "lulc": "sand", "class_id": 10 }, "geometry": { "type": "Point", "coordinates": [ 134.598050346311851, 7.360248953987556 ] } },
{ "type": "Feature", "properties": { "lulc": "sand", "class_id": 10 }, "geometry": { "type": "Point", "coordinates": [ 134.54568590707666, 7.329777672871688 ] } },
{ "type": "Feature", "properties": { "lulc": "sand", "class_id": 10 }, "geometry": { "type": "Point", "coordinates": [ 134.545492499017968, 7.329742796008645 ] } },
{ "type": "Feature", "properties": { "lulc": "sand", "class_id": 10 }, "geometry": { "type": "Point", "coordinates": [ 134.54550121823371, 7.329712675081472 ] } },
{ "type": "Feature", "properties": { "lulc": "sand", "class_id": 10 }, "geometry": { "type": "Point", "coordinates": [ 134.54545603684295, 7.329729320857015 ] } },
{ "type": "Feature", "properties": { "lulc": "sand", "class_id": 10 }, "geometry": { "type": "Point", "coordinates": [ 134.545413233420135, 7.329672249626581 ] } },
{ "type": "Feature", "properties": { "lulc": "sand", "class_id": 10 }, "geometry": { "type": "Point", "coordinates": [ 134.446344711290635, 7.251373692095091 ] } },
{ "type": "Feature", "properties": { "lulc": "sand", "class_id": 10 }, "geometry": { "type": "Point", "coordinates": [ 134.446382758777588, 7.2512785733777 ] } },
{ "type": "Feature", "properties": { "lulc": "sand", "class_id": 10 }, "geometry": { "type": "Point", "coordinates": [ 134.446532570757455, 7.251371314127156 ] } },
{ "type": "Feature", "properties": { "lulc": "sand", "class_id": 10 }, "geometry": { "type": "Point", "coordinates": [ 134.446045087330845, 7.251445031133133 ] } },
{ "type": "Feature", "properties": { "lulc": "sand", "class_id": 10 }, "geometry": { "type": "Point", "coordinates": [ 134.445926188934095, 7.251511614235306 ] } },
{ "type": "Feature", "properties": { "lulc": "sand", "class_id": 10 }, "geometry": { "type": "Point", "coordinates": [ 134.445823936312905, 7.25152350407498 ] } },
{ "type": "Feature", "properties": { "lulc": "sand", "class_id": 10 }, "geometry": { "type": "Point", "coordinates": [ 134.445807290537374, 7.251925380655952 ] } },
{ "type": "Feature", "properties": { "lulc": "sand", "class_id": 10 }, "geometry": { "type": "Point", "coordinates": [ 134.445671746365093, 7.252003853597799 ] } },
{ "type": "Feature", "properties": { "lulc": "sand", "class_id": 10 }, "geometry": { "type": "Point", "coordinates": [ 134.445745463371054, 7.252182201192905 ] } },
{ "type": "Feature", "properties": { "lulc": "sand", "class_id": 10 }, "geometry": { "type": "Point", "coordinates": [ 134.445743085403137, 7.252312989429316 ] } },
{ "type": "Feature", "properties": { "lulc": "sand", "class_id": 10 }, "geometry": { "type": "Point", "coordinates": [ 134.445614675134664, 7.252289209749969 ] } },
{ "type": "Feature", "properties": { "lulc": "sand", "class_id": 10 }, "geometry": { "type": "Point", "coordinates": [ 134.445759731178669, 7.251720875413564 ] } },
{ "type": "Feature", "properties": { "lulc": "sand", "class_id": 10 }, "geometry": { "type": "Point", "coordinates": [ 134.443330042441374, 7.256151624167986 ] } },
{ "type": "Feature", "properties": { "lulc": "sand", "class_id": 10 }, "geometry": { "type": "Point", "coordinates": [ 134.44352503581203, 7.255941174005761 ] } },
{ "type": "Feature", "properties": { "lulc": "sand", "class_id": 10 }, "geometry": { "type": "Point", "coordinates": [ 134.443580323566522, 7.255867456999783 ] } },
{ "type": "Feature", "properties": { "lulc": "rock", "class_id": 14 }, "geometry": { "type": "Point", "coordinates": [ 134.580635694469521, 7.349512428762048 ] } },
{ "type": "Feature", "properties": { "lulc": "rock", "class_id": 14 }, "geometry": { "type": "Point", "coordinates": [ 134.581139823671691, 7.350188960639483 ] } },
{ "type": "Feature", "properties": { "lulc": "rock", "class_id": 14 }, "geometry": { "type": "Point", "coordinates": [ 134.581218296613542, 7.35030785903622 ] } },
{ "type": "Feature", "properties": { "lulc": "rock", "class_id": 14 }, "geometry": { "type": "Point", "coordinates": [ 134.58133838399425, 7.350442214224533 ] } },
{ "type": "Feature", "properties": { "lulc": "rock", "class_id": 14 }, "geometry": { "type": "Point", "coordinates": [ 134.580080438956742, 7.349142654748194 ] } },
{ "type": "Feature", "properties": { "lulc": "rock", "class_id": 14 }, "geometry": { "type": "Point", "coordinates": [ 134.579757035317613, 7.349114119132977 ] } },
{ "type": "Feature", "properties": { "lulc": "rock", "class_id": 14 }, "geometry": { "type": "Point", "coordinates": [ 134.580160100882551, 7.364692187073497 ] } },
{ "type": "Feature", "properties": { "lulc": "rock", "class_id": 14 }, "geometry": { "type": "Point", "coordinates": [ 134.580193392433614, 7.365164213708542 ] } },
{ "type": "Feature", "properties": { "lulc": "rock", "class_id": 14 }, "geometry": { "type": "Point", "coordinates": [ 134.580405031579801, 7.365154701836803 ] } },
{ "type": "Feature", "properties": { "lulc": "mining", "class_id": -1 }, "geometry": { "type": "Point", "coordinates": [ 134.551753490426108, 7.361600234266338 ] } },
{ "type": "Feature", "properties": { "lulc": "mining", "class_id": -1 }, "geometry": { "type": "Point", "coordinates": [ 134.551864065935064, 7.362217316945404 ] } },
{ "type": "Feature", "properties": { "lulc": "mining", "class_id": -1 }, "geometry": { "type": "Point", "coordinates": [ 134.551910436309782, 7.362294600903283 ] } },
{ "type": "Feature", "properties": { "lulc": "mining", "class_id": -1 }, "geometry": { "type": "Point", "coordinates": [ 134.551862876951105, 7.362324325502468 ] } },
{ "type": "Feature", "properties": { "lulc": "mining", "class_id": -1 }, "geometry": { "type": "Point", "coordinates": [ 134.551834341335876, 7.362270821223936 ] } },
{ "type": "Feature", "properties": { "lulc": "mining", "class_id": -1 }, "geometry": { "type": "Point", "coordinates": [ 134.551724954810879, 7.362301734807088 ] } },
{ "type": "Feature", "properties": { "lulc": "mining", "class_id": -1 }, "geometry": { "type": "Point", "coordinates": [ 134.551783215025296, 7.362413499300021 ] } },
{ "type": "Feature", "properties": { "lulc": "mining", "class_id": -1 }, "geometry": { "type": "Point", "coordinates": [ 134.551612001333979, 7.36239566454051 ] } },
{ "type": "Feature", "properties": { "lulc": "mining", "class_id": -1 }, "geometry": { "type": "Point", "coordinates": [ 134.551604867430171, 7.362299356839153 ] } },
{ "type": "Feature", "properties": { "lulc": "mining", "class_id": -1 }, "geometry": { "type": "Point", "coordinates": [ 134.551912814277728, 7.362071071917417 ] } },
{ "type": "Feature", "properties": { "lulc": "mining", "class_id": -1 }, "geometry": { "type": "Point", "coordinates": [ 134.55179272689702, 7.361767881005737 ] } },
{ "type": "Feature", "properties": { "lulc": "mining", "class_id": -1 }, "geometry": { "type": "Point", "coordinates": [ 134.551495480905174, 7.361765503037803 ] } },
{ "type": "Feature", "properties": { "lulc": "mining", "class_id": -1 }, "geometry": { "type": "Point", "coordinates": [ 134.551456244434263, 7.361779770845411 ] } },
{ "type": "Feature", "properties": { "lulc": "mining", "class_id": -1 }, "geometry": { "type": "Point", "coordinates": [ 134.551477646145685, 7.361830897156008 ] } },
{ "type": "Feature", "properties": { "lulc": "water", "class_id": 7 }, "geometry": { "type": "Point", "coordinates": [ 134.580459724842228, 7.364872912636529 ] } },
{ "type": "Feature", "properties": { "lulc": "water", "class_id": 7 }, "geometry": { "type": "Point", "coordinates": [ 134.580437134146848, 7.364928794882998 ] } },
{ "type": "Feature", "properties": { "lulc": "water", "class_id": 7 }, "geometry": { "type": "Point", "coordinates": [ 134.552372951072897, 7.360814315863902 ] } },
{ "type": "Feature", "properties": { "lulc": "water", "class_id": 7 }, "geometry": { "type": "Point", "coordinates": [ 134.552701110647888, 7.361092538112267 ] } },
{ "type": "Feature", "properties": { "lulc": "water", "class_id": 7 }, "geometry": { "type": "Point", "coordinates": [ 134.552850922627783, 7.36129942132259 ] } },
{ "type": "Feature", "properties": { "lulc": "water", "class_id": 7 }, "geometry": { "type": "Point", "coordinates": [ 134.55276769375007, 7.361444477366609 ] } },
{ "type": "Feature", "properties": { "lulc": "water", "class_id": 7 }, "geometry": { "type": "Point", "coordinates": [ 134.552689220808219, 7.361541974051934 ] } },
{ "type": "Feature", "properties": { "lulc": "water", "class_id": 7 }, "geometry": { "type": "Point", "coordinates": [ 134.552501361341371, 7.361553863891608 ] } },
{ "type": "Feature", "properties": { "lulc": "water", "class_id": 7 }, "geometry": { "type": "Point", "coordinates": [ 134.552256430644093, 7.361182900893787 ] } },
{ "type": "Feature", "properties": { "lulc": "water", "class_id": 7 }, "geometry": { "type": "Point", "coordinates": [ 134.552432400271272, 7.361144853406832 ] } },
{ "type": "Feature", "properties": { "lulc": "water", "class_id": 7 }, "geometry": { "type": "Point", "coordinates": [ 134.552634527545706, 7.36125423993183 ] } },
{ "type": "Feature", "properties": { "lulc": "water", "class_id": 7 }, "geometry": { "type": "Point", "coordinates": [ 134.552589346154946, 7.361427831591066 ] } },
{ "type": "Feature", "properties": { "lulc": "water", "class_id": 7 }, "geometry": { "type": "Point", "coordinates": [ 134.552470447758225, 7.3609237023889 ] } },
{ "type": "Feature", "properties": { "lulc": "water", "class_id": 7 }, "geometry": { "type": "Point", "coordinates": [ 134.5522921001631, 7.361078270304659 ] } },
{ "type": "Feature", "properties": { "lulc": "water", "class_id": 7 }, "geometry": { "type": "Point", "coordinates": [ 134.530583630886838, 7.374620797693035 ] } },
{ "type": "Feature", "properties": { "lulc": "water", "class_id": 7 }, "geometry": { "type": "Point", "coordinates": [ 134.530978373564011, 7.374796767320207 ] } },
{ "type": "Feature", "properties": { "lulc": "water", "class_id": 7 }, "geometry": { "type": "Point", "coordinates": [ 134.531375494209101, 7.375115415023463 ] } },
{ "type": "Feature", "properties": { "lulc": "water", "class_id": 7 }, "geometry": { "type": "Point", "coordinates": [ 134.530067611844999, 7.37560527641802 ] } },
{ "type": "Feature", "properties": { "lulc": "water", "class_id": 7 }, "geometry": { "type": "Point", "coordinates": [ 134.532172113467254, 7.375410283047372 ] } },
{ "type": "Feature", "properties": { "lulc": "water", "class_id": 7 }, "geometry": { "type": "Point", "coordinates": [ 134.531936694641701, 7.375814537596278 ] } },
{ "type": "Feature", "properties": { "lulc": "water", "class_id": 7 }, "geometry": { "type": "Point", "coordinates": [ 134.531418297631944, 7.375676615456062 ] } },
{ "type": "Feature", "properties": { "lulc": "water", "class_id": 7 }, "geometry": { "type": "Point", "coordinates": [ 134.531161477094969, 7.374585128174014 ] } },
{ "type": "Feature", "properties": { "lulc": "water", "class_id": 7 }, "geometry": { "type": "Point", "coordinates": [ 134.530312542542276, 7.374516167103907 ] } },
{ "type": "Feature", "properties": { "lulc": "water", "class_id": 7 }, "geometry": { "type": "Point", "coordinates": [ 134.530555095271609, 7.374865728390315 ] } },
{ "type": "Feature", "properties": { "lulc": "water", "class_id": 7 }, "geometry": { "type": "Point", "coordinates": [ 134.530861853135207, 7.375091635344115 ] } },
{ "type": "Feature", "properties": { "lulc": "water", "class_id": 7 }, "geometry": { "type": "Point", "coordinates": [ 134.569422981165076, 7.368421435287151 ] } },
{ "type": "Feature", "properties": { "lulc": "water", "class_id": 7 }, "geometry": { "type": "Point", "coordinates": [ 134.57493986677369, 7.367603414317599 ] } },
{ "type": "Feature", "properties": { "lulc": "water", "class_id": 7 }, "geometry": { "type": "Point", "coordinates": [ 134.575025473619348, 7.365073256435029 ] } },
{ "type": "Feature", "properties": { "lulc": "water", "class_id": 7 }, "geometry": { "type": "Point", "coordinates": [ 134.582701554112703, 7.358205685039483 ] } },
{ "type": "Feature", "properties": { "lulc": "water", "class_id": 7 }, "geometry": { "type": "Point", "coordinates": [ 134.580646989817097, 7.35674085679168 ] } },
{ "type": "Feature", "properties": { "lulc": "water", "class_id": 7 }, "geometry": { "type": "Point", "coordinates": [ 134.566112849799879, 7.349987427857003 ] } },
{ "type": "Feature", "properties": { "lulc": "water", "class_id": 7 }, "geometry": { "type": "Point", "coordinates": [ 134.567473047458549, 7.351338113643938 ] } },
{ "type": "Feature", "properties": { "lulc": "water", "class_id": 7 }, "geometry": { "type": "Point", "coordinates": [ 134.56892836383463, 7.352080039639579 ] } },
{ "type": "Feature", "properties": { "lulc": "water", "class_id": 7 }, "geometry": { "type": "Point", "coordinates": [ 134.564029749889045, 7.349255013733101 ] } },
{ "type": "Feature", "properties": { "lulc": "water", "class_id": 7 }, "geometry": { "type": "Point", "coordinates": [ 134.561632758210834, 7.348351385917898 ] } },
{ "type": "Feature", "properties": { "lulc": "water", "class_id": 7 }, "geometry": { "type": "Point", "coordinates": [ 134.561090581521711, 7.349036240683104 ] } },
{ "type": "Feature", "properties": { "lulc": "water", "class_id": 7 }, "geometry": { "type": "Point", "coordinates": [ 134.562022744952117, 7.349759142935267 ] } },
{ "type": "Feature", "properties": { "lulc": "water", "class_id": 7 }, "geometry": { "type": "Point", "coordinates": [ 134.562084572118465, 7.356591044811792 ] } },
{ "type": "Feature", "properties": { "lulc": "water", "class_id": 7 }, "geometry": { "type": "Point", "coordinates": [ 134.564455406149392, 7.356155876679734 ] } },
{ "type": "Feature", "properties": { "lulc": "water", "class_id": 7 }, "geometry": { "type": "Point", "coordinates": [ 134.566664538360783, 7.355891922238977 ] } },
{ "type": "Feature", "properties": { "lulc": "water", "class_id": 7 }, "geometry": { "type": "Point", "coordinates": [ 134.563870426037511, 7.359682403126963 ] } },
{ "type": "Feature", "properties": { "lulc": "water", "class_id": 7 }, "geometry": { "type": "Point", "coordinates": [ 134.508734861502575, 7.323889229773169 ] } },
{ "type": "Feature", "properties": { "lulc": "water", "class_id": 7 }, "geometry": { "type": "Point", "coordinates": [ 134.506623225976483, 7.330233648223071 ] } },
{ "type": "Feature", "properties": { "lulc": "water", "class_id": 7 }, "geometry": { "type": "Point", "coordinates": [ 134.501912471497747, 7.334899221311043 ] } },
{ "type": "Feature", "properties": { "lulc": "water", "class_id": 7 }, "geometry": { "type": "Point", "coordinates": [ 134.501788817165135, 7.334585329543657 ] } },
{ "type": "Feature", "properties": { "lulc": "water", "class_id": 7 }, "geometry": { "type": "Point", "coordinates": [ 134.481987478172528, 7.46923776384863 ] } },
{ "type": "Feature", "properties": { "lulc": "water", "class_id": 7 }, "geometry": { "type": "Point", "coordinates": [ 134.486862312438831, 7.493079270362389 ] } },
{ "type": "Feature", "properties": { "lulc": "water", "class_id": 7 }, "geometry": { "type": "Point", "coordinates": [ 134.48671012249099, 7.491738096447193 ] } },
{ "type": "Feature", "properties": { "lulc": "water", "class_id": 7 }, "geometry": { "type": "Point", "coordinates": [ 134.487321260250241, 7.495608239260992 ] } },
{ "type": "Feature", "properties": { "lulc": "water", "class_id": 7 }, "geometry": { "type": "Point", "coordinates": [ 134.486372451044275, 7.495807988567511 ] } },
{ "type": "Feature", "properties": { "lulc": "water", "class_id": 7 }, "geometry": { "type": "Point", "coordinates": [ 134.620898853048772, 7.540896638578221 ] } },
{ "type": "Feature", "properties": { "lulc": "water", "class_id": 7 }, "geometry": { "type": "Point", "coordinates": [ 134.62192613519656, 7.540078617608668 ] } },
{ "type": "Feature", "properties": { "lulc": "rock", "class_id": 14 }, "geometry": { "type": "Point", "coordinates": [ 134.553036404126942, 7.36204610325409 ] } },
{ "type": "Feature", "properties": { "lulc": "water", "class_id": 7 }, "geometry": { "type": "Point", "coordinates": [ 134.553206428834329, 7.362399231492399 ] } },
{ "type": "Feature", "properties": { "lulc": "water", "class_id": 7 }, "geometry": { "type": "Point", "coordinates": [ 134.553022730811364, 7.362311841170797 ] } },
{ "type": "Feature", "properties": { "lulc": "water", "class_id": 7 }, "geometry": { "type": "Point", "coordinates": [ 134.552861623483778, 7.361944445124879 ] } },
{ "type": "Feature", "properties": { "lulc": "seagrass", "class_id": 11 }, "geometry": { "type": "Point", "coordinates": [ 134.576034921007818, 7.350251382297749 ] } },
{ "type": "Feature", "properties": { "lulc": "seagrass", "class_id": 11 }, "geometry": { "type": "Point", "coordinates": [ 134.576484356947475, 7.349578417372216 ] } },
{ "type": "Feature", "properties": { "lulc": "seagrass", "class_id": 11 }, "geometry": { "type": "Point", "coordinates": [ 134.576667460478461, 7.349381046033632 ] } },
{ "type": "Feature", "properties": { "lulc": "seagrass", "class_id": 11 }, "geometry": { "type": "Point", "coordinates": [ 134.576864831817034, 7.349176540791245 ] } },
{ "type": "Feature", "properties": { "lulc": "seagrass", "class_id": 11 }, "geometry": { "type": "Point", "coordinates": [ 134.577088360802918, 7.349036240683095 ] } },
{ "type": "Feature", "properties": { "lulc": "seagrass", "class_id": 11 }, "geometry": { "type": "Point", "coordinates": [ 134.57564255629859, 7.349687803897215 ] } },
{ "type": "Feature", "properties": { "lulc": "seagrass", "class_id": 11 }, "geometry": { "type": "Point", "coordinates": [ 134.575556949452931, 7.349861395556451 ] } },
{ "type": "Feature", "properties": { "lulc": "seagrass", "class_id": 11 }, "geometry": { "type": "Point", "coordinates": [ 134.575385735761643, 7.350584297808614 ] } },
{ "type": "Feature", "properties": { "lulc": "seagrass", "class_id": 11 }, "geometry": { "type": "Point", "coordinates": [ 134.574988615116524, 7.350776913211329 ] } },
{ "type": "Feature", "properties": { "lulc": "seagrass", "class_id": 11 }, "geometry": { "type": "Point", "coordinates": [ 134.575088489769797, 7.350565274065135 ] } },
{ "type": "Feature", "properties": { "lulc": "seagrass", "class_id": 11 }, "geometry": { "type": "Point", "coordinates": [ 134.574736550515439, 7.350401194277638 ] } },
{ "type": "Feature", "properties": { "lulc": "seagrass", "class_id": 11 }, "geometry": { "type": "Point", "coordinates": [ 134.582417386944684, 7.351682918994465 ] } },
{ "type": "Feature", "properties": { "lulc": "seagrass", "class_id": 11 }, "geometry": { "type": "Point", "coordinates": [ 134.583114131549564, 7.350826850537956 ] } },
{ "type": "Feature", "properties": { "lulc": "seagrass", "class_id": 11 }, "geometry": { "type": "Point", "coordinates": [ 134.583068950158804, 7.350693684333611 ] } },
{ "type": "Feature", "properties": { "lulc": "seagrass", "class_id": 11 }, "geometry": { "type": "Point", "coordinates": [ 134.582576710796303, 7.35098379642165 ] } },
{ "type": "Feature", "properties": { "lulc": "seagrass", "class_id": 11 }, "geometry": { "type": "Point", "coordinates": [ 134.582460190367499, 7.351097938882518 ] } },
{ "type": "Feature", "properties": { "lulc": "seagrass", "class_id": 11 }, "geometry": { "type": "Point", "coordinates": [ 134.582457812399554, 7.35153548498251 ] } },
{ "type": "Feature", "properties": { "lulc": "seagrass", "class_id": 11 }, "geometry": { "type": "Point", "coordinates": [ 134.581623145654476, 7.351269152573819 ] } },
{ "type": "Feature", "properties": { "lulc": "seagrass", "class_id": 11 }, "geometry": { "type": "Point", "coordinates": [ 134.582662317641962, 7.350403572245572 ] } },
{ "type": "Feature", "properties": { "lulc": "seagrass", "class_id": 11 }, "geometry": { "type": "Point", "coordinates": [ 134.58274316855173, 7.350289429784704 ] } },
{ "type": "Feature", "properties": { "lulc": "seagrass", "class_id": 11 }, "geometry": { "type": "Point", "coordinates": [ 134.582441166624022, 7.350527226578178 ] } },
{ "type": "Feature", "properties": { "lulc": "seagrass", "class_id": 11 }, "geometry": { "type": "Point", "coordinates": [ 134.585662124191657, 7.350383359518125 ] } },
{ "type": "Feature", "properties": { "lulc": "seagrass", "class_id": 11 }, "geometry": { "type": "Point", "coordinates": [ 134.585822637027263, 7.350394060373832 ] } },
{ "type": "Feature", "properties": { "lulc": "seagrass", "class_id": 11 }, "geometry": { "type": "Point", "coordinates": [ 134.59079021204289, 7.355473399882448 ] } },
{ "type": "Feature", "properties": { "lulc": "seagrass", "class_id": 11 }, "geometry": { "type": "Point", "coordinates": [ 134.591256293758107, 7.356134474968307 ] } },
{ "type": "Feature", "properties": { "lulc": "seagrass", "class_id": 11 }, "geometry": { "type": "Point", "coordinates": [ 134.59463776416132, 7.357756249099801 ] } },
{ "type": "Feature", "properties": { "lulc": "seagrass", "class_id": 11 }, "geometry": { "type": "Point", "coordinates": [ 134.594304848650467, 7.358365008891096 ] } },
{ "type": "Feature", "properties": { "lulc": "seagrass", "class_id": 11 }, "geometry": { "type": "Point", "coordinates": [ 134.598585190933051, 7.36301631417146 ] } },
{ "type": "Feature", "properties": { "lulc": "seagrass", "class_id": 11 }, "geometry": { "type": "Point", "coordinates": [ 134.599241510083033, 7.363767752038839 ] } },
{ "type": "Feature", "properties": { "lulc": "seagrass", "class_id": 11 }, "geometry": { "type": "Point", "coordinates": [ 134.600202209128668, 7.364062620062747 ] } },
{ "type": "Feature", "properties": { "lulc": "seagrass", "class_id": 11 }, "geometry": { "type": "Point", "coordinates": [ 134.598899082700427, 7.361713187743219 ] } },
{ "type": "Feature", "properties": { "lulc": "seagrass", "class_id": 11 }, "geometry": { "type": "Point", "coordinates": [ 134.598471048472163, 7.362321947534514 ] } },
{ "type": "Feature", "properties": { "lulc": "coral", "class_id": 12 }, "geometry": { "type": "Point", "coordinates": [ 134.489217689678213, 7.354056130993337 ] } },
{ "type": "Feature", "properties": { "lulc": "coral", "class_id": 12 }, "geometry": { "type": "Point", "coordinates": [ 134.487933586993449, 7.356681407593296 ] } },
{ "type": "Feature", "properties": { "lulc": "coral", "class_id": 12 }, "geometry": { "type": "Point", "coordinates": [ 134.486649484308685, 7.356814573797641 ] } },
{ "type": "Feature", "properties": { "lulc": "coral", "class_id": 12 }, "geometry": { "type": "Point", "coordinates": [ 134.485546107186963, 7.357147489308506 ] } },
{ "type": "Feature", "properties": { "lulc": "coral", "class_id": 12 }, "geometry": { "type": "Point", "coordinates": [ 134.483206186739181, 7.357004811232422 ] } },
{ "type": "Feature", "properties": { "lulc": "coral", "class_id": 12 }, "geometry": { "type": "Point", "coordinates": [ 134.484709062473939, 7.355159508115059 ] } },
{ "type": "Feature", "properties": { "lulc": "coral", "class_id": 12 }, "geometry": { "type": "Point", "coordinates": [ 134.483177651123953, 7.35401808350638 ] } },
{ "type": "Feature", "properties": { "lulc": "coral", "class_id": 12 }, "geometry": { "type": "Point", "coordinates": [ 134.477679789258815, 7.351602068084679 ] } },
{ "type": "Feature", "properties": { "lulc": "coral", "class_id": 12 }, "geometry": { "type": "Point", "coordinates": [ 134.478250501563167, 7.351145498241208 ] } },
{ "type": "Feature", "properties": { "lulc": "coral", "class_id": 12 }, "geometry": { "type": "Point", "coordinates": [ 134.476100818550151, 7.352001566697716 ] } },
{ "type": "Feature", "properties": { "lulc": "coral", "class_id": 12 }, "geometry": { "type": "Point", "coordinates": [ 134.475054512658858, 7.351982542954238 ] } },
{ "type": "Feature", "properties": { "lulc": "coral", "class_id": 12 }, "geometry": { "type": "Point", "coordinates": [ 134.473951135537135, 7.351792305519458 ] } },
{ "type": "Feature", "properties": { "lulc": "coral", "class_id": 12 }, "geometry": { "type": "Point", "coordinates": [ 134.473523101308871, 7.351288176317293 ] } },
{ "type": "Feature", "properties": { "lulc": "coral", "class_id": 12 }, "geometry": { "type": "Point", "coordinates": [ 134.475882045500157, 7.350517714706435 ] } },
{ "type": "Feature", "properties": { "lulc": "coral", "class_id": 12 }, "geometry": { "type": "Point", "coordinates": [ 134.476500317163186, 7.350593809680347 ] } },
{ "type": "Feature", "properties": { "lulc": "coral", "class_id": 12 }, "geometry": { "type": "Point", "coordinates": [ 134.476899815776221, 7.351202569471642 ] } },
{ "type": "Feature", "properties": { "lulc": "coral", "class_id": 12 }, "geometry": { "type": "Point", "coordinates": [ 134.478060264128374, 7.350574785936869 ] } },
{ "type": "Feature", "properties": { "lulc": "coral", "class_id": 12 }, "geometry": { "type": "Point", "coordinates": [ 134.473608708154529, 7.350688928397736 ] } },
{ "type": "Feature", "properties": { "lulc": "coral", "class_id": 12 }, "geometry": { "type": "Point", "coordinates": [ 134.478088799743603, 7.351697186802069 ] } },
{ "type": "Feature", "properties": { "lulc": "coral", "class_id": 12 }, "geometry": { "type": "Point", "coordinates": [ 134.477137612569692, 7.352267899106407 ] } },
{ "type": "Feature", "properties": { "lulc": "coral", "class_id": 12 }, "geometry": { "type": "Point", "coordinates": [ 134.476842744545792, 7.351754258032503 ] } },
{ "type": "Feature", "properties": { "lulc": "coral", "class_id": 12 }, "geometry": { "type": "Point", "coordinates": [ 134.471858523754605, 7.35019431106731 ] } },
{ "type": "Feature", "properties": { "lulc": "coral", "class_id": 12 }, "geometry": { "type": "Point", "coordinates": [ 134.471563655730677, 7.354760009502021 ] } },
{ "type": "Feature", "properties": { "lulc": "coral", "class_id": 12 }, "geometry": { "type": "Point", "coordinates": [ 134.471868035626329, 7.35514999624332 ] } },
{ "type": "Feature", "properties": { "lulc": "coral", "class_id": 12 }, "geometry": { "type": "Point", "coordinates": [ 134.471915594985035, 7.356044112186784 ] } },
{ "type": "Feature", "properties": { "lulc": "coral", "class_id": 12 }, "geometry": { "type": "Point", "coordinates": [ 134.471392442039388, 7.353628096765083 ] } },
{ "type": "Feature", "properties": { "lulc": "coral", "class_id": 12 }, "geometry": { "type": "Point", "coordinates": [ 134.470745634761158, 7.354141737838989 ] } },
{ "type": "Feature", "properties": { "lulc": "coral", "class_id": 12 }, "geometry": { "type": "Point", "coordinates": [ 134.469071545335112, 7.354465141478115 ] } },
{ "type": "Feature", "properties": { "lulc": "coral", "class_id": 12 }, "geometry": { "type": "Point", "coordinates": [ 134.46737843216556, 7.355853874752006 ] } },
{ "type": "Feature", "properties": { "lulc": "coral", "class_id": 12 }, "geometry": { "type": "Point", "coordinates": [ 134.465875556430802, 7.356690919465036 ] } },
{ "type": "Feature", "properties": { "lulc": "coral", "class_id": 12 }, "geometry": { "type": "Point", "coordinates": [ 134.465418986587338, 7.358365008891098 ] } },
{ "type": "Feature", "properties": { "lulc": "coral", "class_id": 12 }, "geometry": { "type": "Point", "coordinates": [ 134.465476057817767, 7.35918302986065 ] } },
{ "type": "Feature", "properties": { "lulc": "coral", "class_id": 12 }, "geometry": { "type": "Point", "coordinates": [ 134.466103841352549, 7.359202053604128 ] } },
{ "type": "Feature", "properties": { "lulc": "coral", "class_id": 12 }, "geometry": { "type": "Point", "coordinates": [ 134.465285820382974, 7.358612317556311 ] } },
{ "type": "Feature", "properties": { "lulc": "coral", "class_id": 12 }, "geometry": { "type": "Point", "coordinates": [ 134.464810226796033, 7.358231842686751 ] } },
{ "type": "Feature", "properties": { "lulc": "coral", "class_id": 12 }, "geometry": { "type": "Point", "coordinates": [ 134.464277561978662, 7.357566011665023 ] } },
{ "type": "Feature", "properties": { "lulc": "coral", "class_id": 12 }, "geometry": { "type": "Point", "coordinates": [ 134.464011229569962, 7.357071394334596 ] } },
{ "type": "Feature", "properties": { "lulc": "coral", "class_id": 12 }, "geometry": { "type": "Point", "coordinates": [ 134.46477217930908, 7.356995299360684 ] } },
{ "type": "Feature", "properties": { "lulc": "coral", "class_id": 12 }, "geometry": { "type": "Point", "coordinates": [ 134.463763920904711, 7.357233096154158 ] } },
{ "type": "Feature", "properties": { "lulc": "coral", "class_id": 12 }, "geometry": { "type": "Point", "coordinates": [ 134.461443024200406, 7.358165259584578 ] } },
{ "type": "Feature", "properties": { "lulc": "coral", "class_id": 12 }, "geometry": { "type": "Point", "coordinates": [ 134.460586955743906, 7.35806062899545 ] } },
{ "type": "Feature", "properties": { "lulc": "mining", "class_id": -1 }, "geometry": { "type": "Point", "coordinates": [ 134.507939431228522, 7.36483189268963 ] } },
{ "type": "Feature", "properties": { "lulc": "mining", "class_id": -1 }, "geometry": { "type": "Point", "coordinates": [ 134.507884737966009, 7.364891341887999 ] } },
{ "type": "Feature", "properties": { "lulc": "mining", "class_id": -1 }, "geometry": { "type": "Point", "coordinates": [ 134.507790808232613, 7.364825947769794 ] } },
{ "type": "Feature", "properties": { "lulc": "mining", "class_id": -1 }, "geometry": { "type": "Point", "coordinates": [ 134.507705201386955, 7.364894908839902 ] } },
{ "type": "Feature", "properties": { "lulc": "mining", "class_id": -1 }, "geometry": { "type": "Point", "coordinates": [ 134.507784863312764, 7.364942468198596 ] } },
{ "type": "Feature", "properties": { "lulc": "mining", "class_id": -1 }, "geometry": { "type": "Point", "coordinates": [ 134.507354451116584, 7.36483189268963 ] } },
{ "type": "Feature", "properties": { "lulc": "mining", "class_id": -1 }, "geometry": { "type": "Point", "coordinates": [ 134.507192749297019, 7.364766498571425 ] } },
{ "type": "Feature", "properties": { "lulc": "mining", "class_id": -1 }, "geometry": { "type": "Point", "coordinates": [ 134.507104764483415, 7.36474152990811 ] } },
{ "type": "Feature", "properties": { "lulc": "mining", "class_id": -1 }, "geometry": { "type": "Point", "coordinates": [ 134.507038181381262, 7.364739151940175 ] } },
{ "type": "Feature", "properties": { "lulc": "mining", "class_id": -1 }, "geometry": { "type": "Point", "coordinates": [ 134.507875226094285, 7.364773632475229 ] } },
{ "type": "Feature", "properties": { "lulc": "mining", "class_id": -1 }, "geometry": { "type": "Point", "coordinates": [ 134.507374663844018, 7.364728451084469 ] } },
{ "type": "Feature", "properties": { "lulc": "mining", "class_id": -1 }, "geometry": { "type": "Point", "coordinates": [ 134.507199883200826, 7.364717750228762 ] } },
{ "type": "Feature", "properties": { "lulc": "mining", "class_id": -1 }, "geometry": { "type": "Point", "coordinates": [ 134.507405577427164, 7.364787900282837 ] } },
{ "type": "Feature", "properties": { "lulc": "mining", "class_id": -1 }, "geometry": { "type": "Point", "coordinates": [ 134.507856202350808, 7.364849727449141 ] } },
{ "type": "Feature", "properties": { "lulc": "mining", "class_id": -1 }, "geometry": { "type": "Point", "coordinates": [ 134.507978667699433, 7.364737962956208 ] } },
{ "type": "Feature", "properties": { "lulc": "mining", "class_id": -1 }, "geometry": { "type": "Point", "coordinates": [ 134.507986990587227, 7.364812868946153 ] } },
{ "type": "Feature", "properties": { "lulc": "mining", "class_id": -1 }, "geometry": { "type": "Point", "coordinates": [ 134.552214816205492, 7.36205204817391 ] } }
]
}
