{
"type": "FeatureCollection",
"name": "tv_field_points_sample_v3",
"crs": { "type": "name", "properties": { "name": "urn:ogc:def:crs:OGC:1.3:CRS84" } },
"features": [
{ "type": "Feature", "properties": { "lulc": "bareland", "class_id": 6 }, "geometry": { "type": "Point", "coordinates": [ 179.201035863077124, -8.522246362051227 ] } },
{ "type": "Feature", "properties": { "lulc": "bareland", "class_id": 6 }, "geometry": { "type": "Point", "coordinates": [ 179.201168319359169, -8.522224978974304 ] } },
{ "type": "Feature", "properties": { "lulc": "bareland", "class_id": 6 }, "geometry": { "type": "Point", "coordinates": [ 179.200831535897635, -8.522355059358919 ] } },
{ "type": "Feature", "properties": { "lulc": "bareland", "class_id": 6 }, "geometry": { "type": "Point", "coordinates": [ 179.200885587564301, -8.522439997692253 ] } },
{ "type": "Feature", "properties": { "lulc": "bareland", "class_id": 6 }, "geometry": { "type": "Point", "coordinates": [ 179.201182574743797, -8.522366938846099 ] } },
{ "type": "Feature", "properties": { "lulc": "bareland", "class_id": 6 }, "geometry": { "type": "Point", "coordinates": [ 179.201105358077143, -8.522248737948663 ] } },
{ "type": "Feature", "properties": { "lulc": "bareland", "class_id": 6 }, "geometry": { "type": "Point", "coordinates": [ 179.201053088333538, -8.522333082307638 ] } },
{ "type": "Feature", "properties": { "lulc": "bareland", "class_id": 6 }, "geometry": { "type": "Point", "coordinates": [ 179.200611765384849, -8.522633633333278 ] } },
{ "type": "Feature", "properties": { "lulc": "bareland", "class_id": 6 }, "geometry": { "type": "Point", "coordinates": [ 179.20097408974388, -8.522277248717891 ] } },
{ "type": "Feature", "properties": { "lulc": "bareland", "class_id": 6 }, "geometry": { "type": "Point", "coordinates": [ 179.200987157179753, -8.522316451025585 ] } },
{ "type": "Feature", "properties": { "lulc": "bareland", "class_id": 6 }, "geometry": { "type": "Point", "coordinates": [ 179.200779266154115, -8.522532063717893 ] } },
{ "type": "Feature", "properties": { "lulc": "bareland", "class_id": 6 }, "geometry": { "type": "Point", "coordinates": [ 179.201174259102856, -8.522183994743534 ] } },
{ "type": "Feature", "properties": { "lulc": "bareland", "class_id": 6 }, "geometry": { "type": "Point", "coordinates": [ 179.201073877436187, -8.522318826923021 ] } },
{ "type": "Feature", "properties": { "lulc": "bareland", "class_id": 6 }, "geometry": { "type": "Point", "coordinates": [ 179.199433023269393, -8.522140040640972 ] } },
{ "type": "Feature", "properties": { "lulc": "bareland", "class_id": 6 }, "geometry": { "type": "Point", "coordinates": [ 179.199418470897598, -8.52212964608969 ] } },
{ "type": "Feature", "properties": { "lulc": "bareland", "class_id": 6 }, "geometry": { "type": "Point", "coordinates": [ 179.199418173910402, -8.52211182685892 ] } },
{ "type": "Feature", "properties": { "lulc": "bareland", "class_id": 6 }, "geometry": { "type": "Point", "coordinates": [ 179.199484402051439, -8.522094007628152 ] } },
{ "type": "Feature", "properties": { "lulc": "bareland", "class_id": 6 }, "geometry": { "type": "Point", "coordinates": [ 179.199460049102726, -8.522184588717893 ] } },
{ "type": "Feature", "properties": { "lulc": "bareland", "class_id": 6 }, "geometry": { "type": "Point", "coordinates": [ 179.195295100897596, -8.50048690337599 ] } },
{ "type": "Feature", "properties": { "lulc": "settlements", "class_id": 5 }, "geometry": { "type": "Point", "coordinates": [ 179.195108988931793, -8.500414834487099 ] } },
{ "type": "Feature", "properties": { "lulc": "settlements", "class_id": 5 }, "geometry": { "type": "Point", "coordinates": [ 179.195216696282216, -8.500657967991375 ] } },
{ "type": "Feature", "properties": { "lulc": "settlements", "class_id": 5 }, "geometry": { "type": "Point", "coordinates": [ 179.195124828248026, -8.500558972264878 ] } },
{ "type": "Feature", "properties": { "lulc": "settlements", "class_id": 5 }, "geometry": { "type": "Point", "coordinates": [ 179.195204024829223, -8.500700734145219 ] } },
{ "type": "Feature", "properties": { "lulc": "settlements", "class_id": 5 }, "geometry": { "type": "Point", "coordinates": [ 179.195488340555727, -8.500859127307614 ] } },
{ "type": "Feature", "properties": { "lulc": "settlements", "class_id": 5 }, "geometry": { "type": "Point", "coordinates": [ 179.19528638927369, -8.501007224914451 ] } },
{ "type": "Feature", "properties": { "lulc": "settlements", "class_id": 5 }, "geometry": { "type": "Point", "coordinates": [ 179.195464581581376, -8.500963666794794 ] } },
{ "type": "Feature", "properties": { "lulc": "settlements", "class_id": 5 }, "geometry": { "type": "Point", "coordinates": [ 179.195424191324975, -8.500792602179409 ] } },
{ "type": "Feature", "properties": { "lulc": "settlements", "class_id": 5 }, "geometry": { "type": "Point", "coordinates": [ 179.195178285940415, -8.501382220726416 ] } },
{ "type": "Feature", "properties": { "lulc": "settlements", "class_id": 5 }, "geometry": { "type": "Point", "coordinates": [ 179.195471709273761, -8.501459041410177 ] } },
{ "type": "Feature", "properties": { "lulc": "settlements", "class_id": 5 }, "geometry": { "type": "Point", "coordinates": [ 179.195597235854933, -8.501529526367442 ] } },
{ "type": "Feature", "properties": { "lulc": "settlements", "class_id": 5 }, "geometry": { "type": "Point", "coordinates": [ 179.195538234401965, -8.501229767307613 ] } },
{ "type": "Feature", "properties": { "lulc": "settlements", "class_id": 5 }, "geometry": { "type": "Point", "coordinates": [ 179.195379049273754, -8.501217095854621 ] } },
{ "type": "Feature", "properties": { "lulc": "settlements", "class_id": 5 }, "geometry": { "type": "Point", "coordinates": [ 179.195360834060068, -8.501114536281971 ] } },
{ "type": "Feature", "properties": { "lulc": "settlements", "class_id": 5 }, "geometry": { "type": "Point", "coordinates": [ 179.195373109530152, -8.501060682606758 ] } },
{ "type": "Feature", "properties": { "lulc": "settlements", "class_id": 5 }, "geometry": { "type": "Point", "coordinates": [ 179.195434090897692, -8.501045635256331 ] } },
{ "type": "Feature", "properties": { "lulc": "settlements", "class_id": 5 }, "geometry": { "type": "Point", "coordinates": [ 179.195444782436141, -8.501081273717869 ] } },
{ "type": "Feature", "properties": { "lulc": "settlements", "class_id": 5 }, "geometry": { "type": "Point", "coordinates": [ 179.195490320470327, -8.501065038418723 ] } },
{ "type": "Feature", "properties": { "lulc": "settlements", "class_id": 5 }, "geometry": { "type": "Point", "coordinates": [ 179.195374693461758, -8.501844728760606 ] } },
{ "type": "Feature", "properties": { "lulc": "settlements", "class_id": 5 }, "geometry": { "type": "Point", "coordinates": [ 179.195417459615612, -8.501980946880265 ] } },
{ "type": "Feature", "properties": { "lulc": "settlements", "class_id": 5 }, "geometry": { "type": "Point", "coordinates": [ 179.195803146966028, -8.502742817991376 ] } },
{ "type": "Feature", "properties": { "lulc": "settlements", "class_id": 5 }, "geometry": { "type": "Point", "coordinates": [ 179.195583772436123, -8.502650157991374 ] } },
{ "type": "Feature", "properties": { "lulc": "settlements", "class_id": 5 }, "geometry": { "type": "Point", "coordinates": [ 179.195809482692511, -8.502900419187956 ] } },
{ "type": "Feature", "properties": { "lulc": "settlements", "class_id": 5 }, "geometry": { "type": "Point", "coordinates": [ 179.195871256025868, -8.502787960042657 ] } },
{ "type": "Feature", "properties": { "lulc": "settlements", "class_id": 5 }, "geometry": { "type": "Point", "coordinates": [ 179.196066871581422, -8.502689756281972 ] } },
{ "type": "Feature", "properties": { "lulc": "settlements", "class_id": 5 }, "geometry": { "type": "Point", "coordinates": [ 179.195868088162598, -8.502365050299066 ] } },
{ "type": "Feature", "properties": { "lulc": "settlements", "class_id": 5 }, "geometry": { "type": "Point", "coordinates": [ 179.195839577393372, -8.503231460897359 ] } },
{ "type": "Feature", "properties": { "lulc": "settlements", "class_id": 5 }, "geometry": { "type": "Point", "coordinates": [ 179.195409539957467, -8.503109498162315 ] } },
{ "type": "Feature", "properties": { "lulc": "settlements", "class_id": 5 }, "geometry": { "type": "Point", "coordinates": [ 179.194992965940372, -8.50321562158112 ] } },
{ "type": "Feature", "properties": { "lulc": "settlements", "class_id": 5 }, "geometry": { "type": "Point", "coordinates": [ 179.194802102179693, -8.503402525512744 ] } },
{ "type": "Feature", "properties": { "lulc": "settlements", "class_id": 5 }, "geometry": { "type": "Point", "coordinates": [ 179.194871795171139, -8.503182359017016 ] } },
{ "type": "Feature", "properties": { "lulc": "settlements", "class_id": 5 }, "geometry": { "type": "Point", "coordinates": [ 179.194631037564307, -8.502770536794793 ] } },
{ "type": "Feature", "properties": { "lulc": "settlements", "class_id": 5 }, "geometry": { "type": "Point", "coordinates": [ 179.194836948675459, -8.503587053546932 ] } },
{ "type": "Feature", "properties": { "lulc": "settlements", "class_id": 5 }, "geometry": { "type": "Point", "coordinates": [ 179.194711818077167, -8.503675753717872 ] } },
{ "type": "Feature", "properties": { "lulc": "settlements", "class_id": 5 }, "geometry": { "type": "Point", "coordinates": [ 179.196158739615612, -8.503890376452915 ] } },
{ "type": "Feature", "properties": { "lulc": "settlements", "class_id": 5 }, "geometry": { "type": "Point", "coordinates": [ 179.196316340812189, -8.504207162777702 ] } },
{ "type": "Feature", "properties": { "lulc": "settlements", "class_id": 5 }, "geometry": { "type": "Point", "coordinates": [ 179.196464438419042, -8.50409391166659 ] } },
{ "type": "Feature", "properties": { "lulc": "settlements", "class_id": 5 }, "geometry": { "type": "Point", "coordinates": [ 179.196363066795101, -8.503838106709326 ] } },
{ "type": "Feature", "properties": { "lulc": "settlements", "class_id": 5 }, "geometry": { "type": "Point", "coordinates": [ 179.196581649359217, -8.50405352141018 ] } },
{ "type": "Feature", "properties": { "lulc": "settlements", "class_id": 5 }, "geometry": { "type": "Point", "coordinates": [ 179.196428007991699, -8.504364763974285 ] } },
{ "type": "Feature", "properties": { "lulc": "settlements", "class_id": 5 }, "geometry": { "type": "Point", "coordinates": [ 179.196583233290852, -8.50468471816232 ] } },
{ "type": "Feature", "properties": { "lulc": "settlements", "class_id": 5 }, "geometry": { "type": "Point", "coordinates": [ 179.196737666624131, -8.505071989444371 ] } },
{ "type": "Feature", "properties": { "lulc": "settlements", "class_id": 5 }, "geometry": { "type": "Point", "coordinates": [ 179.196450183034415, -8.505243846025568 ] } },
{ "type": "Feature", "properties": { "lulc": "settlements", "class_id": 5 }, "geometry": { "type": "Point", "coordinates": [ 179.196702820128422, -8.505322250640953 ] } },
{ "type": "Feature", "properties": { "lulc": "settlements", "class_id": 5 }, "geometry": { "type": "Point", "coordinates": [ 179.196814487307904, -8.505441837478561 ] } },
{ "type": "Feature", "properties": { "lulc": "settlements", "class_id": 5 }, "geometry": { "type": "Point", "coordinates": [ 179.196772513119868, -8.505454508931551 ] } },
{ "type": "Feature", "properties": { "lulc": "settlements", "class_id": 5 }, "geometry": { "type": "Point", "coordinates": [ 179.197076627991663, -8.505368184658048 ] } },
{ "type": "Feature", "properties": { "lulc": "settlements", "class_id": 5 }, "geometry": { "type": "Point", "coordinates": [ 179.196645798589969, -8.505544001068305 ] } },
{ "type": "Feature", "properties": { "lulc": "settlements", "class_id": 5 }, "geometry": { "type": "Point", "coordinates": [ 179.196831118589955, -8.505598646709331 ] } },
{ "type": "Feature", "properties": { "lulc": "settlements", "class_id": 5 }, "geometry": { "type": "Point", "coordinates": [ 179.197014062692517, -8.506083329786255 ] } },
{ "type": "Feature", "properties": { "lulc": "settlements", "class_id": 5 }, "geometry": { "type": "Point", "coordinates": [ 179.197120978077123, -8.506397740213606 ] } },
{ "type": "Feature", "properties": { "lulc": "settlements", "class_id": 5 }, "geometry": { "type": "Point", "coordinates": [ 179.197202550555772, -8.506462681410188 ] } },
{ "type": "Feature", "properties": { "lulc": "settlements", "class_id": 5 }, "geometry": { "type": "Point", "coordinates": [ 179.197218389872035, -8.506440506367452 ] } },
{ "type": "Feature", "properties": { "lulc": "settlements", "class_id": 5 }, "geometry": { "type": "Point", "coordinates": [ 179.197460731410501, -8.506425459017025 ] } },
{ "type": "Feature", "properties": { "lulc": "settlements", "class_id": 5 }, "geometry": { "type": "Point", "coordinates": [ 179.197402125940414, -8.506963995769162 ] } },
{ "type": "Feature", "properties": { "lulc": "settlements", "class_id": 5 }, "geometry": { "type": "Point", "coordinates": [ 179.197264323889129, -8.506782635598222 ] } },
{ "type": "Feature", "properties": { "lulc": "settlements", "class_id": 5 }, "geometry": { "type": "Point", "coordinates": [ 179.1971550326071, -8.506835697307624 ] } },
{ "type": "Feature", "properties": { "lulc": "settlements", "class_id": 5 }, "geometry": { "type": "Point", "coordinates": [ 179.197466275171195, -8.507219800726428 ] } },
{ "type": "Feature", "properties": { "lulc": "settlements", "class_id": 5 }, "geometry": { "type": "Point", "coordinates": [ 179.197356191923319, -8.507283949957197 ] } },
{ "type": "Feature", "properties": { "lulc": "settlements", "class_id": 5 }, "geometry": { "type": "Point", "coordinates": [ 179.197438556367757, -8.507402744828992 ] } },
{ "type": "Feature", "properties": { "lulc": "settlements", "class_id": 5 }, "geometry": { "type": "Point", "coordinates": [ 179.19786225807718, -8.507329883974291 ] } },
{ "type": "Feature", "properties": { "lulc": "settlements", "class_id": 5 }, "geometry": { "type": "Point", "coordinates": [ 179.197591405769487, -8.507194457820445 ] } },
{ "type": "Feature", "properties": { "lulc": "settlements", "class_id": 5 }, "geometry": { "type": "Point", "coordinates": [ 179.197461523376319, -8.507123180897368 ] } },
{ "type": "Feature", "properties": { "lulc": "settlements", "class_id": 5 }, "geometry": { "type": "Point", "coordinates": [ 179.197368863376312, -8.506952116281983 ] } },
{ "type": "Feature", "properties": { "lulc": "settlements", "class_id": 5 }, "geometry": { "type": "Point", "coordinates": [ 179.197604869188297, -8.506711358675146 ] } },
{ "type": "Feature", "properties": { "lulc": "settlements", "class_id": 5 }, "geometry": { "type": "Point", "coordinates": [ 179.19769198542761, -8.506715318504204 ] } },
{ "type": "Feature", "properties": { "lulc": "settlements", "class_id": 5 }, "geometry": { "type": "Point", "coordinates": [ 179.197599325427603, -8.506667008589675 ] } },
{ "type": "Feature", "properties": { "lulc": "settlements", "class_id": 5 }, "geometry": { "type": "Point", "coordinates": [ 179.197411629530166, -8.507439967222155 ] } },
{ "type": "Feature", "properties": { "lulc": "settlements", "class_id": 5 }, "geometry": { "type": "Point", "coordinates": [ 179.197800484743823, -8.50759123269224 ] } },
{ "type": "Feature", "properties": { "lulc": "settlements", "class_id": 5 }, "geometry": { "type": "Point", "coordinates": [ 179.197946206453224, -8.507592024658052 ] } },
{ "type": "Feature", "properties": { "lulc": "settlements", "class_id": 5 }, "geometry": { "type": "Point", "coordinates": [ 179.197756134658363, -8.507748833888821 ] } },
{ "type": "Feature", "properties": { "lulc": "settlements", "class_id": 5 }, "geometry": { "type": "Point", "coordinates": [ 179.197802860641275, -8.507908810982839 ] } },
{ "type": "Feature", "properties": { "lulc": "settlements", "class_id": 5 }, "geometry": { "type": "Point", "coordinates": [ 179.198047578077166, -8.508032357649505 ] } },
{ "type": "Feature", "properties": { "lulc": "settlements", "class_id": 5 }, "geometry": { "type": "Point", "coordinates": [ 179.198239233803662, -8.507969000384549 ] } },
{ "type": "Feature", "properties": { "lulc": "settlements", "class_id": 5 }, "geometry": { "type": "Point", "coordinates": [ 179.197981844914779, -8.508369735085402 ] } },
{ "type": "Feature", "properties": { "lulc": "settlements", "class_id": 5 }, "geometry": { "type": "Point", "coordinates": [ 179.198008771752399, -8.518256636282002 ] } },
{ "type": "Feature", "properties": { "lulc": "settlements", "class_id": 5 }, "geometry": { "type": "Point", "coordinates": [ 179.197742671239581, -8.518107746709353 ] } },
{ "type": "Feature", "properties": { "lulc": "settlements", "class_id": 5 }, "geometry": { "type": "Point", "coordinates": [ 179.197223141666939, -8.519679006880295 ] } },
{ "type": "Feature", "properties": { "lulc": "settlements", "class_id": 5 }, "geometry": { "type": "Point", "coordinates": [ 179.200045707820777, -8.518459379529865 ] } },
{ "type": "Feature", "properties": { "lulc": "settlements", "class_id": 5 }, "geometry": { "type": "Point", "coordinates": [ 179.199190384743844, -8.517290437991402 ] } },
{ "type": "Feature", "properties": { "lulc": "settlements", "class_id": 5 }, "geometry": { "type": "Point", "coordinates": [ 179.200308640470354, -8.518110914572601 ] } },
{ "type": "Feature", "properties": { "lulc": "settlements", "class_id": 5 }, "geometry": { "type": "Point", "coordinates": [ 179.19843326542761, -8.519625153205082 ] } },
{ "type": "Feature", "properties": { "lulc": "settlements", "class_id": 5 }, "geometry": { "type": "Point", "coordinates": [ 179.197223141666939, -8.52022071149568 ] } },
{ "type": "Feature", "properties": { "lulc": "settlements", "class_id": 5 }, "geometry": { "type": "Point", "coordinates": [ 179.197989764572924, -8.520246054401664 ] } },
{ "type": "Feature", "properties": { "lulc": "settlements", "class_id": 5 }, "geometry": { "type": "Point", "coordinates": [ 179.198262200812223, -8.52002747183756 ] } },
{ "type": "Feature", "properties": { "lulc": "settlements", "class_id": 5 }, "geometry": { "type": "Point", "coordinates": [ 179.198423761837859, -8.520097164829014 ] } },
{ "type": "Feature", "properties": { "lulc": "settlements", "class_id": 5 }, "geometry": { "type": "Point", "coordinates": [ 179.198708869530179, -8.520024303974314 ] } },
{ "type": "Feature", "properties": { "lulc": "settlements", "class_id": 5 }, "geometry": { "type": "Point", "coordinates": [ 179.198981305769507, -8.520103500555509 ] } },
{ "type": "Feature", "properties": { "lulc": "settlements", "class_id": 5 }, "geometry": { "type": "Point", "coordinates": [ 179.199098516709654, -8.519137302264909 ] } },
{ "type": "Feature", "properties": { "lulc": "settlements", "class_id": 5 }, "geometry": { "type": "Point", "coordinates": [ 179.199263245598559, -8.51918165235038 ] } },
{ "type": "Feature", "properties": { "lulc": "settlements", "class_id": 5 }, "geometry": { "type": "Point", "coordinates": [ 179.199580031923347, -8.519108791495679 ] } },
{ "type": "Feature", "properties": { "lulc": "settlements", "class_id": 5 }, "geometry": { "type": "Point", "coordinates": [ 179.199700410726763, -8.518652619187986 ] } },
{ "type": "Feature", "properties": { "lulc": "settlements", "class_id": 5 }, "geometry": { "type": "Point", "coordinates": [ 179.198674023034442, -8.518145761068327 ] } },
{ "type": "Feature", "properties": { "lulc": "settlements", "class_id": 5 }, "geometry": { "type": "Point", "coordinates": [ 179.199025655854939, -8.521533790811921 ] } },
{ "type": "Feature", "properties": { "lulc": "settlements", "class_id": 5 }, "geometry": { "type": "Point", "coordinates": [ 179.199326602863493, -8.521161566880297 ] } },
{ "type": "Feature", "properties": { "lulc": "cropland", "class_id": 2 }, "geometry": { "type": "Point", "coordinates": [ 179.19840079482924, -8.520961199529866 ] } },
{ "type": "Feature", "properties": { "lulc": "cropland", "class_id": 2 }, "geometry": { "type": "Point", "coordinates": [ 179.198476823547196, -8.520693515085421 ] } },
{ "type": "Feature", "properties": { "lulc": "cropland", "class_id": 2 }, "geometry": { "type": "Point", "coordinates": [ 179.198228146282219, -8.520663420384567 ] } },
{ "type": "Feature", "properties": { "lulc": "cropland", "class_id": 2 }, "geometry": { "type": "Point", "coordinates": [ 179.198091928162626, -8.52068480346149 ] } },
{ "type": "Feature", "properties": { "lulc": "cropland", "class_id": 2 }, "geometry": { "type": "Point", "coordinates": [ 179.198307342863473, -8.520714898162346 ] } },
{ "type": "Feature", "properties": { "lulc": "cropland", "class_id": 2 }, "geometry": { "type": "Point", "coordinates": [ 179.198566315683991, -8.520783799187987 ] } },
{ "type": "Feature", "properties": { "lulc": "cropland", "class_id": 2 }, "geometry": { "type": "Point", "coordinates": [ 179.198618585427567, -8.520794094743543 ] } },
{ "type": "Feature", "properties": { "lulc": "cropland", "class_id": 2 }, "geometry": { "type": "Point", "coordinates": [ 179.198285167820728, -8.520988918333286 ] } },
{ "type": "Feature", "properties": { "lulc": "cropland", "class_id": 2 }, "geometry": { "type": "Point", "coordinates": [ 179.198218642692524, -8.520379104658073 ] } },
{ "type": "Feature", "properties": { "lulc": "cropland", "class_id": 2 }, "geometry": { "type": "Point", "coordinates": [ 179.198155285427561, -8.520444837820465 ] } },
{ "type": "Feature", "properties": { "lulc": "cropland", "class_id": 2 }, "geometry": { "type": "Point", "coordinates": [ 179.198519589701078, -8.520657084658072 ] } },
{ "type": "Feature", "properties": { "lulc": "cropland", "class_id": 2 }, "geometry": { "type": "Point", "coordinates": [ 179.198200427478838, -8.520704602606788 ] } },
{ "type": "Feature", "properties": { "lulc": "cropland", "class_id": 2 }, "geometry": { "type": "Point", "coordinates": [ 179.198522757564319, -8.520912097649523 ] } },
{ "type": "Feature", "properties": { "lulc": "cropland", "class_id": 2 }, "geometry": { "type": "Point", "coordinates": [ 179.198450688675422, -8.520984958504224 ] } },
{ "type": "Feature", "properties": { "lulc": "cropland", "class_id": 2 }, "geometry": { "type": "Point", "coordinates": [ 179.198322390213889, -8.520959615598242 ] } },
{ "type": "Feature", "properties": { "lulc": "cropland", "class_id": 2 }, "geometry": { "type": "Point", "coordinates": [ 179.197698321154121, -8.521795535512773 ] } },
{ "type": "Feature", "properties": { "lulc": "cropland", "class_id": 2 }, "geometry": { "type": "Point", "coordinates": [ 179.197830579444741, -8.5214795411538 ] } },
{ "type": "Feature", "properties": { "lulc": "cropland", "class_id": 2 }, "geometry": { "type": "Point", "coordinates": [ 179.197834539273799, -8.521630014658074 ] } },
{ "type": "Feature", "properties": { "lulc": "cropland", "class_id": 2 }, "geometry": { "type": "Point", "coordinates": [ 179.197777517735318, -8.521691787991408 ] } },
{ "type": "Feature", "properties": { "lulc": "cropland", "class_id": 2 }, "geometry": { "type": "Point", "coordinates": [ 179.197749006966092, -8.521713963034141 ] } },
{ "type": "Feature", "properties": { "lulc": "cropland", "class_id": 2 }, "geometry": { "type": "Point", "coordinates": [ 179.198221018590033, -8.521424895512775 ] } },
{ "type": "Feature", "properties": { "lulc": "cropland", "class_id": 2 }, "geometry": { "type": "Point", "coordinates": [ 179.198230522179784, -8.521496964401663 ] } },
{ "type": "Feature", "properties": { "lulc": "cropland", "class_id": 2 }, "geometry": { "type": "Point", "coordinates": [ 179.198158453290887, -8.521281549700808 ] } },
{ "type": "Feature", "properties": { "lulc": "cropland", "class_id": 2 }, "geometry": { "type": "Point", "coordinates": [ 179.198133110384902, -8.521228487991406 ] } },
{ "type": "Feature", "properties": { "lulc": "cropland", "class_id": 2 }, "geometry": { "type": "Point", "coordinates": [ 179.198095096025924, -8.52122215226491 ] } },
{ "type": "Feature", "properties": { "lulc": "cropland", "class_id": 2 }, "geometry": { "type": "Point", "coordinates": [ 179.19831051072677, -8.521331443546963 ] } },
{ "type": "Feature", "properties": { "lulc": "cropland", "class_id": 2 }, "geometry": { "type": "Point", "coordinates": [ 179.198091928162683, -8.521087518076877 ] } },
{ "type": "Feature", "properties": { "lulc": "cropland", "class_id": 2 }, "geometry": { "type": "Point", "coordinates": [ 179.198015107478909, -8.521251454999954 ] } },
{ "type": "Feature", "properties": { "lulc": "cropland", "class_id": 2 }, "geometry": { "type": "Point", "coordinates": [ 179.198032530726778, -8.521397176709355 ] } },
{ "type": "Feature", "properties": { "lulc": "cropland", "class_id": 2 }, "geometry": { "type": "Point", "coordinates": [ 179.198070545085756, -8.521375793632432 ] } },
{ "type": "Feature", "properties": { "lulc": "cropland", "class_id": 2 }, "geometry": { "type": "Point", "coordinates": [ 179.198256657051559, -8.521351242692262 ] } },
{ "type": "Feature", "properties": { "lulc": "cropland", "class_id": 2 }, "geometry": { "type": "Point", "coordinates": [ 179.198114103205398, -8.521263334487132 ] } },
{ "type": "Feature", "properties": { "lulc": "cropland", "class_id": 2 }, "geometry": { "type": "Point", "coordinates": [ 179.198154493461828, -8.521184137905935 ] } },
{ "type": "Feature", "properties": { "lulc": "cropland", "class_id": 2 }, "geometry": { "type": "Point", "coordinates": [ 179.19827328833361, -8.521009905427304 ] } },
{ "type": "Feature", "properties": { "lulc": "cropland", "class_id": 2 }, "geometry": { "type": "Point", "coordinates": [ 179.198414258248135, -8.521006737564056 ] } },
{ "type": "Feature", "properties": { "lulc": "grassland", "class_id": 3 }, "geometry": { "type": "Point", "coordinates": [ 179.198232106111419, -8.522151920128158 ] } },
{ "type": "Feature", "properties": { "lulc": "grassland", "class_id": 3 }, "geometry": { "type": "Point", "coordinates": [ 179.198304966966106, -8.522026789529868 ] } },
{ "type": "Feature", "properties": { "lulc": "grassland", "class_id": 3 }, "geometry": { "type": "Point", "coordinates": [ 179.198430097564369, -8.521920666111063 ] } },
{ "type": "Feature", "properties": { "lulc": "grassland", "class_id": 3 }, "geometry": { "type": "Point", "coordinates": [ 179.198696990043004, -8.521639518247815 ] } },
{ "type": "Feature", "properties": { "lulc": "grassland", "class_id": 3 }, "geometry": { "type": "Point", "coordinates": [ 179.198850631410522, -8.52149617243585 ] } },
{ "type": "Feature", "properties": { "lulc": "grassland", "class_id": 3 }, "geometry": { "type": "Point", "coordinates": [ 179.198955170897705, -8.521359162350379 ] } },
{ "type": "Feature", "properties": { "lulc": "grassland", "class_id": 3 }, "geometry": { "type": "Point", "coordinates": [ 179.199026447820756, -8.521245911239269 ] } },
{ "type": "Feature", "properties": { "lulc": "grassland", "class_id": 3 }, "geometry": { "type": "Point", "coordinates": [ 179.199256117906231, -8.521080390384567 ] } },
{ "type": "Feature", "properties": { "lulc": "grassland", "class_id": 3 }, "geometry": { "type": "Point", "coordinates": [ 179.199488163889129, -8.52085626405978 ] } },
{ "type": "Feature", "properties": { "lulc": "grassland", "class_id": 3 }, "geometry": { "type": "Point", "coordinates": [ 179.199562608675478, -8.520757268333284 ] } },
{ "type": "Feature", "properties": { "lulc": "grassland", "class_id": 3 }, "geometry": { "type": "Point", "coordinates": [ 179.199579239957558, -8.520636097564054 ] } },
{ "type": "Feature", "properties": { "lulc": "grassland", "class_id": 3 }, "geometry": { "type": "Point", "coordinates": [ 179.199499251410543, -8.520534725940124 ] } },
{ "type": "Feature", "properties": { "lulc": "grassland", "class_id": 3 }, "geometry": { "type": "Point", "coordinates": [ 179.199416095000288, -8.520614714487133 ] } },
{ "type": "Feature", "properties": { "lulc": "grassland", "class_id": 3 }, "geometry": { "type": "Point", "coordinates": [ 179.199804950213974, -8.520374748846105 ] } },
{ "type": "Feature", "properties": { "lulc": "grassland", "class_id": 3 }, "geometry": { "type": "Point", "coordinates": [ 179.199866723547302, -8.520454737393115 ] } },
{ "type": "Feature", "properties": { "lulc": "grassland", "class_id": 3 }, "geometry": { "type": "Point", "coordinates": [ 179.199737633119952, -8.520278129017045 ] } },
{ "type": "Feature", "properties": { "lulc": "grassland", "class_id": 3 }, "geometry": { "type": "Point", "coordinates": [ 179.199630717735346, -8.520164085940122 ] } },
{ "type": "Feature", "properties": { "lulc": "grassland", "class_id": 3 }, "geometry": { "type": "Point", "coordinates": [ 179.199523802350711, -8.520170421666618 ] } },
{ "type": "Feature", "properties": { "lulc": "grassland", "class_id": 3 }, "geometry": { "type": "Point", "coordinates": [ 179.199506379102871, -8.52013874303414 ] } },
{ "type": "Feature", "properties": { "lulc": "grassland", "class_id": 3 }, "geometry": { "type": "Point", "coordinates": [ 179.199894442350711, -8.520093600982857 ] } },
{ "type": "Feature", "properties": { "lulc": "grassland", "class_id": 3 }, "geometry": { "type": "Point", "coordinates": [ 179.199858011923368, -8.520117359957217 ] } },
{ "type": "Feature", "properties": { "lulc": "grassland", "class_id": 3 }, "geometry": { "type": "Point", "coordinates": [ 179.199974430897726, -8.520259121837558 ] } },
{ "type": "Feature", "properties": { "lulc": "grassland", "class_id": 3 }, "geometry": { "type": "Point", "coordinates": [ 179.199948296025923, -8.520214771752089 ] } },
{ "type": "Feature", "properties": { "lulc": "grassland", "class_id": 3 }, "geometry": { "type": "Point", "coordinates": [ 179.199967303205426, -8.5203280228632 ] } },
{ "type": "Feature", "properties": { "lulc": "grassland", "class_id": 3 }, "geometry": { "type": "Point", "coordinates": [ 179.200080554316543, -8.520175965427303 ] } },
{ "type": "Feature", "properties": { "lulc": "grassland", "class_id": 3 }, "geometry": { "type": "Point", "coordinates": [ 179.200168462521674, -8.520088849187985 ] } },
{ "type": "Feature", "properties": { "lulc": "grassland", "class_id": 3 }, "geometry": { "type": "Point", "coordinates": [ 179.200779068162689, -8.520151414487129 ] } },
{ "type": "Feature", "properties": { "lulc": "grassland", "class_id": 3 }, "geometry": { "type": "Point", "coordinates": [ 179.200105105256711, -8.520081721495675 ] } },
{ "type": "Feature", "properties": { "lulc": "grassland", "class_id": 3 }, "geometry": { "type": "Point", "coordinates": [ 179.200438522863521, -8.519765727136704 ] } },
{ "type": "Feature", "properties": { "lulc": "grassland", "class_id": 3 }, "geometry": { "type": "Point", "coordinates": [ 179.20020093311993, -8.520012820470038 ] } },
{ "type": "Feature", "properties": { "lulc": "grassland", "class_id": 3 }, "geometry": { "type": "Point", "coordinates": [ 179.200867768333609, -8.520096768846106 ] } },
{ "type": "Feature", "properties": { "lulc": "grassland", "class_id": 3 }, "geometry": { "type": "Point", "coordinates": [ 179.20029280115412, -8.520613130555509 ] } },
{ "type": "Feature", "properties": { "lulc": "grassland", "class_id": 3 }, "geometry": { "type": "Point", "coordinates": [ 179.200490792607127, -8.519757807478584 ] } },
{ "type": "Feature", "properties": { "lulc": "grassland", "class_id": 3 }, "geometry": { "type": "Point", "coordinates": [ 179.20066977688063, -8.519254117222173 ] } },
{ "type": "Feature", "properties": { "lulc": "grassland", "class_id": 3 }, "geometry": { "type": "Point", "coordinates": [ 179.20066344115412, -8.519230358247814 ] } },
{ "type": "Feature", "properties": { "lulc": "grassland", "class_id": 3 }, "geometry": { "type": "Point", "coordinates": [ 179.201078431239608, -8.519868682692259 ] } },
{ "type": "Feature", "properties": { "lulc": "grassland", "class_id": 3 }, "geometry": { "type": "Point", "coordinates": [ 179.201322356709682, -8.519521801666619 ] } },
{ "type": "Feature", "properties": { "lulc": "grassland", "class_id": 3 }, "geometry": { "type": "Point", "coordinates": [ 179.201563114316514, -8.519271540470037 ] } },
{ "type": "Feature", "properties": { "lulc": "grassland", "class_id": 3 }, "geometry": { "type": "Point", "coordinates": [ 179.200994482863535, -8.519141658076874 ] } },
{ "type": "Feature", "properties": { "lulc": "grassland", "class_id": 3 }, "geometry": { "type": "Point", "coordinates": [ 179.201702500299433, -8.519098891923027 ] } },
{ "type": "Feature", "properties": { "lulc": "grassland", "class_id": 3 }, "geometry": { "type": "Point", "coordinates": [ 179.201794368333651, -8.518816952093967 ] } },
{ "type": "Feature", "properties": { "lulc": "grassland", "class_id": 3 }, "geometry": { "type": "Point", "coordinates": [ 179.202038293803724, -8.518319597564052 ] } },
{ "type": "Feature", "properties": { "lulc": "grassland", "class_id": 3 }, "geometry": { "type": "Point", "coordinates": [ 179.202320233632776, -8.51838295482901 ] } },
{ "type": "Feature", "properties": { "lulc": "grassland", "class_id": 3 }, "geometry": { "type": "Point", "coordinates": [ 179.202009783034498, -8.518120022179435 ] } },
{ "type": "Feature", "properties": { "lulc": "grassland", "class_id": 3 }, "geometry": { "type": "Point", "coordinates": [ 179.201686660983199, -8.518905652264907 ] } },
{ "type": "Feature", "properties": { "lulc": "mangroves", "class_id": 8 }, "geometry": { "type": "Point", "coordinates": [ 179.201414224743985, -8.521209480811919 ] } },
{ "type": "Feature", "properties": { "lulc": "mangroves", "class_id": 8 }, "geometry": { "type": "Point", "coordinates": [ 179.201453295057377, -8.521215816538415 ] } },
{ "type": "Feature", "properties": { "lulc": "mangroves", "class_id": 8 }, "geometry": { "type": "Point", "coordinates": [ 179.200968611980471, -8.521309796481434 ] } },
{ "type": "Feature", "properties": { "lulc": "mangroves", "class_id": 8 }, "geometry": { "type": "Point", "coordinates": [ 179.20088202371835, -8.521317188162346 ] } },
{ "type": "Feature", "properties": { "lulc": "mangroves", "class_id": 8 }, "geometry": { "type": "Point", "coordinates": [ 179.201093214601542, -8.521261222578302 ] } },
{ "type": "Feature", "properties": { "lulc": "mangroves", "class_id": 8 }, "geometry": { "type": "Point", "coordinates": [ 179.201109581894997, -8.521241687421606 ] } },
{ "type": "Feature", "properties": { "lulc": "mangroves", "class_id": 8 }, "geometry": { "type": "Point", "coordinates": [ 179.201130700983299, -8.521235879672318 ] } },
{ "type": "Feature", "properties": { "lulc": "mangroves", "class_id": 8 }, "geometry": { "type": "Point", "coordinates": [ 179.201323412664237, -8.521250135056933 ] } },
{ "type": "Feature", "properties": { "lulc": "mangroves", "class_id": 8 }, "geometry": { "type": "Point", "coordinates": [ 179.201189834430608, -8.521259110669469 ] } },
{ "type": "Feature", "properties": { "lulc": "mangroves", "class_id": 8 }, "geometry": { "type": "Point", "coordinates": [ 179.201168715342277, -8.521253302920181 ] } },
{ "type": "Feature", "properties": { "lulc": "mangroves", "class_id": 8 }, "geometry": { "type": "Point", "coordinates": [ 179.201249495855109, -8.521237991581151 ] } },
{ "type": "Feature", "properties": { "lulc": "mangroves", "class_id": 8 }, "geometry": { "type": "Point", "coordinates": [ 179.201302821553099, -8.521261222578302 ] } },
{ "type": "Feature", "properties": { "lulc": "mangroves", "class_id": 8 }, "geometry": { "type": "Point", "coordinates": [ 179.201584233404958, -8.521178858133856 ] } },
{ "type": "Feature", "properties": { "lulc": "mangroves", "class_id": 8 }, "geometry": { "type": "Point", "coordinates": [ 179.201684549074486, -8.521120780640979 ] } },
{ "type": "Feature", "properties": { "lulc": "mangroves", "class_id": 8 }, "geometry": { "type": "Point", "coordinates": [ 179.201727843205532, -8.521075374601093 ] } },
{ "type": "Feature", "properties": { "lulc": "mangroves", "class_id": 8 }, "geometry": { "type": "Point", "coordinates": [ 179.201701972322354, -8.521099661552659 ] } },
{ "type": "Feature", "properties": { "lulc": "mangroves", "class_id": 8 }, "geometry": { "type": "Point", "coordinates": [ 179.201769025427751, -8.521007793518471 ] } },
{ "type": "Feature", "properties": { "lulc": "mangroves", "class_id": 8 }, "geometry": { "type": "Point", "coordinates": [ 179.201491837393576, -8.521203145085423 ] } },
{ "type": "Feature", "properties": { "lulc": "mangroves", "class_id": 8 }, "geometry": { "type": "Point", "coordinates": [ 179.200829225997552, -8.52129026132474 ] } },
{ "type": "Feature", "properties": { "lulc": "mangroves", "class_id": 8 }, "geometry": { "type": "Point", "coordinates": [ 179.200557845712666, -8.521060063262061 ] } },
{ "type": "Feature", "properties": { "lulc": "mangroves", "class_id": 8 }, "geometry": { "type": "Point", "coordinates": [ 179.200507159900695, -8.521071678760636 ] } },
{ "type": "Feature", "properties": { "lulc": "mangroves", "class_id": 8 }, "geometry": { "type": "Point", "coordinates": [ 179.200477065199834, -8.521036304287703 ] } },
{ "type": "Feature", "properties": { "lulc": "mangroves", "class_id": 8 }, "geometry": { "type": "Point", "coordinates": [ 179.200529334943411, -8.521054255512773 ] } },
{ "type": "Feature", "properties": { "lulc": "mangroves", "class_id": 8 }, "geometry": { "type": "Point", "coordinates": [ 179.20056787727961, -8.521042112036991 ] } },
{ "type": "Feature", "properties": { "lulc": "mangroves", "class_id": 8 }, "geometry": { "type": "Point", "coordinates": [ 179.200554677849397, -8.521023104857504 ] } },
{ "type": "Feature", "properties": { "lulc": "mangroves", "class_id": 8 }, "geometry": { "type": "Point", "coordinates": [ 179.200592164231182, -8.521018353062631 ] } },
{ "type": "Feature", "properties": { "lulc": "mangroves", "class_id": 8 }, "geometry": { "type": "Point", "coordinates": [ 179.200751085370769, -8.521194697450095 ] } },
{ "type": "Feature", "properties": { "lulc": "mangroves", "class_id": 8 }, "geometry": { "type": "Point", "coordinates": [ 179.200759533006106, -8.521226376082573 ] } },
{ "type": "Feature", "properties": { "lulc": "mangroves", "class_id": 8 }, "geometry": { "type": "Point", "coordinates": [ 179.200726798419197, -8.521143483660921 ] } },
{ "type": "Feature", "properties": { "lulc": "mangroves", "class_id": 8 }, "geometry": { "type": "Point", "coordinates": [ 179.201479165940583, -8.521206312948671 ] } },
{ "type": "Feature", "properties": { "lulc": "mangroves", "class_id": 8 }, "geometry": { "type": "Point", "coordinates": [ 179.201427424174199, -8.521224792150951 ] } },
{ "type": "Feature", "properties": { "lulc": "mangroves", "class_id": 8 }, "geometry": { "type": "Point", "coordinates": [ 179.201483389758238, -8.521196281381719 ] } },
{ "type": "Feature", "properties": { "lulc": "mangroves", "class_id": 8 }, "geometry": { "type": "Point", "coordinates": [ 179.201531963661381, -8.52117252240736 ] } },
{ "type": "Feature", "properties": { "lulc": "mangroves", "class_id": 8 }, "geometry": { "type": "Point", "coordinates": [ 179.201607464402116, -8.521156683091121 ] } },
{ "type": "Feature", "properties": { "lulc": "mangroves", "class_id": 8 }, "geometry": { "type": "Point", "coordinates": [ 179.201690884800968, -8.521119724686562 ] } },
{ "type": "Feature", "properties": { "lulc": "mangroves", "class_id": 8 }, "geometry": { "type": "Point", "coordinates": [ 179.201636503148563, -8.521148763433002 ] } },
{ "type": "Feature", "properties": { "lulc": "mangroves", "class_id": 8 }, "geometry": { "type": "Point", "coordinates": [ 179.201673461553099, -8.521113388960067 ] } },
{ "type": "Feature", "properties": { "lulc": "mangroves", "class_id": 8 }, "geometry": { "type": "Point", "coordinates": [ 179.201758465883586, -8.521046335854654 ] } },
{ "type": "Feature", "properties": { "lulc": "mangroves", "class_id": 8 }, "geometry": { "type": "Point", "coordinates": [ 179.201742626567352, -8.521060063262061 ] } },
{ "type": "Feature", "properties": { "lulc": "mangroves", "class_id": 8 }, "geometry": { "type": "Point", "coordinates": [ 179.200395228732503, -8.521229543945822 ] } },
{ "type": "Feature", "properties": { "lulc": "mangroves", "class_id": 8 }, "geometry": { "type": "Point", "coordinates": [ 179.20037938941627, -8.521245383262061 ] } },
{ "type": "Feature", "properties": { "lulc": "mangroves", "class_id": 8 }, "geometry": { "type": "Point", "coordinates": [ 179.20036460605445, -8.521246439216476 ] } },
{ "type": "Feature", "properties": { "lulc": "mangroves", "class_id": 8 }, "geometry": { "type": "Point", "coordinates": [ 179.200380709359308, -8.521288677393116 ] } },
{ "type": "Feature", "properties": { "lulc": "mangroves", "class_id": 8 }, "geometry": { "type": "Point", "coordinates": [ 179.200353254544495, -8.521306892606791 ] } },
{ "type": "Feature", "properties": { "lulc": "mangroves", "class_id": 8 }, "geometry": { "type": "Point", "coordinates": [ 179.200373581667009, -8.521252510954369 ] } },
{ "type": "Feature", "properties": { "lulc": "mangroves", "class_id": 8 }, "geometry": { "type": "Point", "coordinates": [ 179.200371733746778, -8.521238519558358 ] } },
{ "type": "Feature", "properties": { "lulc": "mangroves", "class_id": 8 }, "geometry": { "type": "Point", "coordinates": [ 179.200296496994667, -8.52135520252132 ] } },
{ "type": "Feature", "properties": { "lulc": "mangroves", "class_id": 8 }, "geometry": { "type": "Point", "coordinates": [ 179.200335039330838, -8.521327219729299 ] } },
{ "type": "Feature", "properties": { "lulc": "mangroves", "class_id": 8 }, "geometry": { "type": "Point", "coordinates": [ 179.200345598875003, -8.521328275683715 ] } },
{ "type": "Feature", "properties": { "lulc": "mangroves", "class_id": 8 }, "geometry": { "type": "Point", "coordinates": [ 179.200297552949081, -8.521480333119612 ] } },
{ "type": "Feature", "properties": { "lulc": "mangroves", "class_id": 8 }, "geometry": { "type": "Point", "coordinates": [ 179.200294913063033, -8.521434399102517 ] } },
{ "type": "Feature", "properties": { "lulc": "mangroves", "class_id": 8 }, "geometry": { "type": "Point", "coordinates": [ 179.200301248789515, -8.521449182464341 ] } },
{ "type": "Feature", "properties": { "lulc": "mangroves", "class_id": 8 }, "geometry": { "type": "Point", "coordinates": [ 179.200285409473281, -8.521533658817617 ] } },
{ "type": "Feature", "properties": { "lulc": "mangroves", "class_id": 8 }, "geometry": { "type": "Point", "coordinates": [ 179.200260066567296, -8.521574313062633 ] } },
{ "type": "Feature", "properties": { "lulc": "mangroves", "class_id": 8 }, "geometry": { "type": "Point", "coordinates": [ 179.200259538590103, -8.521567449358928 ] } },
{ "type": "Feature", "properties": { "lulc": "mangroves", "class_id": 8 }, "geometry": { "type": "Point", "coordinates": [ 179.20026745824822, -8.521546858247817 ] } },
{ "type": "Feature", "properties": { "lulc": "mangroves", "class_id": 8 }, "geometry": { "type": "Point", "coordinates": [ 179.200272738020288, -8.52155688981477 ] } },
{ "type": "Feature", "properties": { "lulc": "mangroves", "class_id": 8 }, "geometry": { "type": "Point", "coordinates": [ 179.200140743718293, -8.521636086395967 ] } },
{ "type": "Feature", "properties": { "lulc": "mangroves", "class_id": 8 }, "geometry": { "type": "Point", "coordinates": [ 179.200141799672707, -8.521643478076879 ] } },
{ "type": "Feature", "properties": { "lulc": "mangroves", "class_id": 8 }, "geometry": { "type": "Point", "coordinates": [ 179.20014866337641, -8.521635558418758 ] } },
{ "type": "Feature", "properties": { "lulc": "mangroves", "class_id": 8 }, "geometry": { "type": "Point", "coordinates": [ 179.200155527080113, -8.521633446509927 ] } },
{ "type": "Feature", "properties": { "lulc": "mangroves", "class_id": 8 }, "geometry": { "type": "Point", "coordinates": [ 179.20014602349039, -8.52162975066947 ] } },
{ "type": "Feature", "properties": { "lulc": "mangroves", "class_id": 8 }, "geometry": { "type": "Point", "coordinates": [ 179.200187205712609, -8.521609687535568 ] } },
{ "type": "Feature", "properties": { "lulc": "mangroves", "class_id": 8 }, "geometry": { "type": "Point", "coordinates": [ 179.20018139796332, -8.52161707921648 ] } },
{ "type": "Feature", "properties": { "lulc": "mangroves", "class_id": 8 }, "geometry": { "type": "Point", "coordinates": [ 179.200131768105763, -8.521635558418758 ] } },
{ "type": "Feature", "properties": { "lulc": "mangroves", "class_id": 8 }, "geometry": { "type": "Point", "coordinates": [ 179.200231555798069, -8.521580120811921 ] } },
{ "type": "Feature", "properties": { "lulc": "mangroves", "class_id": 8 }, "geometry": { "type": "Point", "coordinates": [ 179.20016925448752, -8.521622886965767 ] } },
{ "type": "Feature", "properties": { "lulc": "mangroves", "class_id": 8 }, "geometry": { "type": "Point", "coordinates": [ 179.200157111011748, -8.521626054829015 ] } },
{ "type": "Feature", "properties": { "lulc": "forest", "class_id": 1 }, "geometry": { "type": "Point", "coordinates": [ 179.200940101211188, -8.521819822464343 ] } },
{ "type": "Feature", "properties": { "lulc": "forest", "class_id": 1 }, "geometry": { "type": "Point", "coordinates": [ 179.20078645984367, -8.521829854031294 ] } },
{ "type": "Feature", "properties": { "lulc": "water", "class_id": 7 }, "geometry": { "type": "Point", "coordinates": [ 179.201039888903466, -8.521441262806224 ] } },
{ "type": "Feature", "properties": { "lulc": "water", "class_id": 7 }, "geometry": { "type": "Point", "coordinates": [ 179.201265863148507, -8.521407472264913 ] } },
{ "type": "Feature", "properties": { "lulc": "water", "class_id": 7 }, "geometry": { "type": "Point", "coordinates": [ 179.200487624743943, -8.521478221210783 ] } },
{ "type": "Feature", "properties": { "lulc": "water", "class_id": 7 }, "geometry": { "type": "Point", "coordinates": [ 179.201491837393519, -8.521278645826166 ] } },
{ "type": "Feature", "properties": { "lulc": "water", "class_id": 7 }, "geometry": { "type": "Point", "coordinates": [ 179.200811802749627, -8.521478221210783 ] } },
{ "type": "Feature", "properties": { "lulc": "water", "class_id": 7 }, "geometry": { "type": "Point", "coordinates": [ 179.200523527194065, -8.521355730498531 ] } },
{ "type": "Feature", "properties": { "lulc": "water", "class_id": 7 }, "geometry": { "type": "Point", "coordinates": [ 179.201830798761023, -8.520397979843258 ] } },
{ "type": "Feature", "properties": { "lulc": "water", "class_id": 7 }, "geometry": { "type": "Point", "coordinates": [ 179.201617495969003, -8.520471896652376 ] } },
{ "type": "Feature", "properties": { "lulc": "water", "class_id": 7 }, "geometry": { "type": "Point", "coordinates": [ 179.201915275114317, -8.521099133575454 ] } },
{ "type": "Feature", "properties": { "lulc": "water", "class_id": 7 }, "geometry": { "type": "Point", "coordinates": [ 179.201758993860608, -8.520142438874593 ] } },
{ "type": "Feature", "properties": { "lulc": "water", "class_id": 7 }, "geometry": { "type": "Point", "coordinates": [ 179.201739986681133, -8.520630289814767 ] } },
{ "type": "Feature", "properties": { "lulc": "water", "class_id": 7 }, "geometry": { "type": "Point", "coordinates": [ 179.201752658134126, -8.519793973917329 ] } },
{ "type": "Feature", "properties": { "lulc": "water", "class_id": 7 }, "geometry": { "type": "Point", "coordinates": [ 179.202303866339236, -8.519508866225021 ] } },
{ "type": "Feature", "properties": { "lulc": "water", "class_id": 7 }, "geometry": { "type": "Point", "coordinates": [ 179.202259516253775, -8.519977709985705 ] } },
{ "type": "Feature", "properties": { "lulc": "water", "class_id": 7 }, "geometry": { "type": "Point", "coordinates": [ 179.201917387023002, -8.520256481951517 ] } },
{ "type": "Feature", "properties": { "lulc": "water", "class_id": 7 }, "geometry": { "type": "Point", "coordinates": [ 179.202272187706768, -8.520167781780577 ] } },
{ "type": "Feature", "properties": { "lulc": "coral", "class_id": 12 }, "geometry": { "type": "Point", "coordinates": [ 179.169592510441703, -8.439786419729151 ] } },
{ "type": "Feature", "properties": { "lulc": "coral", "class_id": 12 }, "geometry": { "type": "Point", "coordinates": [ 179.169985325484447, -8.439558333575304 ] } },
{ "type": "Feature", "properties": { "lulc": "coral", "class_id": 12 }, "geometry": { "type": "Point", "coordinates": [ 179.168534444116915, -8.438215159558208 ] } },
{ "type": "Feature", "properties": { "lulc": "coral", "class_id": 12 }, "geometry": { "type": "Point", "coordinates": [ 179.165366580869033, -8.437220450498376 ] } },
{ "type": "Feature", "properties": { "lulc": "coral", "class_id": 12 }, "geometry": { "type": "Point", "coordinates": [ 179.165246202065617, -8.436846642635128 ] } },
{ "type": "Feature", "properties": { "lulc": "coral", "class_id": 12 }, "geometry": { "type": "Point", "coordinates": [ 179.164790029757938, -8.436194062806067 ] } },
{ "type": "Feature", "properties": { "lulc": "coral", "class_id": 12 }, "geometry": { "type": "Point", "coordinates": [ 179.165163837621179, -8.440451671011203 ] } },
{ "type": "Feature", "properties": { "lulc": "coral", "class_id": 12 }, "geometry": { "type": "Point", "coordinates": [ 179.168635815740856, -8.440128548959921 ] } },
{ "type": "Feature", "properties": { "lulc": "coral", "class_id": 12 }, "geometry": { "type": "Point", "coordinates": [ 179.164771022578435, -8.43647283477188 ] } },
{ "type": "Feature", "properties": { "lulc": "coral", "class_id": 12 }, "geometry": { "type": "Point", "coordinates": [ 179.166221903945967, -8.437885701780429 ] } },
{ "type": "Feature", "properties": { "lulc": "coral", "class_id": 12 }, "geometry": { "type": "Point", "coordinates": [ 179.167970564458784, -8.438734689130857 ] } },
{ "type": "Feature", "properties": { "lulc": "coral", "class_id": 12 }, "geometry": { "type": "Point", "coordinates": [ 179.165296887877588, -8.437404186566754 ] } },
{ "type": "Feature", "properties": { "lulc": "coral", "class_id": 12 }, "geometry": { "type": "Point", "coordinates": [ 179.170105704287863, -8.439469633404364 ] } },
{ "type": "Feature", "properties": { "lulc": "coral", "class_id": 12 }, "geometry": { "type": "Point", "coordinates": [ 179.169757239330579, -8.439729398190689 ] } },
{ "type": "Feature", "properties": { "lulc": "coral", "class_id": 12 }, "geometry": { "type": "Point", "coordinates": [ 179.16981426086906, -8.439951148618039 ] } },
{ "type": "Feature", "properties": { "lulc": "coral", "class_id": 12 }, "geometry": { "type": "Point", "coordinates": [ 179.171176442065644, -8.441059900754794 ] } },
{ "type": "Feature", "properties": { "lulc": "coral", "class_id": 12 }, "geometry": { "type": "Point", "coordinates": [ 179.165734053005792, -8.437505558190685 ] } },
{ "type": "Feature", "properties": { "lulc": "coral", "class_id": 12 }, "geometry": { "type": "Point", "coordinates": [ 179.166025496424595, -8.437663951353079 ] } },
{ "type": "Feature", "properties": { "lulc": "coral", "class_id": 12 }, "geometry": { "type": "Point", "coordinates": [ 179.165341237963077, -8.440717771524024 ] } },
{ "type": "Feature", "properties": { "lulc": "coral", "class_id": 12 }, "geometry": { "type": "Point", "coordinates": [ 179.165328566510084, -8.440312285028297 ] } },
{ "type": "Feature", "properties": { "lulc": "coral", "class_id": 12 }, "geometry": { "type": "Point", "coordinates": [ 179.165436273860507, -8.440597392720605 ] } },
{ "type": "Feature", "properties": { "lulc": "coral", "class_id": 12 }, "geometry": { "type": "Point", "coordinates": [ 179.165594667022901, -8.440483349643682 ] } },
{ "type": "Feature", "properties": { "lulc": "coral", "class_id": 12 }, "geometry": { "type": "Point", "coordinates": [ 179.163415177108362, -8.435116989301791 ] } },
{ "type": "Feature", "properties": { "lulc": "coral", "class_id": 12 }, "geometry": { "type": "Point", "coordinates": [ 179.164251493005793, -8.435794912036835 ] } },
{ "type": "Feature", "properties": { "lulc": "coral", "class_id": 12 }, "geometry": { "type": "Point", "coordinates": [ 179.164637972322026, -8.436320777335983 ] } },
{ "type": "Feature", "properties": { "lulc": "coral", "class_id": 12 }, "geometry": { "type": "Point", "coordinates": [ 179.167457370612652, -8.438386224173593 ] } },
{ "type": "Feature", "properties": { "lulc": "coral", "class_id": 12 }, "geometry": { "type": "Point", "coordinates": [ 179.165315895057091, -8.437461208105216 ] } },
{ "type": "Feature", "properties": { "lulc": "coral", "class_id": 12 }, "geometry": { "type": "Point", "coordinates": [ 179.164929415740829, -8.436517184857349 ] } },
{ "type": "Feature", "properties": { "lulc": "coral", "class_id": 12 }, "geometry": { "type": "Point", "coordinates": [ 179.165303223604099, -8.440527699729152 ] } },
{ "type": "Feature", "properties": { "lulc": "coral", "class_id": 12 }, "geometry": { "type": "Point", "coordinates": [ 179.165543981210931, -8.440299613575306 ] } },
{ "type": "Feature", "properties": { "lulc": "coral", "class_id": 12 }, "geometry": { "type": "Point", "coordinates": [ 179.169959982578462, -8.439716726737698 ] } },
{ "type": "Feature", "properties": { "lulc": "coral", "class_id": 12 }, "geometry": { "type": "Point", "coordinates": [ 179.170929348732301, -8.439818098361629 ] } },
{ "type": "Feature", "properties": { "lulc": "coral", "class_id": 12 }, "geometry": { "type": "Point", "coordinates": [ 179.170796298475892, -8.439792755455647 ] } },
{ "type": "Feature", "properties": { "lulc": "coral", "class_id": 12 }, "geometry": { "type": "Point", "coordinates": [ 179.170758284116914, -8.440223584857357 ] } },
{ "type": "Feature", "properties": { "lulc": "sand", "class_id": 10 }, "geometry": { "type": "Point", "coordinates": [ 179.165716629757924, -8.434618050840253 ] } },
{ "type": "Feature", "properties": { "lulc": "sand", "class_id": 10 }, "geometry": { "type": "Point", "coordinates": [ 179.165938380185281, -8.434765356481279 ] } },
{ "type": "Feature", "properties": { "lulc": "sand", "class_id": 10 }, "geometry": { "type": "Point", "coordinates": [ 179.166671740527164, -8.435200937677861 ] } },
{ "type": "Feature", "properties": { "lulc": "sand", "class_id": 10 }, "geometry": { "type": "Point", "coordinates": [ 179.166857060527178, -8.43530547716504 ] } },
{ "type": "Feature", "properties": { "lulc": "sand", "class_id": 10 }, "geometry": { "type": "Point", "coordinates": [ 179.165930460527164, -8.434982355113757 ] } },
{ "type": "Feature", "properties": { "lulc": "sand", "class_id": 10 }, "geometry": { "type": "Point", "coordinates": [ 179.165982730270741, -8.434831881609483 ] } },
{ "type": "Feature", "properties": { "lulc": "sand", "class_id": 10 }, "geometry": { "type": "Point", "coordinates": [ 179.1658195853135, -8.434898406737689 ] } },
{ "type": "Feature", "properties": { "lulc": "sand", "class_id": 10 }, "geometry": { "type": "Point", "coordinates": [ 179.165767315569894, -8.434811290498372 ] } },
{ "type": "Feature", "properties": { "lulc": "sand", "class_id": 10 }, "geometry": { "type": "Point", "coordinates": [ 179.166003321381851, -8.434751101096662 ] } },
{ "type": "Feature", "properties": { "lulc": "sand", "class_id": 10 }, "geometry": { "type": "Point", "coordinates": [ 179.166031832151106, -8.43482237801974 ] } },
{ "type": "Feature", "properties": { "lulc": "sand", "class_id": 10 }, "geometry": { "type": "Point", "coordinates": [ 179.167032876937412, -8.43530547716504 ] } },
{ "type": "Feature", "properties": { "lulc": "sand", "class_id": 10 }, "geometry": { "type": "Point", "coordinates": [ 179.166545025997237, -8.435074223147945 ] } },
{ "type": "Feature", "properties": { "lulc": "sand", "class_id": 10 }, "geometry": { "type": "Point", "coordinates": [ 179.166467413347675, -8.435018785541107 ] } },
{ "type": "Feature", "properties": { "lulc": "sand", "class_id": 10 }, "geometry": { "type": "Point", "coordinates": [ 179.16639772035623, -8.434977603318886 ] } },
{ "type": "Feature", "properties": { "lulc": "sand", "class_id": 10 }, "geometry": { "type": "Point", "coordinates": [ 179.166781031809222, -8.435330820071023 ] } },
{ "type": "Feature", "properties": { "lulc": "sand", "class_id": 10 }, "geometry": { "type": "Point", "coordinates": [ 179.166739849587003, -8.435248455626578 ] } },
{ "type": "Feature", "properties": { "lulc": "sand", "class_id": 10 }, "geometry": { "type": "Point", "coordinates": [ 179.166922001723748, -8.43531339682316 ] } },
{ "type": "Feature", "properties": { "lulc": "sand", "class_id": 10 }, "geometry": { "type": "Point", "coordinates": [ 179.166880819501529, -8.435365666566749 ] } },
{ "type": "Feature", "properties": { "lulc": "sand", "class_id": 10 }, "geometry": { "type": "Point", "coordinates": [ 179.167021789416054, -8.435337155797519 ] } },
{ "type": "Feature", "properties": { "lulc": "sand", "class_id": 10 }, "geometry": { "type": "Point", "coordinates": [ 179.165909869416055, -8.434728926053928 ] } },
{ "type": "Feature", "properties": { "lulc": "sand", "class_id": 10 }, "geometry": { "type": "Point", "coordinates": [ 179.166372377450244, -8.434945924686406 ] } },
{ "type": "Feature", "properties": { "lulc": "sand", "class_id": 10 }, "geometry": { "type": "Point", "coordinates": [ 179.166312188048522, -8.434904742464184 ] } },
{ "type": "Feature", "properties": { "lulc": "sand", "class_id": 10 }, "geometry": { "type": "Point", "coordinates": [ 179.167755149757937, -8.436141793062477 ] } },
{ "type": "Feature", "properties": { "lulc": "sand", "class_id": 10 }, "geometry": { "type": "Point", "coordinates": [ 179.167949973347675, -8.436387302464189 ] } },
{ "type": "Feature", "properties": { "lulc": "sand", "class_id": 10 }, "geometry": { "type": "Point", "coordinates": [ 179.170067689928885, -8.437469127763334 ] } },
{ "type": "Feature", "properties": { "lulc": "sand", "class_id": 10 }, "geometry": { "type": "Point", "coordinates": [ 179.118325395569826, -8.428725825199221 ] } },
{ "type": "Feature", "properties": { "lulc": "coral", "class_id": 12 }, "geometry": { "type": "Point", "coordinates": [ 179.124344335740744, -8.430129188618025 ] } },
{ "type": "Feature", "properties": { "lulc": "coral", "class_id": 12 }, "geometry": { "type": "Point", "coordinates": [ 179.124398189415984, -8.430262238874436 ] } },
{ "type": "Feature", "properties": { "lulc": "coral", "class_id": 12 }, "geometry": { "type": "Point", "coordinates": [ 179.124743486509999, -8.430075334942812 ] } },
{ "type": "Feature", "properties": { "lulc": "rubble", "class_id": 15 }, "geometry": { "type": "Point", "coordinates": [ 179.165561404458771, -8.434130199900082 ] } },
{ "type": "Feature", "properties": { "lulc": "rubble", "class_id": 15 }, "geometry": { "type": "Point", "coordinates": [ 179.165878190783559, -8.432961258361619 ] } },
{ "type": "Feature", "properties": { "lulc": "rubble", "class_id": 15 }, "geometry": { "type": "Point", "coordinates": [ 179.165735636937427, -8.433116483660765 ] } },
{ "type": "Feature", "properties": { "lulc": "rubble", "class_id": 15 }, "geometry": { "type": "Point", "coordinates": [ 179.165612090270741, -8.432989769130851 ] } },
{ "type": "Feature", "properties": { "lulc": "rubble", "class_id": 15 }, "geometry": { "type": "Point", "coordinates": [ 179.165425186339121, -8.434241075113759 ] } },
{ "type": "Feature", "properties": { "lulc": "rubble", "class_id": 15 }, "geometry": { "type": "Point", "coordinates": [ 179.165368164800668, -8.4344754969941 ] } },
{ "type": "Feature", "properties": { "lulc": "rubble", "class_id": 15 }, "geometry": { "type": "Point", "coordinates": [ 179.168250920356229, -8.434823961951366 ] } },
{ "type": "Feature", "properties": { "lulc": "rubble", "class_id": 15 }, "geometry": { "type": "Point", "coordinates": [ 179.165387171980143, -8.434288593062476 ] } },
{ "type": "Feature", "properties": { "lulc": "rubble", "class_id": 15 }, "geometry": { "type": "Point", "coordinates": [ 179.166156962749369, -8.433068965712046 ] } },
{ "type": "Feature", "properties": { "lulc": "rubble", "class_id": 15 }, "geometry": { "type": "Point", "coordinates": [ 179.166058758988669, -8.433148162293243 ] } },
{ "type": "Feature", "properties": { "lulc": "rubble", "class_id": 15 }, "geometry": { "type": "Point", "coordinates": [ 179.167386093689544, -8.433661356139398 ] } },
{ "type": "Feature", "properties": { "lulc": "rubble", "class_id": 15 }, "geometry": { "type": "Point", "coordinates": [ 179.167268882749369, -8.433591663147944 ] } },
{ "type": "Feature", "properties": { "lulc": "rubble", "class_id": 15 }, "geometry": { "type": "Point", "coordinates": [ 179.167588836937398, -8.433661356139398 ] } },
{ "type": "Feature", "properties": { "lulc": "rubble", "class_id": 15 }, "geometry": { "type": "Point", "coordinates": [ 179.167585669074157, -8.433784902806064 ] } },
{ "type": "Feature", "properties": { "lulc": "rubble", "class_id": 15 }, "geometry": { "type": "Point", "coordinates": [ 179.165624761723734, -8.433540977335978 ] } },
{ "type": "Feature", "properties": { "lulc": "rubble", "class_id": 15 }, "geometry": { "type": "Point", "coordinates": [ 179.165703958304931, -8.433737384857347 ] } },
{ "type": "Feature", "properties": { "lulc": "rubble", "class_id": 15 }, "geometry": { "type": "Point", "coordinates": [ 179.165469536424581, -8.434120696310339 ] } },
{ "type": "Feature", "properties": { "lulc": "rubble", "class_id": 15 }, "geometry": { "type": "Point", "coordinates": [ 179.165732469074158, -8.432958090498371 ] } },
{ "type": "Feature", "properties": { "lulc": "rubble", "class_id": 15 }, "geometry": { "type": "Point", "coordinates": [ 179.165830672834829, -8.433094308618029 ] } },
{ "type": "Feature", "properties": { "lulc": "rubble", "class_id": 15 }, "geometry": { "type": "Point", "coordinates": [ 179.165254121723734, -8.434491336310339 ] } },
{ "type": "Feature", "properties": { "lulc": "rubble", "class_id": 15 }, "geometry": { "type": "Point", "coordinates": [ 179.165504382920318, -8.434196725028288 ] } },
{ "type": "Feature", "properties": { "lulc": "rock", "class_id": 14 }, "geometry": { "type": "Point", "coordinates": [ 179.167582501210916, -8.434675072378715 ] } },
{ "type": "Feature", "properties": { "lulc": "rock", "class_id": 14 }, "geometry": { "type": "Point", "coordinates": [ 179.167588836937398, -8.43478594759239 ] } },
{ "type": "Feature", "properties": { "lulc": "rock", "class_id": 14 }, "geometry": { "type": "Point", "coordinates": [ 179.167515976082711, -8.434782779729144 ] } },
{ "type": "Feature", "properties": { "lulc": "rock", "class_id": 14 }, "geometry": { "type": "Point", "coordinates": [ 179.167664865655354, -8.434776444002647 ] } },
{ "type": "Feature", "properties": { "lulc": "rock", "class_id": 14 }, "geometry": { "type": "Point", "coordinates": [ 179.168570874544258, -8.434621218703501 ] } },
{ "type": "Feature", "properties": { "lulc": "rock", "class_id": 14 }, "geometry": { "type": "Point", "coordinates": [ 179.168466335057076, -8.434719422464186 ] } },
{ "type": "Feature", "properties": { "lulc": "rock", "class_id": 14 }, "geometry": { "type": "Point", "coordinates": [ 179.167259379159617, -8.435083726737691 ] } },
{ "type": "Feature", "properties": { "lulc": "rock", "class_id": 14 }, "geometry": { "type": "Point", "coordinates": [ 179.167281554202361, -8.435150251865897 ] } },
{ "type": "Feature", "properties": { "lulc": "rock", "class_id": 14 }, "geometry": { "type": "Point", "coordinates": [ 179.167430443775004, -8.434808122635127 ] } },
{ "type": "Feature", "properties": { "lulc": "rock", "class_id": 14 }, "geometry": { "type": "Point", "coordinates": [ 179.167712383604083, -8.434538854259058 ] } },
{ "type": "Feature", "properties": { "lulc": "rock", "class_id": 14 }, "geometry": { "type": "Point", "coordinates": [ 179.167680704971588, -8.434627554429998 ] } },
{ "type": "Feature", "properties": { "lulc": "rock", "class_id": 14 }, "geometry": { "type": "Point", "coordinates": [ 179.167664865655354, -8.434713086737691 ] } },
{ "type": "Feature", "properties": { "lulc": "rock", "class_id": 14 }, "geometry": { "type": "Point", "coordinates": [ 179.167924630441689, -8.435935881951369 ] } },
{ "type": "Feature", "properties": { "lulc": "rock", "class_id": 14 }, "geometry": { "type": "Point", "coordinates": [ 179.167991155569894, -8.43606893220778 ] } },
{ "type": "Feature", "properties": { "lulc": "rock", "class_id": 14 }, "geometry": { "type": "Point", "coordinates": [ 179.168222409586974, -8.436344536310344 ] } },
{ "type": "Feature", "properties": { "lulc": "rock", "class_id": 14 }, "geometry": { "type": "Point", "coordinates": [ 179.168317445484405, -8.436404725712054 ] } },
{ "type": "Feature", "properties": { "lulc": "rock", "class_id": 14 }, "geometry": { "type": "Point", "coordinates": [ 179.168463167193806, -8.436493425882993 ] } },
{ "type": "Feature", "properties": { "lulc": "rock", "class_id": 14 }, "geometry": { "type": "Point", "coordinates": [ 179.168548699501514, -8.436610636823165 ] } },
{ "type": "Feature", "properties": { "lulc": "rock", "class_id": 14 }, "geometry": { "type": "Point", "coordinates": [ 179.168716596253631, -8.436724679900088 ] } },
{ "type": "Feature", "properties": { "lulc": "rock", "class_id": 14 }, "geometry": { "type": "Point", "coordinates": [ 179.168862317963033, -8.436889408788977 ] } },
{ "type": "Feature", "properties": { "lulc": "rock", "class_id": 14 }, "geometry": { "type": "Point", "coordinates": [ 179.169046054031412, -8.436984444686413 ] } },
{ "type": "Feature", "properties": { "lulc": "rock", "class_id": 14 }, "geometry": { "type": "Point", "coordinates": [ 179.169261468732287, -8.437012955455645 ] } },
{ "type": "Feature", "properties": { "lulc": "rock", "class_id": 14 }, "geometry": { "type": "Point", "coordinates": [ 179.169416694031412, -8.437044634088123 ] } },
{ "type": "Feature", "properties": { "lulc": "rock", "class_id": 14 }, "geometry": { "type": "Point", "coordinates": [ 179.169514897792112, -8.437038298361628 ] } },
{ "type": "Feature", "properties": { "lulc": "rock", "class_id": 14 }, "geometry": { "type": "Point", "coordinates": [ 179.169575087193806, -8.437136502122311 ] } },
{ "type": "Feature", "properties": { "lulc": "rock", "class_id": 14 }, "geometry": { "type": "Point", "coordinates": [ 179.169489554886127, -8.437114327079577 ] } },
{ "type": "Feature", "properties": { "lulc": "rock", "class_id": 14 }, "geometry": { "type": "Point", "coordinates": [ 179.171323747706651, -8.437209362977013 ] } },
{ "type": "Feature", "properties": { "lulc": "rock", "class_id": 14 }, "geometry": { "type": "Point", "coordinates": [ 179.171250886851936, -8.436946430327438 ] } },
{ "type": "Feature", "properties": { "lulc": "rock", "class_id": 14 }, "geometry": { "type": "Point", "coordinates": [ 179.171111500869017, -8.437012955455645 ] } },
{ "type": "Feature", "properties": { "lulc": "rock", "class_id": 14 }, "geometry": { "type": "Point", "coordinates": [ 179.171235047535703, -8.437076312720603 ] } },
{ "type": "Feature", "properties": { "lulc": "rock", "class_id": 14 }, "geometry": { "type": "Point", "coordinates": [ 179.171108333005776, -8.437107991353081 ] } },
{ "type": "Feature", "properties": { "lulc": "rock", "class_id": 14 }, "geometry": { "type": "Point", "coordinates": [ 179.171235047535703, -8.437155509301798 ] } },
{ "type": "Feature", "properties": { "lulc": "rock", "class_id": 14 }, "geometry": { "type": "Point", "coordinates": [ 179.171396608561338, -8.43718402007103 ] } },
{ "type": "Feature", "properties": { "lulc": "rock", "class_id": 14 }, "geometry": { "type": "Point", "coordinates": [ 179.171415615740813, -8.437285391694962 ] } },
{ "type": "Feature", "properties": { "lulc": "rock", "class_id": 14 }, "geometry": { "type": "Point", "coordinates": [ 179.171434622920316, -8.437386763318893 ] } },
{ "type": "Feature", "properties": { "lulc": "rock", "class_id": 14 }, "geometry": { "type": "Point", "coordinates": [ 179.171168522407498, -8.437044634088123 ] } }
]
}
