{
"type": "FeatureCollection",
"name": "fj_usfs_points_sample_v3",
"crs": { "type": "name", "properties": { "name": "urn:ogc:def:crs:OGC:1.3:CRS84" } },
"features": [
{ "type": "Feature", "properties": { "fid": 566, "ClassId": 4, "Class": "Mangroves" }, "geometry": { "type": "Point", "coordinates": [ 179.450109700000013, -16.2964715 ] } },
{ "type": "Feature", "properties": { "fid": 1182, "ClassId": 6, "Class": "Water" }, "geometry": { "type": "Point", "coordinates": [ 178.0317633, -17.74231272 ] } },
{ "type": "Feature", "properties": { "fid": 1293, "ClassId": 4, "Class": "Mangroves" }, "geometry": { "type": "Point", "coordinates": [ 177.6164694, -17.47065983 ] } },
{ "type": "Feature", "properties": { "fid": 1321, "ClassId": 2, "Class": "Forest" }, "geometry": { "type": "Point", "coordinates": [ 178.9515465, -16.63926935 ] } },
{ "type": "Feature", "properties": { "fid": 1805, "ClassId": 4, "Class": "Mangroves" }, "geometry": { "type": "Point", "coordinates": [ 178.6378532, -16.66298285 ] } },
{ "type": "Feature", "properties": { "fid": 2019, "ClassId": 6, "Class": "Water" }, "geometry": { "type": "Point", "coordinates": [ 178.0250256, -17.73584257 ] } },
{ "type": "Feature", "properties": { "fid": 2074, "ClassId": 6, "Class": "Water" }, "geometry": { "type": "Point", "coordinates": [ 178.0395756, -17.74284781 ] } },
{ "type": "Feature", "properties": { "fid": 2911, "ClassId": 4, "Class": "Mangroves" }, "geometry": { "type": "Point", "coordinates": [ 178.699839200000014, -17.00228031 ] } },
{ "type": "Feature", "properties": { "fid": 2924, "ClassId": 6, "Class": "Water" }, "geometry": { "type": "Point", "coordinates": [ 178.0390361, -17.74096161 ] } },
{ "type": "Feature", "properties": { "fid": 2957, "ClassId": 3, "Class": "Grassland" }, "geometry": { "type": "Point", "coordinates": [ 177.9943024, -17.52455698 ] } },
{ "type": "Feature", "properties": { "fid": 3006, "ClassId": 3, "Class": "Grassland" }, "geometry": { "type": "Point", "coordinates": [ 177.79137320000001, -17.6595741 ] } },
{ "type": "Feature", "properties": { "fid": 4008, "ClassId": 4, "Class": "Mangroves" }, "geometry": { "type": "Point", "coordinates": [ 177.8980928, -17.41999552 ] } },
{ "type": "Feature", "properties": { "fid": 4148, "ClassId": 6, "Class": "Water" }, "geometry": { "type": "Point", "coordinates": [ 177.662554199999988, -17.74231272 ] } },
{ "type": "Feature", "properties": { "fid": 4314, "ClassId": 6, "Class": "Water" }, "geometry": { "type": "Point", "coordinates": [ 178.547841799999986, -18.04414481 ] } },
{ "type": "Feature", "properties": { "fid": 4511, "ClassId": 4, "Class": "Mangroves" }, "geometry": { "type": "Point", "coordinates": [ 178.41417580000001, -17.55393354 ] } },
{ "type": "Feature", "properties": { "fid": 5438, "ClassId": 2, "Class": "Forest" }, "geometry": { "type": "Point", "coordinates": [ 178.0595212, -17.81696253 ] } },
{ "type": "Feature", "properties": { "fid": 5610, "ClassId": 4, "Class": "Mangroves" }, "geometry": { "type": "Point", "coordinates": [ 179.5018531, -16.67268586 ] } },
{ "type": "Feature", "properties": { "fid": 5680, "ClassId": 2, "Class": "Forest" }, "geometry": { "type": "Point", "coordinates": [ 178.265411300000011, -18.08403147 ] } },
{ "type": "Feature", "properties": { "fid": 5749, "ClassId": 4, "Class": "Mangroves" }, "geometry": { "type": "Point", "coordinates": [ 181.037136299999986, -17.22569019 ] } },
{ "type": "Feature", "properties": { "fid": 5862, "ClassId": 4, "Class": "Mangroves" }, "geometry": { "type": "Point", "coordinates": [ 178.6758537, -18.01665446 ] } },
{ "type": "Feature", "properties": { "fid": 6131, "ClassId": 1, "Class": "Cropland" }, "geometry": { "type": "Point", "coordinates": [ 178.239272, -18.02339216 ] } },
{ "type": "Feature", "properties": { "fid": 6144, "ClassId": 2, "Class": "Forest" }, "geometry": { "type": "Point", "coordinates": [ 178.8774363, -16.84731763 ] } },
{ "type": "Feature", "properties": { "fid": 6145, "ClassId": 2, "Class": "Forest" }, "geometry": { "type": "Point", "coordinates": [ 177.8829988, -18.18374143 ] } },
{ "type": "Feature", "properties": { "fid": 6148, "ClassId": 2, "Class": "Forest" }, "geometry": { "type": "Point", "coordinates": [ 179.6942722, -16.38702247 ] } },
{ "type": "Feature", "properties": { "fid": 6638, "ClassId": 4, "Class": "Mangroves" }, "geometry": { "type": "Point", "coordinates": [ 177.43106, -17.73476346 ] } },
{ "type": "Feature", "properties": { "fid": 6650, "ClassId": 4, "Class": "Mangroves" }, "geometry": { "type": "Point", "coordinates": [ 181.0365967, -17.22407154 ] } },
{ "type": "Feature", "properties": { "fid": 6651, "ClassId": 4, "Class": "Mangroves" }, "geometry": { "type": "Point", "coordinates": [ 179.470862399999987, -16.80662388 ] } },
{ "type": "Feature", "properties": { "fid": 6717, "ClassId": 4, "Class": "Mangroves" }, "geometry": { "type": "Point", "coordinates": [ 178.8038611, -16.59345655 ] } },
{ "type": "Feature", "properties": { "fid": 6718, "ClassId": 4, "Class": "Mangroves" }, "geometry": { "type": "Point", "coordinates": [ 179.4759814, -16.2926991 ] } },
{ "type": "Feature", "properties": { "fid": 6923, "ClassId": 4, "Class": "Mangroves" }, "geometry": { "type": "Point", "coordinates": [ 178.48046930000001, -16.76781632 ] } },
{ "type": "Feature", "properties": { "fid": 7156, "ClassId": 6, "Class": "Water" }, "geometry": { "type": "Point", "coordinates": [ 178.564822099999986, -18.05708067 ] } },
{ "type": "Feature", "properties": { "fid": 7239, "ClassId": 6, "Class": "Water" }, "geometry": { "type": "Point", "coordinates": [ 178.0228674, -17.73449592 ] } },
{ "type": "Feature", "properties": { "fid": 7297, "ClassId": 1, "Class": "Cropland" }, "geometry": { "type": "Point", "coordinates": [ 179.5797402, -16.32746225 ] } },
{ "type": "Feature", "properties": { "fid": 7301, "ClassId": 2, "Class": "Forest" }, "geometry": { "type": "Point", "coordinates": [ 179.6859203, -16.69181986 ] } },
{ "type": "Feature", "properties": { "fid": 7378, "ClassId": 2, "Class": "Forest" }, "geometry": { "type": "Point", "coordinates": [ 178.201271600000013, -18.06004597 ] } },
{ "type": "Feature", "properties": { "fid": 7740, "ClassId": 4, "Class": "Mangroves" }, "geometry": { "type": "Point", "coordinates": [ 178.3079912, -18.94695225 ] } },
{ "type": "Feature", "properties": { "fid": 7765, "ClassId": 1, "Class": "Cropland" }, "geometry": { "type": "Point", "coordinates": [ 179.15205, -16.47865253 ] } },
{ "type": "Feature", "properties": { "fid": 7782, "ClassId": 2, "Class": "Forest" }, "geometry": { "type": "Point", "coordinates": [ 179.7177182, -16.2525449 ] } },
{ "type": "Feature", "properties": { "fid": 7785, "ClassId": 2, "Class": "Forest" }, "geometry": { "type": "Point", "coordinates": [ 179.2296651, -16.63630405 ] } },
{ "type": "Feature", "properties": { "fid": 7788, "ClassId": 2, "Class": "Forest" }, "geometry": { "type": "Point", "coordinates": [ 178.775835699999988, -16.81147538 ] } },
{ "type": "Feature", "properties": { "fid": 7791, "ClassId": 2, "Class": "Forest" }, "geometry": { "type": "Point", "coordinates": [ 179.799105700000013, -16.6416951 ] } },
{ "type": "Feature", "properties": { "fid": 7803, "ClassId": 3, "Class": "Grassland" }, "geometry": { "type": "Point", "coordinates": [ 177.7404369, -17.64771735 ] } },
{ "type": "Feature", "properties": { "fid": 8203, "ClassId": 2, "Class": "Forest" }, "geometry": { "type": "Point", "coordinates": [ 178.7879644, -16.75030097 ] } },
{ "type": "Feature", "properties": { "fid": 8263, "ClassId": 2, "Class": "Forest" }, "geometry": { "type": "Point", "coordinates": [ 177.9579206, -17.85415144 ] } },
{ "type": "Feature", "properties": { "fid": 9089, "ClassId": 4, "Class": "Mangroves" }, "geometry": { "type": "Point", "coordinates": [ 177.8355673, -17.42754032 ] } },
{ "type": "Feature", "properties": { "fid": 9101, "ClassId": 4, "Class": "Mangroves" }, "geometry": { "type": "Point", "coordinates": [ 177.9509109, -18.26216364 ] } },
{ "type": "Feature", "properties": { "fid": 9135, "ClassId": 2, "Class": "Forest" }, "geometry": { "type": "Point", "coordinates": [ 178.4661868, -17.70457981 ] } },
{ "type": "Feature", "properties": { "fid": 9178, "ClassId": 6, "Class": "Water" }, "geometry": { "type": "Point", "coordinates": [ 178.563743, -18.05627357 ] } },
{ "type": "Feature", "properties": { "fid": 9732, "ClassId": 2, "Class": "Forest" }, "geometry": { "type": "Point", "coordinates": [ 178.2503217, -17.75470902 ] } },
{ "type": "Feature", "properties": { "fid": 10061, "ClassId": 2, "Class": "Forest" }, "geometry": { "type": "Point", "coordinates": [ 179.4032178, -17.34157331 ] } },
{ "type": "Feature", "properties": { "fid": 10064, "ClassId": 2, "Class": "Forest" }, "geometry": { "type": "Point", "coordinates": [ 180.4676912, -17.25290855 ] } },
{ "type": "Feature", "properties": { "fid": 10069, "ClassId": 3, "Class": "Grassland" }, "geometry": { "type": "Point", "coordinates": [ 179.0049041, -16.90687784 ] } },
{ "type": "Feature", "properties": { "fid": 10458, "ClassId": 4, "Class": "Mangroves" }, "geometry": { "type": "Point", "coordinates": [ 179.024038100000013, -16.87292179 ] } },
{ "type": "Feature", "properties": { "fid": 10575, "ClassId": 2, "Class": "Forest" }, "geometry": { "type": "Point", "coordinates": [ 178.301258, -17.77896207 ] } },
{ "type": "Feature", "properties": { "fid": 10635, "ClassId": 2, "Class": "Forest" }, "geometry": { "type": "Point", "coordinates": [ 177.8962066, -18.26917335 ] } },
{ "type": "Feature", "properties": { "fid": 10651, "ClassId": 2, "Class": "Forest" }, "geometry": { "type": "Point", "coordinates": [ 178.775028600000013, -16.72604792 ] } },
{ "type": "Feature", "properties": { "fid": 10661, "ClassId": 3, "Class": "Grassland" }, "geometry": { "type": "Point", "coordinates": [ 178.0570955, -17.38981187 ] } },
{ "type": "Feature", "properties": { "fid": 10665, "ClassId": 3, "Class": "Grassland" }, "geometry": { "type": "Point", "coordinates": [ 177.116559599999988, -17.29494895 ] } },
{ "type": "Feature", "properties": { "fid": 11478, "ClassId": 4, "Class": "Mangroves" }, "geometry": { "type": "Point", "coordinates": [ 177.6552769, -17.45961017 ] } },
{ "type": "Feature", "properties": { "fid": 11538, "ClassId": 2, "Class": "Forest" }, "geometry": { "type": "Point", "coordinates": [ 177.857127100000014, -18.07405646 ] } },
{ "type": "Feature", "properties": { "fid": 11580, "ClassId": 2, "Class": "Forest" }, "geometry": { "type": "Point", "coordinates": [ 178.287243, -17.58384965 ] } },
{ "type": "Feature", "properties": { "fid": 12074, "ClassId": 4, "Class": "Mangroves" }, "geometry": { "type": "Point", "coordinates": [ 179.606686599999989, -16.18975184 ] } },
{ "type": "Feature", "properties": { "fid": 12099, "ClassId": 2, "Class": "Forest" }, "geometry": { "type": "Point", "coordinates": [ 179.0782073, -16.66217576 ] } },
{ "type": "Feature", "properties": { "fid": 12183, "ClassId": 2, "Class": "Forest" }, "geometry": { "type": "Point", "coordinates": [ 178.26514370000001, -18.07190272 ] } },
{ "type": "Feature", "properties": { "fid": 12188, "ClassId": 2, "Class": "Forest" }, "geometry": { "type": "Point", "coordinates": [ 179.104079, -16.72308262 ] } },
{ "type": "Feature", "properties": { "fid": 12205, "ClassId": 3, "Class": "Grassland" }, "geometry": { "type": "Point", "coordinates": [ 180.0313816, -16.13854798 ] } },
{ "type": "Feature", "properties": { "fid": 12379, "ClassId": 2, "Class": "Forest" }, "geometry": { "type": "Point", "coordinates": [ 179.254190200000011, -16.56300089 ] } },
{ "type": "Feature", "properties": { "fid": 12435, "ClassId": 2, "Class": "Forest" }, "geometry": { "type": "Point", "coordinates": [ 177.804848600000014, -17.79378413 ] } },
{ "type": "Feature", "properties": { "fid": 12449, "ClassId": 2, "Class": "Forest" }, "geometry": { "type": "Point", "coordinates": [ 178.2524754, -18.08429902 ] } },
{ "type": "Feature", "properties": { "fid": 12464, "ClassId": 2, "Class": "Forest" }, "geometry": { "type": "Point", "coordinates": [ 178.5319451, -17.93580649 ] } },
{ "type": "Feature", "properties": { "fid": 13392, "ClassId": 6, "Class": "Water" }, "geometry": { "type": "Point", "coordinates": [ 178.5491929, -18.04522392 ] } },
{ "type": "Feature", "properties": { "fid": 13498, "ClassId": 4, "Class": "Mangroves" }, "geometry": { "type": "Point", "coordinates": [ 178.6068625, -17.77842252 ] } },
{ "type": "Feature", "properties": { "fid": 13515, "ClassId": 4, "Class": "Mangroves" }, "geometry": { "type": "Point", "coordinates": [ 178.5747926, -18.13307713 ] } },
{ "type": "Feature", "properties": { "fid": 13521, "ClassId": 4, "Class": "Mangroves" }, "geometry": { "type": "Point", "coordinates": [ 178.8027865, -16.5993827 ] } },
{ "type": "Feature", "properties": { "fid": 13754, "ClassId": 2, "Class": "Forest" }, "geometry": { "type": "Point", "coordinates": [ 178.8628818, -16.65220521 ] } },
{ "type": "Feature", "properties": { "fid": 13784, "ClassId": 2, "Class": "Forest" }, "geometry": { "type": "Point", "coordinates": [ 179.9063649, -16.21346979 ] } },
{ "type": "Feature", "properties": { "fid": 13794, "ClassId": 2, "Class": "Forest" }, "geometry": { "type": "Point", "coordinates": [ 179.4069902, -16.64654661 ] } },
{ "type": "Feature", "properties": { "fid": 13798, "ClassId": 2, "Class": "Forest" }, "geometry": { "type": "Point", "coordinates": [ 179.079554, -16.78425702 ] } },
{ "type": "Feature", "properties": { "fid": 13817, "ClassId": 2, "Class": "Forest" }, "geometry": { "type": "Point", "coordinates": [ 179.041558, -16.78452903 ] } },
{ "type": "Feature", "properties": { "fid": 13854, "ClassId": 3, "Class": "Grassland" }, "geometry": { "type": "Point", "coordinates": [ 177.574968500000011, -17.59921125 ] } },
{ "type": "Feature", "properties": { "fid": 14394, "ClassId": 4, "Class": "Mangroves" }, "geometry": { "type": "Point", "coordinates": [ 177.4819918, -17.5881616 ] } },
{ "type": "Feature", "properties": { "fid": 14441, "ClassId": 4, "Class": "Mangroves" }, "geometry": { "type": "Point", "coordinates": [ 177.925039199999986, -18.2686338 ] } },
{ "type": "Feature", "properties": { "fid": 14811, "ClassId": 4, "Class": "Mangroves" }, "geometry": { "type": "Point", "coordinates": [ 179.887502899999987, -18.61520405 ] } },
{ "type": "Feature", "properties": { "fid": 14814, "ClassId": 4, "Class": "Mangroves" }, "geometry": { "type": "Point", "coordinates": [ 179.605879499999986, -16.19594999 ] } },
{ "type": "Feature", "properties": { "fid": 14948, "ClassId": 1, "Class": "Cropland" }, "geometry": { "type": "Point", "coordinates": [ 179.4425649, -16.45089463 ] } },
{ "type": "Feature", "properties": { "fid": 14958, "ClassId": 1, "Class": "Cropland" }, "geometry": { "type": "Point", "coordinates": [ 178.49125140000001, -17.6310091 ] } },
{ "type": "Feature", "properties": { "fid": 14997, "ClassId": 2, "Class": "Forest" }, "geometry": { "type": "Point", "coordinates": [ 178.061942499999986, -18.21958369 ] } },
{ "type": "Feature", "properties": { "fid": 15006, "ClassId": 2, "Class": "Forest" }, "geometry": { "type": "Point", "coordinates": [ 178.454058, -17.77788297 ] } },
{ "type": "Feature", "properties": { "fid": 15043, "ClassId": 2, "Class": "Forest" }, "geometry": { "type": "Point", "coordinates": [ 177.448842899999988, -18.11205692 ] } },
{ "type": "Feature", "properties": { "fid": 15107, "ClassId": 2, "Class": "Forest" }, "geometry": { "type": "Point", "coordinates": [ 178.6233032, -16.73952332 ] } },
{ "type": "Feature", "properties": { "fid": 15196, "ClassId": 2, "Class": "Forest" }, "geometry": { "type": "Point", "coordinates": [ 177.6021869, -18.12391367 ] } },
{ "type": "Feature", "properties": { "fid": 15207, "ClassId": 2, "Class": "Forest" }, "geometry": { "type": "Point", "coordinates": [ 177.9460638, -18.01261451 ] } },
{ "type": "Feature", "properties": { "fid": 15252, "ClassId": 2, "Class": "Forest" }, "geometry": { "type": "Point", "coordinates": [ 178.7119635, -16.75110807 ] } },
{ "type": "Feature", "properties": { "fid": 15259, "ClassId": 2, "Class": "Forest" }, "geometry": { "type": "Point", "coordinates": [ 178.186182, -17.68194541 ] } },
{ "type": "Feature", "properties": { "fid": 15272, "ClassId": 2, "Class": "Forest" }, "geometry": { "type": "Point", "coordinates": [ 177.6900401, -17.74527357 ] } },
{ "type": "Feature", "properties": { "fid": 15280, "ClassId": 2, "Class": "Forest" }, "geometry": { "type": "Point", "coordinates": [ 179.8618988, -16.62849171 ] } },
{ "type": "Feature", "properties": { "fid": 15292, "ClassId": 3, "Class": "Grassland" }, "geometry": { "type": "Point", "coordinates": [ 178.6990276, -16.71445872 ] } },
{ "type": "Feature", "properties": { "fid": 15339, "ClassId": 3, "Class": "Grassland" }, "geometry": { "type": "Point", "coordinates": [ 178.8022469, -16.90876404 ] } },
{ "type": "Feature", "properties": { "fid": 15345, "ClassId": 3, "Class": "Grassland" }, "geometry": { "type": "Point", "coordinates": [ 180.128937799999989, -16.72227552 ] } },
{ "type": "Feature", "properties": { "fid": 15359, "ClassId": 3, "Class": "Grassland" }, "geometry": { "type": "Point", "coordinates": [ 179.7045148, -16.21616309 ] } },
{ "type": "Feature", "properties": { "fid": 15416, "ClassId": 6, "Class": "Water" }, "geometry": { "type": "Point", "coordinates": [ 178.548920900000013, -18.04495191 ] } },
{ "type": "Feature", "properties": { "fid": 15647, "ClassId": 6, "Class": "Water" }, "geometry": { "type": "Point", "coordinates": [ 178.566708299999988, -18.06031351 ] } },
{ "type": "Feature", "properties": { "fid": 17280, "ClassId": 4, "Class": "Mangroves" }, "geometry": { "type": "Point", "coordinates": [ 178.562396299999989, -18.14116148 ] } },
{ "type": "Feature", "properties": { "fid": 17317, "ClassId": 4, "Class": "Mangroves" }, "geometry": { "type": "Point", "coordinates": [ 178.5133462, -18.11582932 ] } },
{ "type": "Feature", "properties": { "fid": 17387, "ClassId": 4, "Class": "Mangroves" }, "geometry": { "type": "Point", "coordinates": [ 178.5866494, -18.14385923 ] } },
{ "type": "Feature", "properties": { "fid": 17399, "ClassId": 7, "Class": "Bare_Other" }, "geometry": { "type": "Point", "coordinates": [ 177.273132, -17.08662867 ] } },
{ "type": "Feature", "properties": { "fid": 17467, "ClassId": 2, "Class": "Forest" }, "geometry": { "type": "Point", "coordinates": [ 177.6261724, -17.68463871 ] } },
{ "type": "Feature", "properties": { "fid": 17730, "ClassId": 4, "Class": "Mangroves" }, "geometry": { "type": "Point", "coordinates": [ 178.306105, -18.95449705 ] } },
{ "type": "Feature", "properties": { "fid": 17735, "ClassId": 4, "Class": "Mangroves" }, "geometry": { "type": "Point", "coordinates": [ 177.4671698, -17.58735004 ] } },
{ "type": "Feature", "properties": { "fid": 17748, "ClassId": 4, "Class": "Mangroves" }, "geometry": { "type": "Point", "coordinates": [ 179.7303865, -16.20080149 ] } },
{ "type": "Feature", "properties": { "fid": 17756, "ClassId": 1, "Class": "Cropland" }, "geometry": { "type": "Point", "coordinates": [ 177.8541662, -17.48844718 ] } },
{ "type": "Feature", "properties": { "fid": 18243, "ClassId": 2, "Class": "Forest" }, "geometry": { "type": "Point", "coordinates": [ 177.98217360000001, -17.6099889 ] } },
{ "type": "Feature", "properties": { "fid": 18301, "ClassId": 2, "Class": "Forest" }, "geometry": { "type": "Point", "coordinates": [ 177.9972677, -18.06139262 ] } },
{ "type": "Feature", "properties": { "fid": 18331, "ClassId": 3, "Class": "Grassland" }, "geometry": { "type": "Point", "coordinates": [ 177.9048305, -17.45179783 ] } },
{ "type": "Feature", "properties": { "fid": 18945, "ClassId": 1, "Class": "Cropland" }, "geometry": { "type": "Point", "coordinates": [ 177.727233500000011, -17.52563608 ] } },
{ "type": "Feature", "properties": { "fid": 18946, "ClassId": 1, "Class": "Cropland" }, "geometry": { "type": "Point", "coordinates": [ 177.867102100000011, -17.50057594 ] } },
{ "type": "Feature", "properties": { "fid": 18958, "ClassId": 1, "Class": "Cropland" }, "geometry": { "type": "Point", "coordinates": [ 178.2220242, -17.35235096 ] } },
{ "type": "Feature", "properties": { "fid": 18966, "ClassId": 1, "Class": "Cropland" }, "geometry": { "type": "Point", "coordinates": [ 179.2779037, -16.42852332 ] } },
{ "type": "Feature", "properties": { "fid": 18982, "ClassId": 1, "Class": "Cropland" }, "geometry": { "type": "Point", "coordinates": [ 177.8921622, -17.46392213 ] } },
{ "type": "Feature", "properties": { "fid": 19025, "ClassId": 2, "Class": "Forest" }, "geometry": { "type": "Point", "coordinates": [ 178.9394178, -16.70017622 ] } },
{ "type": "Feature", "properties": { "fid": 19027, "ClassId": 2, "Class": "Forest" }, "geometry": { "type": "Point", "coordinates": [ 178.0603283, -17.92664304 ] } },
{ "type": "Feature", "properties": { "fid": 19066, "ClassId": 2, "Class": "Forest" }, "geometry": { "type": "Point", "coordinates": [ 177.7679272, -18.12337412 ] } },
{ "type": "Feature", "properties": { "fid": 19081, "ClassId": 2, "Class": "Forest" }, "geometry": { "type": "Point", "coordinates": [ 178.427111700000012, -17.5948993 ] } },
{ "type": "Feature", "properties": { "fid": 19143, "ClassId": 2, "Class": "Forest" }, "geometry": { "type": "Point", "coordinates": [ 178.348957, -18.98629936 ] } },
{ "type": "Feature", "properties": { "fid": 19151, "ClassId": 2, "Class": "Forest" }, "geometry": { "type": "Point", "coordinates": [ 178.3643186, -17.68086631 ] } },
{ "type": "Feature", "properties": { "fid": 19177, "ClassId": 2, "Class": "Forest" }, "geometry": { "type": "Point", "coordinates": [ 178.623031200000014, -16.70286951 ] } },
{ "type": "Feature", "properties": { "fid": 19184, "ClassId": 2, "Class": "Forest" }, "geometry": { "type": "Point", "coordinates": [ 179.6169291, -16.2660203 ] } },
{ "type": "Feature", "properties": { "fid": 19221, "ClassId": 2, "Class": "Forest" }, "geometry": { "type": "Point", "coordinates": [ 179.7193369, -16.36222986 ] } },
{ "type": "Feature", "properties": { "fid": 19236, "ClassId": 2, "Class": "Forest" }, "geometry": { "type": "Point", "coordinates": [ 178.214479399999988, -18.09669532 ] } },
{ "type": "Feature", "properties": { "fid": 19255, "ClassId": 2, "Class": "Forest" }, "geometry": { "type": "Point", "coordinates": [ 178.4047404, -17.9732674 ] } },
{ "type": "Feature", "properties": { "fid": 19283, "ClassId": 2, "Class": "Forest" }, "geometry": { "type": "Point", "coordinates": [ 177.930969800000014, -17.57360709 ] } },
{ "type": "Feature", "properties": { "fid": 19286, "ClassId": 2, "Class": "Forest" }, "geometry": { "type": "Point", "coordinates": [ 179.756797799999987, -16.33743726 ] } },
{ "type": "Feature", "properties": { "fid": 19300, "ClassId": 2, "Class": "Forest" }, "geometry": { "type": "Point", "coordinates": [ 177.880845, -17.73233771 ] } },
{ "type": "Feature", "properties": { "fid": 19319, "ClassId": 2, "Class": "Forest" }, "geometry": { "type": "Point", "coordinates": [ 178.061675, -18.18293433 ] } },
{ "type": "Feature", "properties": { "fid": 19340, "ClassId": 2, "Class": "Forest" }, "geometry": { "type": "Point", "coordinates": [ 178.147914, -17.6700842 ] } },
{ "type": "Feature", "properties": { "fid": 19375, "ClassId": 2, "Class": "Forest" }, "geometry": { "type": "Point", "coordinates": [ 178.851025, -16.73763712 ] } },
{ "type": "Feature", "properties": { "fid": 19377, "ClassId": 2, "Class": "Forest" }, "geometry": { "type": "Point", "coordinates": [ 178.2093559, -17.35235096 ] } },
{ "type": "Feature", "properties": { "fid": 19390, "ClassId": 2, "Class": "Forest" }, "geometry": { "type": "Point", "coordinates": [ 179.692386, -16.25281244 ] } },
{ "type": "Feature", "properties": { "fid": 19396, "ClassId": 3, "Class": "Grassland" }, "geometry": { "type": "Point", "coordinates": [ 177.791101200000014, -17.57414664 ] } },
{ "type": "Feature", "properties": { "fid": 19436, "ClassId": 3, "Class": "Grassland" }, "geometry": { "type": "Point", "coordinates": [ 177.8816521, -17.87894404 ] } },
{ "type": "Feature", "properties": { "fid": 19480, "ClassId": 3, "Class": "Grassland" }, "geometry": { "type": "Point", "coordinates": [ 178.6491749, -16.81255448 ] } },
{ "type": "Feature", "properties": { "fid": 19493, "ClassId": 3, "Class": "Grassland" }, "geometry": { "type": "Point", "coordinates": [ 177.85443380000001, -17.53722529 ] } },
{ "type": "Feature", "properties": { "fid": 19496, "ClassId": 3, "Class": "Grassland" }, "geometry": { "type": "Point", "coordinates": [ 179.1404608, -16.56407999 ] } },
{ "type": "Feature", "properties": { "fid": 21482, "ClassId": 4, "Class": "Mangroves" }, "geometry": { "type": "Point", "coordinates": [ 179.746555199999989, -16.20484589 ] } },
{ "type": "Feature", "properties": { "fid": 21492, "ClassId": 4, "Class": "Mangroves" }, "geometry": { "type": "Point", "coordinates": [ 178.62195650000001, -17.940658 ] } },
{ "type": "Feature", "properties": { "fid": 21537, "ClassId": 4, "Class": "Mangroves" }, "geometry": { "type": "Point", "coordinates": [ 177.5426267, -18.16973094 ] } },
{ "type": "Feature", "properties": { "fid": 21540, "ClassId": 4, "Class": "Mangroves" }, "geometry": { "type": "Point", "coordinates": [ 178.4893652, -16.74059797 ] } },
{ "type": "Feature", "properties": { "fid": 21545, "ClassId": 4, "Class": "Mangroves" }, "geometry": { "type": "Point", "coordinates": [ 180.1426807, -16.73790467 ] } },
{ "type": "Feature", "properties": { "fid": 21553, "ClassId": 7, "Class": "Bare_Other" }, "geometry": { "type": "Point", "coordinates": [ 179.0035575, -17.59624595 ] } },
{ "type": "Feature", "properties": { "fid": 21618, "ClassId": 2, "Class": "Forest" }, "geometry": { "type": "Point", "coordinates": [ 178.481008800000012, -17.96060356 ] } },
{ "type": "Feature", "properties": { "fid": 21624, "ClassId": 2, "Class": "Forest" }, "geometry": { "type": "Point", "coordinates": [ 179.5430864, -16.41316172 ] } },
{ "type": "Feature", "properties": { "fid": 21634, "ClassId": 2, "Class": "Forest" }, "geometry": { "type": "Point", "coordinates": [ 177.89486, -17.98862901 ] } },
{ "type": "Feature", "properties": { "fid": 21637, "ClassId": 2, "Class": "Forest" }, "geometry": { "type": "Point", "coordinates": [ 177.8940484, -17.81776963 ] } },
{ "type": "Feature", "properties": { "fid": 21902, "ClassId": 3, "Class": "Grassland" }, "geometry": { "type": "Point", "coordinates": [ 177.5493644, -17.61160755 ] } },
{ "type": "Feature", "properties": { "fid": 21989, "ClassId": 1, "Class": "Cropland" }, "geometry": { "type": "Point", "coordinates": [ 179.5333834, -16.63280366 ] } },
{ "type": "Feature", "properties": { "fid": 21990, "ClassId": 1, "Class": "Cropland" }, "geometry": { "type": "Point", "coordinates": [ 177.4736399, -17.80698752 ] } },
{ "type": "Feature", "properties": { "fid": 21994, "ClassId": 1, "Class": "Cropland" }, "geometry": { "type": "Point", "coordinates": [ 179.453882099999987, -16.35333396 ] } },
{ "type": "Feature", "properties": { "fid": 21996, "ClassId": 1, "Class": "Cropland" }, "geometry": { "type": "Point", "coordinates": [ 179.3544397, -16.48862308 ] } },
{ "type": "Feature", "properties": { "fid": 22007, "ClassId": 1, "Class": "Cropland" }, "geometry": { "type": "Point", "coordinates": [ 179.0388647, -16.52850528 ] } },
{ "type": "Feature", "properties": { "fid": 22017, "ClassId": 2, "Class": "Forest" }, "geometry": { "type": "Point", "coordinates": [ 178.1756719, -18.01153541 ] } },
{ "type": "Feature", "properties": { "fid": 22023, "ClassId": 2, "Class": "Forest" }, "geometry": { "type": "Point", "coordinates": [ 178.3263181, -17.69326261 ] } },
{ "type": "Feature", "properties": { "fid": 22036, "ClassId": 2, "Class": "Forest" }, "geometry": { "type": "Point", "coordinates": [ 178.2772725, -17.9864708 ] } },
{ "type": "Feature", "properties": { "fid": 22055, "ClassId": 2, "Class": "Forest" }, "geometry": { "type": "Point", "coordinates": [ 178.3764429, -17.6196919 ] } },
{ "type": "Feature", "properties": { "fid": 22091, "ClassId": 2, "Class": "Forest" }, "geometry": { "type": "Point", "coordinates": [ 178.2398116, -18.07217026 ] } },
{ "type": "Feature", "properties": { "fid": 22129, "ClassId": 2, "Class": "Forest" }, "geometry": { "type": "Point", "coordinates": [ 178.762092700000011, -16.68966611 ] } },
{ "type": "Feature", "properties": { "fid": 22147, "ClassId": 2, "Class": "Forest" }, "geometry": { "type": "Point", "coordinates": [ 178.468340500000011, -17.9484748 ] } },
{ "type": "Feature", "properties": { "fid": 22152, "ClassId": 2, "Class": "Forest" }, "geometry": { "type": "Point", "coordinates": [ 179.581894, -16.48592533 ] } },
{ "type": "Feature", "properties": { "fid": 22154, "ClassId": 2, "Class": "Forest" }, "geometry": { "type": "Point", "coordinates": [ 178.5475743, -16.77671223 ] } },
{ "type": "Feature", "properties": { "fid": 22179, "ClassId": 2, "Class": "Forest" }, "geometry": { "type": "Point", "coordinates": [ 179.6856483, -16.67969556 ] } },
{ "type": "Feature", "properties": { "fid": 22189, "ClassId": 2, "Class": "Forest" }, "geometry": { "type": "Point", "coordinates": [ 177.6140436, -17.8921519 ] } },
{ "type": "Feature", "properties": { "fid": 22229, "ClassId": 2, "Class": "Forest" }, "geometry": { "type": "Point", "coordinates": [ 179.3299146, -16.54979749 ] } },
{ "type": "Feature", "properties": { "fid": 22235, "ClassId": 2, "Class": "Forest" }, "geometry": { "type": "Point", "coordinates": [ 177.499507200000011, -17.9657226 ] } },
{ "type": "Feature", "properties": { "fid": 22250, "ClassId": 2, "Class": "Forest" }, "geometry": { "type": "Point", "coordinates": [ 178.4276468, -17.64367741 ] } },
{ "type": "Feature", "properties": { "fid": 22284, "ClassId": 2, "Class": "Forest" }, "geometry": { "type": "Point", "coordinates": [ 178.2637971, -17.86466154 ] } },
{ "type": "Feature", "properties": { "fid": 22303, "ClassId": 3, "Class": "Grassland" }, "geometry": { "type": "Point", "coordinates": [ 177.9075238, -17.9398509 ] } },
{ "type": "Feature", "properties": { "fid": 22304, "ClassId": 3, "Class": "Grassland" }, "geometry": { "type": "Point", "coordinates": [ 178.0953635, -17.41406492 ] } },
{ "type": "Feature", "properties": { "fid": 22307, "ClassId": 3, "Class": "Grassland" }, "geometry": { "type": "Point", "coordinates": [ 177.9813665, -17.50003638 ] } },
{ "type": "Feature", "properties": { "fid": 22349, "ClassId": 3, "Class": "Grassland" }, "geometry": { "type": "Point", "coordinates": [ 177.7533727, -17.72075297 ] } },
{ "type": "Feature", "properties": { "fid": 22392, "ClassId": 3, "Class": "Grassland" }, "geometry": { "type": "Point", "coordinates": [ 177.8940484, -17.84229469 ] } },
{ "type": "Feature", "properties": { "fid": 22397, "ClassId": 3, "Class": "Grassland" }, "geometry": { "type": "Point", "coordinates": [ 178.1104531, -17.80456623 ] } },
{ "type": "Feature", "properties": { "fid": 22530, "ClassId": 6, "Class": "Water" }, "geometry": { "type": "Point", "coordinates": [ 178.563475399999987, -18.05600156 ] } },
{ "type": "Feature", "properties": { "fid": 23856, "ClassId": 6, "Class": "Water" }, "geometry": { "type": "Point", "coordinates": [ 178.554312, -18.05007542 ] } },
{ "type": "Feature", "properties": { "fid": 23963, "ClassId": 4, "Class": "Mangroves" }, "geometry": { "type": "Point", "coordinates": [ 178.5823374, -16.87804084 ] } },
{ "type": "Feature", "properties": { "fid": 23997, "ClassId": 4, "Class": "Mangroves" }, "geometry": { "type": "Point", "coordinates": [ 177.8363789, -18.24087589 ] } },
{ "type": "Feature", "properties": { "fid": 24028, "ClassId": 4, "Class": "Mangroves" }, "geometry": { "type": "Point", "coordinates": [ 178.5564657, -18.12607188 ] } },
{ "type": "Feature", "properties": { "fid": 24038, "ClassId": 4, "Class": "Mangroves" }, "geometry": { "type": "Point", "coordinates": [ 178.5664363, -16.68831947 ] } },
{ "type": "Feature", "properties": { "fid": 24080, "ClassId": 7, "Class": "Bare_Other" }, "geometry": { "type": "Point", "coordinates": [ 178.4979846, -16.82279704 ] } },
{ "type": "Feature", "properties": { "fid": 24095, "ClassId": 1, "Class": "Cropland" }, "geometry": { "type": "Point", "coordinates": [ 178.5842236, -18.09400202 ] } },
{ "type": "Feature", "properties": { "fid": 24127, "ClassId": 1, "Class": "Cropland" }, "geometry": { "type": "Point", "coordinates": [ 179.6452266, -16.48511823 ] } },
{ "type": "Feature", "properties": { "fid": 24203, "ClassId": 2, "Class": "Forest" }, "geometry": { "type": "Point", "coordinates": [ 179.10327190000001, -16.64977946 ] } },
{ "type": "Feature", "properties": { "fid": 24214, "ClassId": 2, "Class": "Forest" }, "geometry": { "type": "Point", "coordinates": [ 178.4047404, -17.96113865 ] } },
{ "type": "Feature", "properties": { "fid": 24224, "ClassId": 2, "Class": "Forest" }, "geometry": { "type": "Point", "coordinates": [ 179.8608197, -16.55545609 ] } },
{ "type": "Feature", "properties": { "fid": 24256, "ClassId": 2, "Class": "Forest" }, "geometry": { "type": "Point", "coordinates": [ 179.731193600000012, -16.32557605 ] } },
{ "type": "Feature", "properties": { "fid": 24257, "ClassId": 2, "Class": "Forest" }, "geometry": { "type": "Point", "coordinates": [ 178.0975172, -17.76791242 ] } },
{ "type": "Feature", "properties": { "fid": 24261, "ClassId": 2, "Class": "Forest" }, "geometry": { "type": "Point", "coordinates": [ 178.135785199999987, -17.76764488 ] } },
{ "type": "Feature", "properties": { "fid": 24312, "ClassId": 2, "Class": "Forest" }, "geometry": { "type": "Point", "coordinates": [ 178.8262324, -16.77455402 ] } },
{ "type": "Feature", "properties": { "fid": 24378, "ClassId": 3, "Class": "Grassland" }, "geometry": { "type": "Point", "coordinates": [ 178.9997851, -17.60217209 ] } },
{ "type": "Feature", "properties": { "fid": 24425, "ClassId": 3, "Class": "Grassland" }, "geometry": { "type": "Point", "coordinates": [ 177.512175500000012, -17.9654506 ] } },
{ "type": "Feature", "properties": { "fid": 24449, "ClassId": 3, "Class": "Grassland" }, "geometry": { "type": "Point", "coordinates": [ 179.6290534, -16.24149524 ] } },
{ "type": "Feature", "properties": { "fid": 24455, "ClassId": 3, "Class": "Grassland" }, "geometry": { "type": "Point", "coordinates": [ 177.5501759, -17.84336933 ] } },
{ "type": "Feature", "properties": { "fid": 25476, "ClassId": 4, "Class": "Mangroves" }, "geometry": { "type": "Point", "coordinates": [ 179.4487631, -16.2900058 ] } },
{ "type": "Feature", "properties": { "fid": 25481, "ClassId": 4, "Class": "Mangroves" }, "geometry": { "type": "Point", "coordinates": [ 178.285356799999988, -18.99115086 ] } },
{ "type": "Feature", "properties": { "fid": 25514, "ClassId": 7, "Class": "Bare_Other" }, "geometry": { "type": "Point", "coordinates": [ 180.2488653, -16.75218717 ] } },
{ "type": "Feature", "properties": { "fid": 25516, "ClassId": 7, "Class": "Bare_Other" }, "geometry": { "type": "Point", "coordinates": [ 178.1554588, -17.31785535 ] } },
{ "type": "Feature", "properties": { "fid": 25518, "ClassId": 7, "Class": "Bare_Other" }, "geometry": { "type": "Point", "coordinates": [ 179.4274753, -17.24320554 ] } },
{ "type": "Feature", "properties": { "fid": 25522, "ClassId": 7, "Class": "Bare_Other" }, "geometry": { "type": "Point", "coordinates": [ 179.404029400000013, -17.78138782 ] } },
{ "type": "Feature", "properties": { "fid": 25533, "ClassId": 7, "Class": "Bare_Other" }, "geometry": { "type": "Point", "coordinates": [ 180.252365700000013, -16.79503913 ] } },
{ "type": "Feature", "properties": { "fid": 25570, "ClassId": 5, "Class": "Settlement" }, "geometry": { "type": "Point", "coordinates": [ 178.416062, -17.77815498 ] } },
{ "type": "Feature", "properties": { "fid": 25597, "ClassId": 1, "Class": "Cropland" }, "geometry": { "type": "Point", "coordinates": [ 177.4227036, -17.79486323 ] } },
{ "type": "Feature", "properties": { "fid": 25625, "ClassId": 1, "Class": "Cropland" }, "geometry": { "type": "Point", "coordinates": [ 177.727773, -17.63532105 ] } },
{ "type": "Feature", "properties": { "fid": 25635, "ClassId": 1, "Class": "Cropland" }, "geometry": { "type": "Point", "coordinates": [ 177.804037, -17.64744981 ] } },
{ "type": "Feature", "properties": { "fid": 25636, "ClassId": 1, "Class": "Cropland" }, "geometry": { "type": "Point", "coordinates": [ 178.624110300000012, -16.83707954 ] } },
{ "type": "Feature", "properties": { "fid": 25698, "ClassId": 2, "Class": "Forest" }, "geometry": { "type": "Point", "coordinates": [ 178.377522, -17.75389747 ] } },
{ "type": "Feature", "properties": { "fid": 25727, "ClassId": 2, "Class": "Forest" }, "geometry": { "type": "Point", "coordinates": [ 177.9342026, -18.17134513 ] } },
{ "type": "Feature", "properties": { "fid": 25795, "ClassId": 2, "Class": "Forest" }, "geometry": { "type": "Point", "coordinates": [ 178.213400299999989, -17.9379647 ] } },
{ "type": "Feature", "properties": { "fid": 25832, "ClassId": 2, "Class": "Forest" }, "geometry": { "type": "Point", "coordinates": [ 178.9251353, -16.54171314 ] } },
{ "type": "Feature", "properties": { "fid": 25844, "ClassId": 2, "Class": "Forest" }, "geometry": { "type": "Point", "coordinates": [ 177.90833090000001, -18.11043827 ] } },
{ "type": "Feature", "properties": { "fid": 25943, "ClassId": 2, "Class": "Forest" }, "geometry": { "type": "Point", "coordinates": [ 177.4612392, -17.90481574 ] } },
{ "type": "Feature", "properties": { "fid": 25962, "ClassId": 2, "Class": "Forest" }, "geometry": { "type": "Point", "coordinates": [ 178.0110106, -18.20772694 ] } },
{ "type": "Feature", "properties": { "fid": 25969, "ClassId": 2, "Class": "Forest" }, "geometry": { "type": "Point", "coordinates": [ 178.5332918, -18.08214527 ] } },
{ "type": "Feature", "properties": { "fid": 26081, "ClassId": 2, "Class": "Forest" }, "geometry": { "type": "Point", "coordinates": [ 181.0495326, -17.19334833 ] } },
{ "type": "Feature", "properties": { "fid": 26115, "ClassId": 2, "Class": "Forest" }, "geometry": { "type": "Point", "coordinates": [ 179.7743131, -16.69074076 ] } },
{ "type": "Feature", "properties": { "fid": 26141, "ClassId": 2, "Class": "Forest" }, "geometry": { "type": "Point", "coordinates": [ 178.2271433, -18.09642777 ] } },
{ "type": "Feature", "properties": { "fid": 26230, "ClassId": 3, "Class": "Grassland" }, "geometry": { "type": "Point", "coordinates": [ 177.6641684, -17.63559306 ] } },
{ "type": "Feature", "properties": { "fid": 26233, "ClassId": 3, "Class": "Grassland" }, "geometry": { "type": "Point", "coordinates": [ 177.359371, -18.00264396 ] } },
{ "type": "Feature", "properties": { "fid": 26267, "ClassId": 3, "Class": "Grassland" }, "geometry": { "type": "Point", "coordinates": [ 177.4873829, -18.13658198 ] } },
{ "type": "Feature", "properties": { "fid": 26312, "ClassId": 3, "Class": "Grassland" }, "geometry": { "type": "Point", "coordinates": [ 177.8034975, -17.53749283 ] } },
{ "type": "Feature", "properties": { "fid": 26315, "ClassId": 3, "Class": "Grassland" }, "geometry": { "type": "Point", "coordinates": [ 177.1418917, -17.2706959 ] } },
{ "type": "Feature", "properties": { "fid": 26342, "ClassId": 3, "Class": "Grassland" }, "geometry": { "type": "Point", "coordinates": [ 177.9064447, -17.73233771 ] } },
{ "type": "Feature", "properties": { "fid": 26359, "ClassId": 3, "Class": "Grassland" }, "geometry": { "type": "Point", "coordinates": [ 178.275114300000013, -17.68140586 ] } },
{ "type": "Feature", "properties": { "fid": 26367, "ClassId": 3, "Class": "Grassland" }, "geometry": { "type": "Point", "coordinates": [ 177.727773, -17.68437116 ] } },
{ "type": "Feature", "properties": { "fid": 26369, "ClassId": 3, "Class": "Grassland" }, "geometry": { "type": "Point", "coordinates": [ 178.0196345, -17.50003638 ] } },
{ "type": "Feature", "properties": { "fid": 26412, "ClassId": 3, "Class": "Grassland" }, "geometry": { "type": "Point", "coordinates": [ 177.4712142, -16.81875263 ] } },
{ "type": "Feature", "properties": { "fid": 26432, "ClassId": 3, "Class": "Grassland" }, "geometry": { "type": "Point", "coordinates": [ 178.2214847, -17.2790478 ] } },
{ "type": "Feature", "properties": { "fid": 26466, "ClassId": 3, "Class": "Grassland" }, "geometry": { "type": "Point", "coordinates": [ 179.6228553, -16.71715201 ] } },
{ "type": "Feature", "properties": { "fid": 29274, "ClassId": 4, "Class": "Mangroves" }, "geometry": { "type": "Point", "coordinates": [ 181.030398600000012, -17.23108125 ] } },
{ "type": "Feature", "properties": { "fid": 29285, "ClassId": 4, "Class": "Mangroves" }, "geometry": { "type": "Point", "coordinates": [ 179.8974735, -16.72362217 ] } },
{ "type": "Feature", "properties": { "fid": 29319, "ClassId": 4, "Class": "Mangroves" }, "geometry": { "type": "Point", "coordinates": [ 178.008584899999988, -18.25947034 ] } },
{ "type": "Feature", "properties": { "fid": 29372, "ClassId": 4, "Class": "Mangroves" }, "geometry": { "type": "Point", "coordinates": [ 179.523952400000013, -16.78910853 ] } },
{ "type": "Feature", "properties": { "fid": 29428, "ClassId": 7, "Class": "Bare_Other" }, "geometry": { "type": "Point", "coordinates": [ 179.1582482, -17.79971473 ] } },
{ "type": "Feature", "properties": { "fid": 29439, "ClassId": 7, "Class": "Bare_Other" }, "geometry": { "type": "Point", "coordinates": [ 180.8676235, -17.26907725 ] } },
{ "type": "Feature", "properties": { "fid": 29490, "ClassId": 7, "Class": "Bare_Other" }, "geometry": { "type": "Point", "coordinates": [ 177.3911733, -17.66173231 ] } },
{ "type": "Feature", "properties": { "fid": 29495, "ClassId": 7, "Class": "Bare_Other" }, "geometry": { "type": "Point", "coordinates": [ 177.4191988, -17.77033817 ] } },
{ "type": "Feature", "properties": { "fid": 29518, "ClassId": 7, "Class": "Bare_Other" }, "geometry": { "type": "Point", "coordinates": [ 177.63614290000001, -18.49635563 ] } },
{ "type": "Feature", "properties": { "fid": 29551, "ClassId": 7, "Class": "Bare_Other" }, "geometry": { "type": "Point", "coordinates": [ 177.650425399999989, -18.5774756 ] } },
{ "type": "Feature", "properties": { "fid": 29635, "ClassId": 2, "Class": "Forest" }, "geometry": { "type": "Point", "coordinates": [ 178.1225818, -17.69460926 ] } },
{ "type": "Feature", "properties": { "fid": 29658, "ClassId": 2, "Class": "Forest" }, "geometry": { "type": "Point", "coordinates": [ 178.41740870000001, -17.96113865 ] } },
{ "type": "Feature", "properties": { "fid": 29682, "ClassId": 2, "Class": "Forest" }, "geometry": { "type": "Point", "coordinates": [ 177.944177599999989, -17.67116331 ] } },
{ "type": "Feature", "properties": { "fid": 29689, "ClassId": 2, "Class": "Forest" }, "geometry": { "type": "Point", "coordinates": [ 177.8315274, -18.04980341 ] } },
{ "type": "Feature", "properties": { "fid": 29715, "ClassId": 2, "Class": "Forest" }, "geometry": { "type": "Point", "coordinates": [ 177.9835203, -17.85387943 ] } },
{ "type": "Feature", "properties": { "fid": 29721, "ClassId": 2, "Class": "Forest" }, "geometry": { "type": "Point", "coordinates": [ 179.8435719, -16.23880195 ] } },
{ "type": "Feature", "properties": { "fid": 29722, "ClassId": 2, "Class": "Forest" }, "geometry": { "type": "Point", "coordinates": [ 178.0080453, -17.69514881 ] } },
{ "type": "Feature", "properties": { "fid": 29817, "ClassId": 2, "Class": "Forest" }, "geometry": { "type": "Point", "coordinates": [ 179.470862399999987, -16.69451762 ] } },
{ "type": "Feature", "properties": { "fid": 29826, "ClassId": 2, "Class": "Forest" }, "geometry": { "type": "Point", "coordinates": [ 178.1748648, -17.91397919 ] } },
{ "type": "Feature", "properties": { "fid": 29850, "ClassId": 2, "Class": "Forest" }, "geometry": { "type": "Point", "coordinates": [ 177.8813846, -17.81776963 ] } },
{ "type": "Feature", "properties": { "fid": 29925, "ClassId": 2, "Class": "Forest" }, "geometry": { "type": "Point", "coordinates": [ 177.997802799999988, -18.15894883 ] } },
{ "type": "Feature", "properties": { "fid": 29967, "ClassId": 3, "Class": "Grassland" }, "geometry": { "type": "Point", "coordinates": [ 179.0523356, -16.61366965 ] } },
{ "type": "Feature", "properties": { "fid": 29980, "ClassId": 3, "Class": "Grassland" }, "geometry": { "type": "Point", "coordinates": [ 177.792180300000012, -17.83043348 ] } },
{ "type": "Feature", "properties": { "fid": 29998, "ClassId": 3, "Class": "Grassland" }, "geometry": { "type": "Point", "coordinates": [ 177.7522936, -17.44020863 ] } },
{ "type": "Feature", "properties": { "fid": 30006, "ClassId": 3, "Class": "Grassland" }, "geometry": { "type": "Point", "coordinates": [ 177.5253789, -18.03875376 ] } },
{ "type": "Feature", "properties": { "fid": 30030, "ClassId": 3, "Class": "Grassland" }, "geometry": { "type": "Point", "coordinates": [ 179.0302408, -16.90660584 ] } },
{ "type": "Feature", "properties": { "fid": 30047, "ClassId": 3, "Class": "Grassland" }, "geometry": { "type": "Point", "coordinates": [ 177.512443, -18.02662946 ] } },
{ "type": "Feature", "properties": { "fid": 30073, "ClassId": 3, "Class": "Grassland" }, "geometry": { "type": "Point", "coordinates": [ 179.24637340000001, -18.00210441 ] } },
{ "type": "Feature", "properties": { "fid": 30206, "ClassId": 6, "Class": "Water" }, "geometry": { "type": "Point", "coordinates": [ 178.568326899999988, -18.06813032 ] } },
{ "type": "Feature", "properties": { "fid": 31525, "ClassId": 4, "Class": "Mangroves" }, "geometry": { "type": "Point", "coordinates": [ 179.4104951, -16.32422941 ] } },
{ "type": "Feature", "properties": { "fid": 31563, "ClassId": 4, "Class": "Mangroves" }, "geometry": { "type": "Point", "coordinates": [ 178.619798300000014, -18.06866987 ] } },
{ "type": "Feature", "properties": { "fid": 31583, "ClassId": 4, "Class": "Mangroves" }, "geometry": { "type": "Point", "coordinates": [ 178.3341349, -18.14735963 ] } },
{ "type": "Feature", "properties": { "fid": 31588, "ClassId": 4, "Class": "Mangroves" }, "geometry": { "type": "Point", "coordinates": [ 181.0613893, -17.24374509 ] } },
{ "type": "Feature", "properties": { "fid": 31591, "ClassId": 4, "Class": "Mangroves" }, "geometry": { "type": "Point", "coordinates": [ 179.7823975, -16.21346979 ] } },
{ "type": "Feature", "properties": { "fid": 31596, "ClassId": 4, "Class": "Mangroves" }, "geometry": { "type": "Point", "coordinates": [ 179.52314530000001, -16.75703867 ] } },
{ "type": "Feature", "properties": { "fid": 31618, "ClassId": 7, "Class": "Bare_Other" }, "geometry": { "type": "Point", "coordinates": [ 177.1267977, -17.34265241 ] } },
{ "type": "Feature", "properties": { "fid": 31654, "ClassId": 7, "Class": "Bare_Other" }, "geometry": { "type": "Point", "coordinates": [ 177.7633433, -17.39843577 ] } },
{ "type": "Feature", "properties": { "fid": 31658, "ClassId": 7, "Class": "Bare_Other" }, "geometry": { "type": "Point", "coordinates": [ 179.070395, -16.90283344 ] } },
{ "type": "Feature", "properties": { "fid": 31669, "ClassId": 7, "Class": "Bare_Other" }, "geometry": { "type": "Point", "coordinates": [ 178.4893652, -16.81201493 ] } },
{ "type": "Feature", "properties": { "fid": 31687, "ClassId": 7, "Class": "Bare_Other" }, "geometry": { "type": "Point", "coordinates": [ 181.0662408, -17.20278379 ] } },
{ "type": "Feature", "properties": { "fid": 31703, "ClassId": 7, "Class": "Bare_Other" }, "geometry": { "type": "Point", "coordinates": [ 177.57982, -16.72712256 ] } },
{ "type": "Feature", "properties": { "fid": 31723, "ClassId": 7, "Class": "Bare_Other" }, "geometry": { "type": "Point", "coordinates": [ 178.9933194, -16.9340962 ] } },
{ "type": "Feature", "properties": { "fid": 31760, "ClassId": 2, "Class": "Forest" }, "geometry": { "type": "Point", "coordinates": [ 177.790294100000011, -17.41568357 ] } },
{ "type": "Feature", "properties": { "fid": 31793, "ClassId": 2, "Class": "Forest" }, "geometry": { "type": "Point", "coordinates": [ 177.77924440000001, -17.80618043 ] } },
{ "type": "Feature", "properties": { "fid": 31947, "ClassId": 2, "Class": "Forest" }, "geometry": { "type": "Point", "coordinates": [ 178.9771462, -16.68777991 ] } },
{ "type": "Feature", "properties": { "fid": 32105, "ClassId": 1, "Class": "Cropland" }, "geometry": { "type": "Point", "coordinates": [ 179.051528499999989, -16.54063404 ] } },
{ "type": "Feature", "properties": { "fid": 32119, "ClassId": 2, "Class": "Forest" }, "geometry": { "type": "Point", "coordinates": [ 178.5295194, -17.66739091 ] } },
{ "type": "Feature", "properties": { "fid": 32151, "ClassId": 2, "Class": "Forest" }, "geometry": { "type": "Point", "coordinates": [ 178.0862, -18.01207496 ] } },
{ "type": "Feature", "properties": { "fid": 32165, "ClassId": 2, "Class": "Forest" }, "geometry": { "type": "Point", "coordinates": [ 177.7789769, -17.74500602 ] } },
{ "type": "Feature", "properties": { "fid": 32166, "ClassId": 2, "Class": "Forest" }, "geometry": { "type": "Point", "coordinates": [ 177.8175124, -17.81803718 ] } },
{ "type": "Feature", "properties": { "fid": 32174, "ClassId": 3, "Class": "Grassland" }, "geometry": { "type": "Point", "coordinates": [ 177.5216065, -16.78183127 ] } },
{ "type": "Feature", "properties": { "fid": 32180, "ClassId": 3, "Class": "Grassland" }, "geometry": { "type": "Point", "coordinates": [ 177.5881719, -17.80671998 ] } },
{ "type": "Feature", "properties": { "fid": 32189, "ClassId": 3, "Class": "Grassland" }, "geometry": { "type": "Point", "coordinates": [ 177.369881099999986, -16.9408339 ] } },
{ "type": "Feature", "properties": { "fid": 32496, "ClassId": 7, "Class": "Bare_Other" }, "geometry": { "type": "Point", "coordinates": [ 177.5593394, -16.68804746 ] } },
{ "type": "Feature", "properties": { "fid": 32517, "ClassId": 7, "Class": "Bare_Other" }, "geometry": { "type": "Point", "coordinates": [ 177.5687704, -16.73979087 ] } },
{ "type": "Feature", "properties": { "fid": 32558, "ClassId": 7, "Class": "Bare_Other" }, "geometry": { "type": "Point", "coordinates": [ 177.62832610000001, -18.19209779 ] } },
{ "type": "Feature", "properties": { "fid": 32563, "ClassId": 7, "Class": "Bare_Other" }, "geometry": { "type": "Point", "coordinates": [ 177.6385687, -18.58663905 ] } },
{ "type": "Feature", "properties": { "fid": 32567, "ClassId": 7, "Class": "Bare_Other" }, "geometry": { "type": "Point", "coordinates": [ 177.577661799999987, -16.70556727 ] } },
{ "type": "Feature", "properties": { "fid": 32574, "ClassId": 7, "Class": "Bare_Other" }, "geometry": { "type": "Point", "coordinates": [ 177.032746300000014, -17.6118751 ] } },
{ "type": "Feature", "properties": { "fid": 32597, "ClassId": 3, "Class": "Grassland" }, "geometry": { "type": "Point", "coordinates": [ 179.4331339, -16.70718146 ] } },
{ "type": "Feature", "properties": { "fid": 32659, "ClassId": 2, "Class": "Forest" }, "geometry": { "type": "Point", "coordinates": [ 178.1592312, -17.46257548 ] } },
{ "type": "Feature", "properties": { "fid": 32660, "ClassId": 2, "Class": "Forest" }, "geometry": { "type": "Point", "coordinates": [ 177.7544518, -17.95251475 ] } },
{ "type": "Feature", "properties": { "fid": 32759, "ClassId": 1, "Class": "Cropland" }, "geometry": { "type": "Point", "coordinates": [ 177.727233500000011, -17.51351179 ] } },
{ "type": "Feature", "properties": { "fid": 32959, "ClassId": 1, "Class": "Cropland" }, "geometry": { "type": "Point", "coordinates": [ 180.078541, -16.72308262 ] } },
{ "type": "Feature", "properties": { "fid": 33178, "ClassId": 2, "Class": "Forest" }, "geometry": { "type": "Point", "coordinates": [ 177.6005682, -17.64798936 ] } },
{ "type": "Feature", "properties": { "fid": 33240, "ClassId": 1, "Class": "Cropland" }, "geometry": { "type": "Point", "coordinates": [ 179.591864500000014, -16.2908129 ] } },
{ "type": "Feature", "properties": { "fid": 33369, "ClassId": 1, "Class": "Cropland" }, "geometry": { "type": "Point", "coordinates": [ 179.0774002, -16.57701584 ] } },
{ "type": "Feature", "properties": { "fid": 33759, "ClassId": 2, "Class": "Forest" }, "geometry": { "type": "Point", "coordinates": [ 178.26217840000001, -17.64502406 ] } },
{ "type": "Feature", "properties": { "fid": 33924, "ClassId": 2, "Class": "Forest" }, "geometry": { "type": "Point", "coordinates": [ 177.9059052, -17.6223852 ] } },
{ "type": "Feature", "properties": { "fid": 33927, "ClassId": 2, "Class": "Forest" }, "geometry": { "type": "Point", "coordinates": [ 178.4419337, -17.85118613 ] } },
{ "type": "Feature", "properties": { "fid": 33942, "ClassId": 2, "Class": "Forest" }, "geometry": { "type": "Point", "coordinates": [ 178.9148927, -16.77374692 ] } },
{ "type": "Feature", "properties": { "fid": 33948, "ClassId": 2, "Class": "Forest" }, "geometry": { "type": "Point", "coordinates": [ 178.5303265, -17.74069407 ] } },
{ "type": "Feature", "properties": { "fid": 33969, "ClassId": 3, "Class": "Grassland" }, "geometry": { "type": "Point", "coordinates": [ 177.930969800000014, -17.54908204 ] } },
{ "type": "Feature", "properties": { "fid": 33975, "ClassId": 3, "Class": "Grassland" }, "geometry": { "type": "Point", "coordinates": [ 178.5971595, -18.09373002 ] } },
{ "type": "Feature", "properties": { "fid": 34218, "ClassId": 7, "Class": "Bare_Other" }, "geometry": { "type": "Point", "coordinates": [ 178.339254, -17.49060093 ] } },
{ "type": "Feature", "properties": { "fid": 34356, "ClassId": 1, "Class": "Cropland" }, "geometry": { "type": "Point", "coordinates": [ 178.39126490000001, -17.87597874 ] } },
{ "type": "Feature", "properties": { "fid": 34358, "ClassId": 2, "Class": "Forest" }, "geometry": { "type": "Point", "coordinates": [ 178.698760099999987, -16.67807691 ] } },
{ "type": "Feature", "properties": { "fid": 34418, "ClassId": 4, "Class": "Mangroves" }, "geometry": { "type": "Point", "coordinates": [ 179.4188514, -16.329888 ] } },
{ "type": "Feature", "properties": { "fid": 34421, "ClassId": 1, "Class": "Cropland" }, "geometry": { "type": "Point", "coordinates": [ 177.7019013, -17.57441419 ] } },
{ "type": "Feature", "properties": { "fid": 34617, "ClassId": 4, "Class": "Mangroves" }, "geometry": { "type": "Point", "coordinates": [ 179.881839899999989, -16.5767483 ] } },
{ "type": "Feature", "properties": { "fid": 34719, "ClassId": 7, "Class": "Bare_Other" }, "geometry": { "type": "Point", "coordinates": [ 179.6886136, -16.74383527 ] } },
{ "type": "Feature", "properties": { "fid": 34734, "ClassId": 1, "Class": "Cropland" }, "geometry": { "type": "Point", "coordinates": [ 178.5963524, -18.02069886 ] } },
{ "type": "Feature", "properties": { "fid": 34741, "ClassId": 2, "Class": "Forest" }, "geometry": { "type": "Point", "coordinates": [ 178.2514008, -17.93769269 ] } },
{ "type": "Feature", "properties": { "fid": 34775, "ClassId": 3, "Class": "Grassland" }, "geometry": { "type": "Point", "coordinates": [ 178.902768400000014, -16.83465378 ] } },
{ "type": "Feature", "properties": { "fid": 34897, "ClassId": 1, "Class": "Cropland" }, "geometry": { "type": "Point", "coordinates": [ 177.5507155, -18.02635746 ] } },
{ "type": "Feature", "properties": { "fid": 34948, "ClassId": 2, "Class": "Forest" }, "geometry": { "type": "Point", "coordinates": [ 178.20208310000001, -18.15760218 ] } },
{ "type": "Feature", "properties": { "fid": 35353, "ClassId": 3, "Class": "Grassland" }, "geometry": { "type": "Point", "coordinates": [ 179.6325583, -16.49751453 ] } },
{ "type": "Feature", "properties": { "fid": 35398, "ClassId": 2, "Class": "Forest" }, "geometry": { "type": "Point", "coordinates": [ 177.5628398, -17.84336933 ] } },
{ "type": "Feature", "properties": { "fid": 35444, "ClassId": 7, "Class": "Bare_Other" }, "geometry": { "type": "Point", "coordinates": [ 178.0945519, -18.25084644 ] } },
{ "type": "Feature", "properties": { "fid": 35462, "ClassId": 2, "Class": "Forest" }, "geometry": { "type": "Point", "coordinates": [ 179.3549792, -16.52527244 ] } },
{ "type": "Feature", "properties": { "fid": 35481, "ClassId": 3, "Class": "Grassland" }, "geometry": { "type": "Point", "coordinates": [ 177.4612392, -17.98997565 ] } },
{ "type": "Feature", "properties": { "fid": 35628, "ClassId": 7, "Class": "Bare_Other" }, "geometry": { "type": "Point", "coordinates": [ 177.4817243, -18.17053803 ] } },
{ "type": "Feature", "properties": { "fid": 35693, "ClassId": 2, "Class": "Forest" }, "geometry": { "type": "Point", "coordinates": [ 177.4871109, -18.03875376 ] } },
{ "type": "Feature", "properties": { "fid": 35711, "ClassId": 7, "Class": "Bare_Other" }, "geometry": { "type": "Point", "coordinates": [ 179.1922042, -16.70745347 ] } },
{ "type": "Feature", "properties": { "fid": 35720, "ClassId": 2, "Class": "Forest" }, "geometry": { "type": "Point", "coordinates": [ 178.325511, -17.5957064 ] } },
{ "type": "Feature", "properties": { "fid": 35759, "ClassId": 2, "Class": "Forest" }, "geometry": { "type": "Point", "coordinates": [ 178.1107251, -17.82881928 ] } },
{ "type": "Feature", "properties": { "fid": 35828, "ClassId": 1, "Class": "Cropland" }, "geometry": { "type": "Point", "coordinates": [ 177.918033900000012, -17.51270023 ] } },
{ "type": "Feature", "properties": { "fid": 35830, "ClassId": 1, "Class": "Cropland" }, "geometry": { "type": "Point", "coordinates": [ 179.3708804, -16.79342048 ] } },
{ "type": "Feature", "properties": { "fid": 35847, "ClassId": 2, "Class": "Forest" }, "geometry": { "type": "Point", "coordinates": [ 177.524304199999989, -17.69703501 ] } },
{ "type": "Feature", "properties": { "fid": 35987, "ClassId": 7, "Class": "Bare_Other" }, "geometry": { "type": "Point", "coordinates": [ 177.2122296, -17.16127848 ] } },
{ "type": "Feature", "properties": { "fid": 35990, "ClassId": 7, "Class": "Bare_Other" }, "geometry": { "type": "Point", "coordinates": [ 178.1047945, -18.37831876 ] } },
{ "type": "Feature", "properties": { "fid": 36115, "ClassId": 2, "Class": "Forest" }, "geometry": { "type": "Point", "coordinates": [ 178.060056300000014, -17.87786494 ] } },
{ "type": "Feature", "properties": { "fid": 36156, "ClassId": 3, "Class": "Grassland" }, "geometry": { "type": "Point", "coordinates": [ 177.448575299999987, -17.99024766 ] } },
{ "type": "Feature", "properties": { "fid": 36157, "ClassId": 3, "Class": "Grassland" }, "geometry": { "type": "Point", "coordinates": [ 178.04523420000001, -17.51189313 ] } },
{ "type": "Feature", "properties": { "fid": 36203, "ClassId": 1, "Class": "Cropland" }, "geometry": { "type": "Point", "coordinates": [ 179.0523356, -16.6015409 ] } },
{ "type": "Feature", "properties": { "fid": 36207, "ClassId": 2, "Class": "Forest" }, "geometry": { "type": "Point", "coordinates": [ 178.5181977, -17.82612153 ] } },
{ "type": "Feature", "properties": { "fid": 36219, "ClassId": 2, "Class": "Forest" }, "geometry": { "type": "Point", "coordinates": [ 178.3023326, -17.9007758 ] } },
{ "type": "Feature", "properties": { "fid": 36223, "ClassId": 2, "Class": "Forest" }, "geometry": { "type": "Point", "coordinates": [ 178.635967, -16.73952332 ] } },
{ "type": "Feature", "properties": { "fid": 36355, "ClassId": 2, "Class": "Forest" }, "geometry": { "type": "Point", "coordinates": [ 179.706401, -16.35010111 ] } },
{ "type": "Feature", "properties": { "fid": 36393, "ClassId": 2, "Class": "Forest" }, "geometry": { "type": "Point", "coordinates": [ 178.571559799999989, -18.09400202 ] } },
{ "type": "Feature", "properties": { "fid": 36395, "ClassId": 2, "Class": "Forest" }, "geometry": { "type": "Point", "coordinates": [ 178.7375677, -16.78748987 ] } },
{ "type": "Feature", "properties": { "fid": 36634, "ClassId": 7, "Class": "Bare_Other" }, "geometry": { "type": "Point", "coordinates": [ 178.9526256, -16.46679133 ] } },
{ "type": "Feature", "properties": { "fid": 36651, "ClassId": 2, "Class": "Forest" }, "geometry": { "type": "Point", "coordinates": [ 179.850042, -16.67753736 ] } },
{ "type": "Feature", "properties": { "fid": 36666, "ClassId": 4, "Class": "Mangroves" }, "geometry": { "type": "Point", "coordinates": [ 179.777818, -19.15284678 ] } },
{ "type": "Feature", "properties": { "fid": 36745, "ClassId": 2, "Class": "Forest" }, "geometry": { "type": "Point", "coordinates": [ 178.1856424, -17.5965135 ] } },
{ "type": "Feature", "properties": { "fid": 36749, "ClassId": 2, "Class": "Forest" }, "geometry": { "type": "Point", "coordinates": [ 178.009392, -17.9635644 ] } },
{ "type": "Feature", "properties": { "fid": 36946, "ClassId": 7, "Class": "Bare_Other" }, "geometry": { "type": "Point", "coordinates": [ 179.9837125, -16.53901538 ] } },
{ "type": "Feature", "properties": { "fid": 37099, "ClassId": 7, "Class": "Bare_Other" }, "geometry": { "type": "Point", "coordinates": [ 179.741975700000012, -16.73197406 ] } },
{ "type": "Feature", "properties": { "fid": 37101, "ClassId": 7, "Class": "Bare_Other" }, "geometry": { "type": "Point", "coordinates": [ 178.7324486, -17.01225086 ] } },
{ "type": "Feature", "properties": { "fid": 37112, "ClassId": 7, "Class": "Bare_Other" }, "geometry": { "type": "Point", "coordinates": [ 180.207632, -16.79530668 ] } },
{ "type": "Feature", "properties": { "fid": 37113, "ClassId": 7, "Class": "Bare_Other" }, "geometry": { "type": "Point", "coordinates": [ 180.681942099999986, -17.77007063 ] } },
{ "type": "Feature", "properties": { "fid": 37145, "ClassId": 2, "Class": "Forest" }, "geometry": { "type": "Point", "coordinates": [ 179.7694616, -16.34929401 ] } },
{ "type": "Feature", "properties": { "fid": 37182, "ClassId": 3, "Class": "Grassland" }, "geometry": { "type": "Point", "coordinates": [ 177.372039300000012, -17.99024766 ] } },
{ "type": "Feature", "properties": { "fid": 37188, "ClassId": 3, "Class": "Grassland" }, "geometry": { "type": "Point", "coordinates": [ 178.9763391, -16.602348 ] } },
{ "type": "Feature", "properties": { "fid": 37465, "ClassId": 7, "Class": "Bare_Other" }, "geometry": { "type": "Point", "coordinates": [ 178.216905200000014, -17.2820131 ] } },
{ "type": "Feature", "properties": { "fid": 37472, "ClassId": 5, "Class": "Settlement" }, "geometry": { "type": "Point", "coordinates": [ 177.3973715, -17.84390888 ] } },
{ "type": "Feature", "properties": { "fid": 37483, "ClassId": 1, "Class": "Cropland" }, "geometry": { "type": "Point", "coordinates": [ 177.868988300000012, -17.89107279 ] } },
{ "type": "Feature", "properties": { "fid": 37493, "ClassId": 2, "Class": "Forest" }, "geometry": { "type": "Point", "coordinates": [ 178.1888753, -18.09669532 ] } },
{ "type": "Feature", "properties": { "fid": 37502, "ClassId": 2, "Class": "Forest" }, "geometry": { "type": "Point", "coordinates": [ 177.4987001, -17.6606532 ] } },
{ "type": "Feature", "properties": { "fid": 37569, "ClassId": 2, "Class": "Forest" }, "geometry": { "type": "Point", "coordinates": [ 178.2387325, -17.950089 ] } },
{ "type": "Feature", "properties": { "fid": 37572, "ClassId": 2, "Class": "Forest" }, "geometry": { "type": "Point", "coordinates": [ 178.215019, -18.18212724 ] } },
{ "type": "Feature", "properties": { "fid": 37641, "ClassId": 3, "Class": "Grassland" }, "geometry": { "type": "Point", "coordinates": [ 177.7671157, -17.91586539 ] } },
{ "type": "Feature", "properties": { "fid": 38165, "ClassId": 4, "Class": "Mangroves" }, "geometry": { "type": "Point", "coordinates": [ 177.8291016, -18.24707404 ] } },
{ "type": "Feature", "properties": { "fid": 38207, "ClassId": 7, "Class": "Bare_Other" }, "geometry": { "type": "Point", "coordinates": [ 177.3582964, -17.76440757 ] } },
{ "type": "Feature", "properties": { "fid": 38214, "ClassId": 7, "Class": "Bare_Other" }, "geometry": { "type": "Point", "coordinates": [ 179.5452446, -16.78910853 ] } },
{ "type": "Feature", "properties": { "fid": 38256, "ClassId": 7, "Class": "Bare_Other" }, "geometry": { "type": "Point", "coordinates": [ 179.898013, -18.6596702 ] } },
{ "type": "Feature", "properties": { "fid": 38263, "ClassId": 7, "Class": "Bare_Other" }, "geometry": { "type": "Point", "coordinates": [ 178.977685799999989, -17.45233292 ] } },
{ "type": "Feature", "properties": { "fid": 38269, "ClassId": 7, "Class": "Bare_Other" }, "geometry": { "type": "Point", "coordinates": [ 177.4755261, -16.85001539 ] } },
{ "type": "Feature", "properties": { "fid": 38388, "ClassId": 2, "Class": "Forest" }, "geometry": { "type": "Point", "coordinates": [ 177.7423231, -18.08672477 ] } },
{ "type": "Feature", "properties": { "fid": 38430, "ClassId": 3, "Class": "Grassland" }, "geometry": { "type": "Point", "coordinates": [ 177.575775599999986, -17.84336933 ] } },
{ "type": "Feature", "properties": { "fid": 38486, "ClassId": 1, "Class": "Cropland" }, "geometry": { "type": "Point", "coordinates": [ 179.4296291, -16.42690913 ] } },
{ "type": "Feature", "properties": { "fid": 38528, "ClassId": 3, "Class": "Grassland" }, "geometry": { "type": "Point", "coordinates": [ 178.1107251, -17.85334434 ] } },
{ "type": "Feature", "properties": { "fid": 38653, "ClassId": 7, "Class": "Bare_Other" }, "geometry": { "type": "Point", "coordinates": [ 177.6396478, -18.54459418 ] } },
{ "type": "Feature", "properties": { "fid": 38657, "ClassId": 7, "Class": "Bare_Other" }, "geometry": { "type": "Point", "coordinates": [ 177.3458956, -16.9648194 ] } },
{ "type": "Feature", "properties": { "fid": 38699, "ClassId": 2, "Class": "Forest" }, "geometry": { "type": "Point", "coordinates": [ 177.8821917, -18.02527836 ] } },
{ "type": "Feature", "properties": { "fid": 38742, "ClassId": 3, "Class": "Grassland" }, "geometry": { "type": "Point", "coordinates": [ 178.1851029, -17.51108604 ] } },
{ "type": "Feature", "properties": { "fid": 38994, "ClassId": 7, "Class": "Bare_Other" }, "geometry": { "type": "Point", "coordinates": [ 179.978861, -16.54117359 ] } },
{ "type": "Feature", "properties": { "fid": 39013, "ClassId": 7, "Class": "Bare_Other" }, "geometry": { "type": "Point", "coordinates": [ 177.35613810000001, -16.97748325 ] } },
{ "type": "Feature", "properties": { "fid": 39032, "ClassId": 7, "Class": "Bare_Other" }, "geometry": { "type": "Point", "coordinates": [ 178.25732690000001, -17.40490146 ] } },
{ "type": "Feature", "properties": { "fid": 39038, "ClassId": 7, "Class": "Bare_Other" }, "geometry": { "type": "Point", "coordinates": [ 178.3249715, -16.80743543 ] } },
{ "type": "Feature", "properties": { "fid": 39044, "ClassId": 7, "Class": "Bare_Other" }, "geometry": { "type": "Point", "coordinates": [ 180.2386227, -16.79853953 ] } },
{ "type": "Feature", "properties": { "fid": 39047, "ClassId": 7, "Class": "Bare_Other" }, "geometry": { "type": "Point", "coordinates": [ 178.0500858, -18.261089 ] } },
{ "type": "Feature", "properties": { "fid": 39131, "ClassId": 3, "Class": "Grassland" }, "geometry": { "type": "Point", "coordinates": [ 179.0663506, -16.74787522 ] } },
{ "type": "Feature", "properties": { "fid": 39190, "ClassId": 1, "Class": "Cropland" }, "geometry": { "type": "Point", "coordinates": [ 177.727233500000011, -17.50111103 ] } },
{ "type": "Feature", "properties": { "fid": 39386, "ClassId": 2, "Class": "Forest" }, "geometry": { "type": "Point", "coordinates": [ 177.996188600000011, -17.85387943 ] } },
{ "type": "Feature", "properties": { "fid": 39391, "ClassId": 2, "Class": "Forest" }, "geometry": { "type": "Point", "coordinates": [ 177.804848600000014, -17.84256223 ] } },
{ "type": "Feature", "properties": { "fid": 39567, "ClassId": 2, "Class": "Forest" }, "geometry": { "type": "Point", "coordinates": [ 178.429805, -17.912093 ] } },
{ "type": "Feature", "properties": { "fid": 39570, "ClassId": 3, "Class": "Grassland" }, "geometry": { "type": "Point", "coordinates": [ 179.3565979, -16.65921045 ] } },
{ "type": "Feature", "properties": { "fid": 39574, "ClassId": 3, "Class": "Grassland" }, "geometry": { "type": "Point", "coordinates": [ 178.273767600000014, -17.46176838 ] } },
{ "type": "Feature", "properties": { "fid": 39582, "ClassId": 3, "Class": "Grassland" }, "geometry": { "type": "Point", "coordinates": [ 178.774756599999989, -16.70179041 ] } },
{ "type": "Feature", "properties": { "fid": 39697, "ClassId": 4, "Class": "Mangroves" }, "geometry": { "type": "Point", "coordinates": [ 178.4893652, -16.79153428 ] } },
{ "type": "Feature", "properties": { "fid": 39820, "ClassId": 2, "Class": "Forest" }, "geometry": { "type": "Point", "coordinates": [ 178.1727066, -17.56013169 ] } },
{ "type": "Feature", "properties": { "fid": 39838, "ClassId": 7, "Class": "Bare_Other" }, "geometry": { "type": "Point", "coordinates": [ 178.139557599999989, -18.26324274 ] } },
{ "type": "Feature", "properties": { "fid": 39857, "ClassId": 2, "Class": "Forest" }, "geometry": { "type": "Point", "coordinates": [ 178.2880501, -17.70565891 ] } },
{ "type": "Feature", "properties": { "fid": 39866, "ClassId": 2, "Class": "Forest" }, "geometry": { "type": "Point", "coordinates": [ 179.177921700000013, -16.53928739 ] } },
{ "type": "Feature", "properties": { "fid": 39877, "ClassId": 3, "Class": "Grassland" }, "geometry": { "type": "Point", "coordinates": [ 178.0110106, -18.23198445 ] } },
{ "type": "Feature", "properties": { "fid": 39890, "ClassId": 3, "Class": "Grassland" }, "geometry": { "type": "Point", "coordinates": [ 177.6903121, -17.83070548 ] } },
{ "type": "Feature", "properties": { "fid": 39892, "ClassId": 3, "Class": "Grassland" }, "geometry": { "type": "Point", "coordinates": [ 177.666059, -18.19694929 ] } },
{ "type": "Feature", "properties": { "fid": 40000, "ClassId": 7, "Class": "Bare_Other" }, "geometry": { "type": "Point", "coordinates": [ 176.9262942, -17.11546567 ] } },
{ "type": "Feature", "properties": { "fid": 40125, "ClassId": 2, "Class": "Forest" }, "geometry": { "type": "Point", "coordinates": [ 177.931509299999988, -17.69568836 ] } },
{ "type": "Feature", "properties": { "fid": 40350, "ClassId": 7, "Class": "Bare_Other" }, "geometry": { "type": "Point", "coordinates": [ 179.392979700000012, -17.81372523 ] } },
{ "type": "Feature", "properties": { "fid": 40354, "ClassId": 7, "Class": "Bare_Other" }, "geometry": { "type": "Point", "coordinates": [ 179.874027500000011, -18.56857969 ] } },
{ "type": "Feature", "properties": { "fid": 40373, "ClassId": 7, "Class": "Bare_Other" }, "geometry": { "type": "Point", "coordinates": [ 177.4951997, -16.83034183 ] } },
{ "type": "Feature", "properties": { "fid": 40432, "ClassId": 2, "Class": "Forest" }, "geometry": { "type": "Point", "coordinates": [ 177.5113684, -17.6482569 ] } },
{ "type": "Feature", "properties": { "fid": 40472, "ClassId": 2, "Class": "Forest" }, "geometry": { "type": "Point", "coordinates": [ 178.162736, -18.02366416 ] } },
{ "type": "Feature", "properties": { "fid": 40490, "ClassId": 2, "Class": "Forest" }, "geometry": { "type": "Point", "coordinates": [ 177.4739075, -17.86816639 ] } },
{ "type": "Feature", "properties": { "fid": 40504, "ClassId": 2, "Class": "Forest" }, "geometry": { "type": "Point", "coordinates": [ 178.1635431, -18.12122038 ] } },
{ "type": "Feature", "properties": { "fid": 40506, "ClassId": 2, "Class": "Forest" }, "geometry": { "type": "Point", "coordinates": [ 179.242329, -16.63630405 ] } },
{ "type": "Feature", "properties": { "fid": 40533, "ClassId": 3, "Class": "Grassland" }, "geometry": { "type": "Point", "coordinates": [ 178.0444272, -17.39007941 ] } },
{ "type": "Feature", "properties": { "fid": 40552, "ClassId": 3, "Class": "Grassland" }, "geometry": { "type": "Point", "coordinates": [ 177.3952133, -16.90418455 ] } },
{ "type": "Feature", "properties": { "fid": 40555, "ClassId": 3, "Class": "Grassland" }, "geometry": { "type": "Point", "coordinates": [ 178.212593199999986, -17.81615098 ] } },
{ "type": "Feature", "properties": { "fid": 40960, "ClassId": 7, "Class": "Bare_Other" }, "geometry": { "type": "Point", "coordinates": [ 178.1072202, -18.42035917 ] } },
{ "type": "Feature", "properties": { "fid": 40969, "ClassId": 7, "Class": "Bare_Other" }, "geometry": { "type": "Point", "coordinates": [ 178.7421472, -17.77815498 ] } },
{ "type": "Feature", "properties": { "fid": 40975, "ClassId": 7, "Class": "Bare_Other" }, "geometry": { "type": "Point", "coordinates": [ 177.4278227, -16.90471964 ] } },
{ "type": "Feature", "properties": { "fid": 40995, "ClassId": 7, "Class": "Bare_Other" }, "geometry": { "type": "Point", "coordinates": [ 179.917147, -18.59256519 ] } },
{ "type": "Feature", "properties": { "fid": 41033, "ClassId": 5, "Class": "Settlement" }, "geometry": { "type": "Point", "coordinates": [ 179.4042969, -16.42717667 ] } },
{ "type": "Feature", "properties": { "fid": 41042, "ClassId": 1, "Class": "Cropland" }, "geometry": { "type": "Point", "coordinates": [ 177.2698991, -17.89295899 ] } },
{ "type": "Feature", "properties": { "fid": 41101, "ClassId": 2, "Class": "Forest" }, "geometry": { "type": "Point", "coordinates": [ 178.900070699999986, -16.55410944 ] } },
{ "type": "Feature", "properties": { "fid": 41114, "ClassId": 2, "Class": "Forest" }, "geometry": { "type": "Point", "coordinates": [ 178.339526, -17.77869453 ] } },
{ "type": "Feature", "properties": { "fid": 41141, "ClassId": 2, "Class": "Forest" }, "geometry": { "type": "Point", "coordinates": [ 178.4306121, -18.03417426 ] } },
{ "type": "Feature", "properties": { "fid": 41164, "ClassId": 2, "Class": "Forest" }, "geometry": { "type": "Point", "coordinates": [ 178.502029, -18.88739204 ] } },
{ "type": "Feature", "properties": { "fid": 41201, "ClassId": 2, "Class": "Forest" }, "geometry": { "type": "Point", "coordinates": [ 178.137131900000014, -17.9751536 ] } },
{ "type": "Feature", "properties": { "fid": 41206, "ClassId": 2, "Class": "Forest" }, "geometry": { "type": "Point", "coordinates": [ 178.13740390000001, -18.02393171 ] } },
{ "type": "Feature", "properties": { "fid": 41226, "ClassId": 2, "Class": "Forest" }, "geometry": { "type": "Point", "coordinates": [ 178.3492245, -19.02294871 ] } },
{ "type": "Feature", "properties": { "fid": 41242, "ClassId": 2, "Class": "Forest" }, "geometry": { "type": "Point", "coordinates": [ 178.085660499999989, -17.90212245 ] } },
{ "type": "Feature", "properties": { "fid": 41293, "ClassId": 3, "Class": "Grassland" }, "geometry": { "type": "Point", "coordinates": [ 177.741244, -17.83070548 ] } },
{ "type": "Feature", "properties": { "fid": 41338, "ClassId": 3, "Class": "Grassland" }, "geometry": { "type": "Point", "coordinates": [ 178.286971, -17.53507154 ] } },
{ "type": "Feature", "properties": { "fid": 41345, "ClassId": 3, "Class": "Grassland" }, "geometry": { "type": "Point", "coordinates": [ 178.3524619, -17.79081882 ] } },
{ "type": "Feature", "properties": { "fid": 42226, "ClassId": 7, "Class": "Bare_Other" }, "geometry": { "type": "Point", "coordinates": [ 177.6043406, -18.52061314 ] } },
{ "type": "Feature", "properties": { "fid": 42229, "ClassId": 7, "Class": "Bare_Other" }, "geometry": { "type": "Point", "coordinates": [ 178.3589275, -17.49114048 ] } },
{ "type": "Feature", "properties": { "fid": 42266, "ClassId": 7, "Class": "Bare_Other" }, "geometry": { "type": "Point", "coordinates": [ 179.3649498, -18.10073972 ] } },
{ "type": "Feature", "properties": { "fid": 42289, "ClassId": 7, "Class": "Bare_Other" }, "geometry": { "type": "Point", "coordinates": [ 179.605879499999986, -16.22640565 ] } },
{ "type": "Feature", "properties": { "fid": 42327, "ClassId": 7, "Class": "Bare_Other" }, "geometry": { "type": "Point", "coordinates": [ 179.9271176, -16.48862308 ] } },
{ "type": "Feature", "properties": { "fid": 42331, "ClassId": 7, "Class": "Bare_Other" }, "geometry": { "type": "Point", "coordinates": [ 180.9015796, -16.74059797 ] } },
{ "type": "Feature", "properties": { "fid": 42355, "ClassId": 7, "Class": "Bare_Other" }, "geometry": { "type": "Point", "coordinates": [ 180.0243763, -16.13234983 ] } },
{ "type": "Feature", "properties": { "fid": 42371, "ClassId": 7, "Class": "Bare_Other" }, "geometry": { "type": "Point", "coordinates": [ 179.0067948, -17.60405829 ] } },
{ "type": "Feature", "properties": { "fid": 42375, "ClassId": 7, "Class": "Bare_Other" }, "geometry": { "type": "Point", "coordinates": [ 178.2007365, -18.9790221 ] } },
{ "type": "Feature", "properties": { "fid": 42379, "ClassId": 7, "Class": "Bare_Other" }, "geometry": { "type": "Point", "coordinates": [ 179.327760899999987, -16.80797498 ] } },
{ "type": "Feature", "properties": { "fid": 42397, "ClassId": 7, "Class": "Bare_Other" }, "geometry": { "type": "Point", "coordinates": [ 178.8095242, -16.50910374 ] } },
{ "type": "Feature", "properties": { "fid": 42494, "ClassId": 7, "Class": "Bare_Other" }, "geometry": { "type": "Point", "coordinates": [ 177.566072600000012, -16.72928077 ] } },
{ "type": "Feature", "properties": { "fid": 42512, "ClassId": 7, "Class": "Bare_Other" }, "geometry": { "type": "Point", "coordinates": [ 180.709428, -17.00497361 ] } },
{ "type": "Feature", "properties": { "fid": 42534, "ClassId": 7, "Class": "Bare_Other" }, "geometry": { "type": "Point", "coordinates": [ 178.8052122, -16.9524231 ] } },
{ "type": "Feature", "properties": { "fid": 42566, "ClassId": 7, "Class": "Bare_Other" }, "geometry": { "type": "Point", "coordinates": [ 178.758855399999987, -17.78866508 ] } },
{ "type": "Feature", "properties": { "fid": 42593, "ClassId": 7, "Class": "Bare_Other" }, "geometry": { "type": "Point", "coordinates": [ 178.476157300000011, -18.98522025 ] } },
{ "type": "Feature", "properties": { "fid": 42607, "ClassId": 7, "Class": "Bare_Other" }, "geometry": { "type": "Point", "coordinates": [ 177.2550771, -17.89592429 ] } },
{ "type": "Feature", "properties": { "fid": 42612, "ClassId": 7, "Class": "Bare_Other" }, "geometry": { "type": "Point", "coordinates": [ 178.147106900000011, -18.36780866 ] } },
{ "type": "Feature", "properties": { "fid": 42638, "ClassId": 7, "Class": "Bare_Other" }, "geometry": { "type": "Point", "coordinates": [ 179.312666799999988, -16.72658747 ] } },
{ "type": "Feature", "properties": { "fid": 42776, "ClassId": 7, "Class": "Bare_Other" }, "geometry": { "type": "Point", "coordinates": [ 179.522066200000012, -16.80285148 ] } },
{ "type": "Feature", "properties": { "fid": 42802, "ClassId": 7, "Class": "Bare_Other" }, "geometry": { "type": "Point", "coordinates": [ 177.2707107, -17.09363837 ] } },
{ "type": "Feature", "properties": { "fid": 42829, "ClassId": 7, "Class": "Bare_Other" }, "geometry": { "type": "Point", "coordinates": [ 177.4119215, -16.89286289 ] } },
{ "type": "Feature", "properties": { "fid": 42836, "ClassId": 7, "Class": "Bare_Other" }, "geometry": { "type": "Point", "coordinates": [ 177.244839, -17.12867353 ] } },
{ "type": "Feature", "properties": { "fid": 42849, "ClassId": 7, "Class": "Bare_Other" }, "geometry": { "type": "Point", "coordinates": [ 177.4733679, -16.84354523 ] } },
{ "type": "Feature", "properties": { "fid": 42874, "ClassId": 7, "Class": "Bare_Other" }, "geometry": { "type": "Point", "coordinates": [ 177.3383508, -16.9866467 ] } },
{ "type": "Feature", "properties": { "fid": 42884, "ClassId": 7, "Class": "Bare_Other" }, "geometry": { "type": "Point", "coordinates": [ 177.6347963, -18.49312278 ] } },
{ "type": "Feature", "properties": { "fid": 42924, "ClassId": 7, "Class": "Bare_Other" }, "geometry": { "type": "Point", "coordinates": [ 177.589251, -16.70017622 ] } },
{ "type": "Feature", "properties": { "fid": 42952, "ClassId": 7, "Class": "Bare_Other" }, "geometry": { "type": "Point", "coordinates": [ 180.460953499999988, -17.262072 ] } },
{ "type": "Feature", "properties": { "fid": 42980, "ClassId": 7, "Class": "Bare_Other" }, "geometry": { "type": "Point", "coordinates": [ 177.6040731, -18.52034113 ] } },
{ "type": "Feature", "properties": { "fid": 43075, "ClassId": 3, "Class": "Grassland" }, "geometry": { "type": "Point", "coordinates": [ 177.867102100000011, -17.48844718 ] } },
{ "type": "Feature", "properties": { "fid": 43167, "ClassId": 1, "Class": "Cropland" }, "geometry": { "type": "Point", "coordinates": [ 179.2655074, -16.45304838 ] } },
{ "type": "Feature", "properties": { "fid": 43357, "ClassId": 2, "Class": "Forest" }, "geometry": { "type": "Point", "coordinates": [ 179.8551611, -18.6157436 ] } },
{ "type": "Feature", "properties": { "fid": 43381, "ClassId": 2, "Class": "Forest" }, "geometry": { "type": "Point", "coordinates": [ 177.9061772, -17.70781712 ] } },
{ "type": "Feature", "properties": { "fid": 43400, "ClassId": 3, "Class": "Grassland" }, "geometry": { "type": "Point", "coordinates": [ 180.3022229, -16.50021229 ] } },
{ "type": "Feature", "properties": { "fid": 43593, "ClassId": 7, "Class": "Bare_Other" }, "geometry": { "type": "Point", "coordinates": [ 177.2585819, -17.09579212 ] } },
{ "type": "Feature", "properties": { "fid": 43603, "ClassId": 7, "Class": "Bare_Other" }, "geometry": { "type": "Point", "coordinates": [ 177.5895186, -16.70071577 ] } },
{ "type": "Feature", "properties": { "fid": 43609, "ClassId": 5, "Class": "Settlement" }, "geometry": { "type": "Point", "coordinates": [ 178.5200839, -18.03336271 ] } },
{ "type": "Feature", "properties": { "fid": 43645, "ClassId": 2, "Class": "Forest" }, "geometry": { "type": "Point", "coordinates": [ 177.5504435, -17.91667249 ] } },
{ "type": "Feature", "properties": { "fid": 43653, "ClassId": 2, "Class": "Forest" }, "geometry": { "type": "Point", "coordinates": [ 178.214747, -18.16973094 ] } },
{ "type": "Feature", "properties": { "fid": 43671, "ClassId": 2, "Class": "Forest" }, "geometry": { "type": "Point", "coordinates": [ 178.199385400000011, -17.76737287 ] } },
{ "type": "Feature", "properties": { "fid": 43687, "ClassId": 2, "Class": "Forest" }, "geometry": { "type": "Point", "coordinates": [ 178.1635431, -18.14574543 ] } },
{ "type": "Feature", "properties": { "fid": 43725, "ClassId": 3, "Class": "Grassland" }, "geometry": { "type": "Point", "coordinates": [ 177.9069843, -17.86654774 ] } },
{ "type": "Feature", "properties": { "fid": 43741, "ClassId": 3, "Class": "Grassland" }, "geometry": { "type": "Point", "coordinates": [ 177.344821, -16.97748325 ] } },
{ "type": "Feature", "properties": { "fid": 43742, "ClassId": 3, "Class": "Grassland" }, "geometry": { "type": "Point", "coordinates": [ 178.3613533, -18.93724925 ] } },
{ "type": "Feature", "properties": { "fid": 43759, "ClassId": 3, "Class": "Grassland" }, "geometry": { "type": "Point", "coordinates": [ 177.2955033, -17.88056269 ] } },
{ "type": "Feature", "properties": { "fid": 43764, "ClassId": 3, "Class": "Grassland" }, "geometry": { "type": "Point", "coordinates": [ 178.5963524, -18.00857011 ] } },
{ "type": "Feature", "properties": { "fid": 43800, "ClassId": 3, "Class": "Grassland" }, "geometry": { "type": "Point", "coordinates": [ 178.336288700000011, -19.01081995 ] } },
{ "type": "Feature", "properties": { "fid": 44198, "ClassId": 4, "Class": "Mangroves" }, "geometry": { "type": "Point", "coordinates": [ 179.607765699999987, -16.18409324 ] } },
{ "type": "Feature", "properties": { "fid": 44270, "ClassId": 7, "Class": "Bare_Other" }, "geometry": { "type": "Point", "coordinates": [ 178.330090500000011, -18.93239774 ] } },
{ "type": "Feature", "properties": { "fid": 44336, "ClassId": 7, "Class": "Bare_Other" }, "geometry": { "type": "Point", "coordinates": [ 177.379044599999986, -16.96131455 ] } },
{ "type": "Feature", "properties": { "fid": 44340, "ClassId": 7, "Class": "Bare_Other" }, "geometry": { "type": "Point", "coordinates": [ 180.127051599999987, -16.83869373 ] } },
{ "type": "Feature", "properties": { "fid": 44358, "ClassId": 7, "Class": "Bare_Other" }, "geometry": { "type": "Point", "coordinates": [ 177.4108469, -18.13550288 ] } },
{ "type": "Feature", "properties": { "fid": 44396, "ClassId": 7, "Class": "Bare_Other" }, "geometry": { "type": "Point", "coordinates": [ 179.736852199999987, -16.45816742 ] } },
{ "type": "Feature", "properties": { "fid": 44404, "ClassId": 7, "Class": "Bare_Other" }, "geometry": { "type": "Point", "coordinates": [ 178.066254500000014, -17.34561326 ] } },
{ "type": "Feature", "properties": { "fid": 44431, "ClassId": 7, "Class": "Bare_Other" }, "geometry": { "type": "Point", "coordinates": [ 178.695794799999987, -16.66999256 ] } },
{ "type": "Feature", "properties": { "fid": 44450, "ClassId": 7, "Class": "Bare_Other" }, "geometry": { "type": "Point", "coordinates": [ 181.0471068, -17.34265241 ] } },
{ "type": "Feature", "properties": { "fid": 44463, "ClassId": 7, "Class": "Bare_Other" }, "geometry": { "type": "Point", "coordinates": [ 179.8478838, -16.76135062 ] } },
{ "type": "Feature", "properties": { "fid": 44465, "ClassId": 7, "Class": "Bare_Other" }, "geometry": { "type": "Point", "coordinates": [ 180.1294773, -16.83465378 ] } },
{ "type": "Feature", "properties": { "fid": 44518, "ClassId": 7, "Class": "Bare_Other" }, "geometry": { "type": "Point", "coordinates": [ 178.4740036, -18.97740345 ] } },
{ "type": "Feature", "properties": { "fid": 44524, "ClassId": 7, "Class": "Bare_Other" }, "geometry": { "type": "Point", "coordinates": [ 181.0169232, -17.2838993 ] } },
{ "type": "Feature", "properties": { "fid": 44528, "ClassId": 7, "Class": "Bare_Other" }, "geometry": { "type": "Point", "coordinates": [ 179.3633356, -16.80473768 ] } },
{ "type": "Feature", "properties": { "fid": 44880, "ClassId": 6, "Class": "Water" }, "geometry": { "type": "Point", "coordinates": [ 177.6630937, -17.74015452 ] } },
{ "type": "Feature", "properties": { "fid": 45097, "ClassId": 6, "Class": "Water" }, "geometry": { "type": "Point", "coordinates": [ 178.0336495, -17.74392692 ] } },
{ "type": "Feature", "properties": { "fid": 45640, "ClassId": 6, "Class": "Water" }, "geometry": { "type": "Point", "coordinates": [ 177.660668, -17.73718922 ] } },
{ "type": "Feature", "properties": { "fid": 46457, "ClassId": 1, "Class": "Cropland" }, "geometry": { "type": "Point", "coordinates": [ 178.568862, -17.80132892 ] } },
{ "type": "Feature", "properties": { "fid": 46886, "ClassId": 6, "Class": "Water" }, "geometry": { "type": "Point", "coordinates": [ 178.5456881, -18.04252616 ] } },
{ "type": "Feature", "properties": { "fid": 47818, "ClassId": 4, "Class": "Mangroves" }, "geometry": { "type": "Point", "coordinates": [ 178.915704299999987, -16.49104883 ] } }
]
}
